business_id,name,categories,city,latitude,longitude,bussines_stars,state
3TN-ujStgKayyhu61EHdcQ,Target,"Department Stores, Fashion, Drugstores, Shopping, Electronics, Food, Grocery, Home & Garden, Furniture Stores",Cherry Hill,39.934744,-75.024516,3.0,NV
oDETvkVkHw7CjZj7ZOZFOQ,Cajun Mike's Pub & Grub,"Pubs, Cajun/Creole, Restaurants, Sandwiches, Bars, Nightlife",New Orleans,29.9537303,-90.0711912,4.0,AZ
jaJhPD1mn5aqWUr61-nxyw,Noble's Kitchen & Beer Hall,"American (Traditional), Breakfast & Brunch, Sports Bars, Venues & Event Spaces, Burgers, Nightlife, Beer Bar, Bars, Restaurants, Event Planning & Services",Nashville,36.177625,-86.751925,3.5,NV
T_GeXNYY_zO0WpJzBxQj4w,LeBus East Falls,"Nightlife, Beer Bar, Burgers, Breakfast & Brunch, American (Traditional), Restaurants, Bars, Seafood",Philadelphia,40.0088924745,-75.1937016472,3.5,AZ
t4Xg0j6xTJLph5Tb1VaMOw,The Butterfly House,"Parks, Botanical Gardens, Hotels & Travel, Local Flavor, Tours, Active Life, Event Planning & Services, Venues & Event Spaces, Museums, Arts & Entertainment",Chesterfield,38.6645754987,-90.5428576467,4.5,NV
QFzJKnSUtkgSs1lKOOxXeA,Academy of Natural Sciences,"Museums, Arts & Entertainment",Philadelphia,39.957018627,-75.1712603922,4.0,CA
hmO76DoSlxEUPJ2NN3K9aw,Fly Away Airport Parking,"Airport Shuttles, Hotels & Travel, Transportation, Parking, Automotive",Nashville,36.1032776,-86.6677192,2.5,CA
bUOkpfl9d3buEISMj2eDVA,Catalina Brewing Company,"Bars, Food, Pubs, Nightlife, Beer Bar, Breweries",Tucson,32.3323120784,-111.0568096288,4.0,NV
glMJCRj6IglVf62LRzVofQ,Hawthorne Bottle Shoppe,"Delis, Restaurants, Nightlife, Wine Bars, Bars, Beer Bar, Breakfast & Brunch",Saint Petersburg,27.771274873,-82.6731608436,4.5,AZ
MLHZ9MOx1NlIqTOkeWKipA,Hooch and Hive,"Music Venues, American (Traditional), Nightlife, Bars, Pubs, Arts & Entertainment, Restaurants, Food, Cocktail Bars, Coffee & Tea",Tampa,27.9501585306,-82.4695999548,4.0,AZ
nOjucaxOstFp29SavInxFw,Walmart Supercenter,"Grocery, Food, Discount Store, Drugstores, Department Stores, Electronics, Shopping, Fashion",Tucson,32.223715,-110.918928,2.0,AZ
-aZpjNPSNfTXYkLMkQDiKw,Spitfire Pizza,"Sandwiches, Sports Bars, Beer Bar, Bars, Pizza, Restaurants, Nightlife, Italian",Boise,43.5805097,-116.2132414,4.5,AZ
tFpstYqxugKHzeyNUsuD_A,The Pint Room,"American (Traditional), Burgers, Bars, Restaurants, Pubs, Beer Bar, American (New), Nightlife",Carmel,39.9785056799,-86.1286025097,4.0,AZ
2mAiSk1LeHlNu4Iq5RH7Qw,Ridley Creek State Park,"Hiking, Parks, Active Life",Media,39.951174,-75.452064,4.5,CA
zARJJ_OKHW6PgzI9SXEVlw,Trouble's End Brewing,"Nightlife, Restaurants, Bars, Food, Breweries, Beer Bar, American (New)",Collegeville,40.1855636,-75.452407,4.5,NV
GAz37bfYB2mg2tn2CYel7A,Hot Wax Glass South Tampa,"Shopping, Fashion, Tobacco Shops, Vape Shops, Head Shops, Department Stores",Tampa,27.9488618,-82.5060663,4.0,NV
RBl6oonuZAnL0ZWgkNl41w,Santa's Pub,"Karaoke, Bars, Nightlife, Dive Bars, Pubs",Nashville,36.1274292,-86.7672272,4.0,NV
exppVImlqPm-ph0ImsHiqg,Macy's Furniture Gallery,"Fashion, Home & Garden, Home Decor, Women's Clothing, Men's Clothing, Shopping, Furniture Stores, Mattresses, Department Stores",Maple Shade,39.943737,-74.9891281,3.0,CA
DUdvoLTdMMdHA5Z9ana99Q,Greatimes Family Fun Park,"Active Life, Arts & Entertainment, Go Karts, Arcades, Amusement Parks",Indianapolis,39.7056588,-86.0739306,3.0,CA
rZovLZwbox_O2Qk9x7Uuew,Landmark Americana Tap & Grill - Glassboro,"Dance Clubs, Restaurants, Sports Bars, Bars, Beer Bar, American (Traditional), Nightlife",Glassboro,39.706681,-75.110083,2.5,CA
egnC9NBhtUhgl3rr57Ucqw,Water Wheel Tavern,"Nightlife, Pubs, Restaurants, American (Traditional), American (New), Bars",Doylestown,40.3417063,-75.1257597,3.5,NV
v3eo7Et1D70AXumFLzgcNA,O'skis Pub & Grille,"Irish, Restaurants, Nightlife, American (Traditional), Bars, Pubs",Sparks,39.535172,-119.753929,3.5,AZ
pdwHLvSSepLZaS6xmcRjQw,Lazydays RV Resort,"Campgrounds, Hotels & Travel, RV Parks, Resorts",Seffner,28.0119416283,-82.3027863836,4.0,AZ
ayhr1ZdoDJ4P6a0urN-YbA,The Laughing Fox Tavern,"Pubs, Bars, Nightlife, Restaurants, Pizza",Magnolia,39.852168,-75.0252028,3.0,AZ
wplllintEYRNQ9WafGDlWw,Golf N' Stuff,"Arts & Entertainment, Go Karts, Event Planning & Services, Arcades, Mini Golf, Active Life, Party & Event Planning, Amusement Parks, Team Building Activities, Amateur Sports Teams",Tucson,32.246767,-110.8547007,4.0,AZ
xPWfBAXS1s5fw2Qcb8xX7g,Luciana's Mexican Restaurant and Cantina,"Tex-Mex, Bars, Beer Bar, Restaurants, Latin American, Mexican, Nightlife",Indianapolis,39.9100708,-86.103308,3.5,NV
caJvCE_bavQYCHvF9E3UXw,Los Sarapes Chalfont,"Restaurants, Mexican, Nightlife, Bars, Pubs",Chalfont,40.2889979,-75.1995422,3.5,NV
733MFsA_zzEY9RzKWJPDBg,Saguaro National Park West,"Arts & Entertainment, Hiking, Museums, Active Life",Tucson,32.2544187,-111.1973189,4.5,NV
uf3strC3s96XPOM502o5lw,Tucson Museum of Art and Historic Block,"Art Museums, Museums, Art Schools, Education, Specialty Schools, Arts & Entertainment",Tucson,32.223488,-110.974687,4.0,AZ
AStCov7pI9nBwpIJhhjihQ,Molly's Irish Pub,"Bars, Irish Pub, Pubs, Dive Bars, Nightlife",New Orleans,29.9576752837,-90.0662362933,4.0,CA
jagmaEhb4lFekCc_umkjSw,10th Street Pub,"Bars, Pubs, Nightlife, Sports Bars, Dive Bars, American (Traditional), Restaurants",Indianapolis,39.7828636169,-85.9891891479,4.0,CA
XBlwldJfMJPzgEatHKFx8w,James Joyce Irish Pub & Eatery,"Nightlife, Bars, Irish Pub, Pubs, Irish, Restaurants",Tampa,27.9611208202,-82.4393979067,4.0,NV
ZufSfqQ4RfUk4RAQgnlc0Q,Station Taproom,"Gastropubs, Beer Bar, Restaurants, Nightlife, American (Traditional), Bars",Downingtown,40.002528589,-75.710738292,4.5,NV
c77Ay_H30p8q0OEsZjMfOw,Benchmark Sports Pub & Eatery,"Nightlife, Sports Bars, Restaurants, Pubs, Bars, American (Traditional)",Franklin,35.8629573083,-86.844516674,3.0,AZ
qpvv357PXpS73vnRGrNSrg,Kid Rip's,"Salad, Gay Bars, Desserts, Bars, Burgers, Food, Restaurants, Nightlife, Pubs",Runnemede,39.8461639,-75.0722709,4.0,AZ
PzZFqJmAMuXWiTgCV1zt4g,The Great American Pub,"Bars, Restaurants, Pubs, Burgers, Nightlife",Paoli,40.04099,-75.4977257,2.5,AZ
wPViqOIThG5W_p4FKGqjrQ,4 Hands Brewing,"Pubs, Breweries, Bars, Nightlife, Food",Saint Louis,38.61496,-90.197527,4.0,AZ
8DPP4sQpIo5ccP0DDmDj3w,3 Crow Bar,"Bars, Sandwiches, Dive Bars, Nightlife, Restaurants, Salad, Sports Bars, Beer, Wine & Spirits, Beer Bar, Chicken Wings, Burgers, Food",East Nashville,36.1773352626,-86.7500752434,3.5,AZ
snguCYg0ierKRuUTxCDH7w,Fritzel's European Jazz Pub,"Bars, Arts & Entertainment, Event Planning & Services, Musicians, Food, Pubs, Jazz & Blues, Restaurants, Nightlife",New Orleans,29.9593348,-90.0652064,4.5,AZ
Ib9HV7ekw459jM1Ksdiyiw,Independence Hall,"Public Services & Government, Landmarks & Historical Buildings",Philadelphia,39.9488980012,-75.1500296367,4.5,CA
HSv0Pe45yPAs6PgwlcTPcg,Dog and Bull,"Bars, Music Venues, Nightlife, Pubs, Restaurants, Arts & Entertainment, American (Traditional)",Croydon,40.0940274,-74.9063704,4.0,NV
yzcZ0VkgyxmiH5M_87ADOg,Costco,"Fashion, Department Stores, Electronics, Drugstores, Grocery, Food, Shopping",Tucson,32.2520815,-110.859486,3.5,CA
JOKReNU6x3qMnIcI_kF4nA,Honeysuckle Hill Farm,"Active Life, Event Planning & Services, Festivals, Local Flavor, Public Services & Government, Amusement Parks, Pumpkin Patches, Kids Activities, Venues & Event Spaces, Home & Garden, Landmarks & Historical Buildings, Farms, Shopping, Arts & Entertainment, Attraction Farms",Springfield,36.3907852013,-86.9443497381,2.5,CA
ScnvSvOAXUkz6ehSDFmtrQ,Tow Pro,"Transportation, Automotive, Parking, Hotels & Travel, Towing, Movers, Home Services",Nashville,36.2040096581,-86.8305633066,2.5,AZ
Z14urezF9qIyfK41FoJaow,Premier Parking of Tennessee,"Automotive, Parking",Nashville,36.1632379,-86.7758423,1.5,NV
OOaxVCZVCmw_kaDt1wIbnQ,Foundry Public House,"Restaurants, Bars, Nightlife, Pubs, American (Traditional)",Edwardsville,38.8120819,-89.9562277,3.5,NV
0v87LVTRfqPAPh2CVUW_QA,Indiana Historical Society,"Cultural Center, Arts & Entertainment, Museums",Indianapolis,39.7703294,-86.1661604,4.5,AZ
0NZkEpA4VeOy7b56KYGx_Q,118 North,"Music Venues, Arts & Entertainment, Nightlife, Beer Bar, Restaurants, American (Traditional), Bars",Wayne,40.0448985,-75.3881484,3.5,AZ
P5O0Pv2sWauI7pJUhq_v8w,2nd Ave Thrift Superstore,"Used, Vintage & Consignment, Shopping, Thrift Stores, Fashion, Department Stores",Pennsauken,39.9322334,-75.084013,3.5,NV
AT7olrgnw1dbLqE28n3eVQ,Capone's Restaurant and Bottle Shop,"Restaurants, Food, Bars, Pubs, Beer, Wine & Spirits, American (Traditional), Nightlife, Sandwiches, Sports Bars",Norristown,40.1465594526,-75.3256844357,4.0,AZ
wmByH6-0XAgLxLMUzWourA,Tennessee State Museum,"Arts & Entertainment, Museums",Nashville,36.172512,-86.790153,4.5,AZ
73esU0u3hYIPPqCScAA2HQ,Centennial Park,"Active Life, Parks",Nashville,36.149064,-86.811993,4.5,AZ
UsO0YVGRKu3PXsauJVkLXg,Macy's,"Women's Clothing, Department Stores, Shoe Stores, Shopping, Fashion, Beauty & Spas, Men's Clothing, Cosmetics & Beauty Supply",Reno,39.475943,-119.783118,3.0,NV
foa_Lkesm4B2adDwbjUX9Q,Right Around the Corner - Arcade Brewery,"Arcades, Bars, Beer Bar, Breweries, Pool Halls, Nightlife, Arts & Entertainment, Food, Pubs",Saint Petersburg,27.770772,-82.663949,4.5,CA
nEiOSf6W7ywvOQEOh_dwow,Glowgolf,"Venues & Event Spaces, Active Life, Mini Golf, Amusement Parks, Event Planning & Services",Indianapolis,39.766914,-86.158892,3.5,NV
IaQEUsz-a4NEZyTg4PiaTA,"Rick's Pizza, Beer, & More","Beer Bar, Restaurants, Nightlife, Pizza, Bars, Chicken Wings",Reno,39.5407518,-119.8173702,4.5,NV
l8gsO8mMoVF7vqTDUNGeZw,Gateway Arch National Park,"Nightlife, Landmarks & Historical Buildings, Active Life, Music Venues, Public Services & Government, Parks, Arts & Entertainment, Museums",Saint Louis,38.6256744,-90.1892739,4.5,NV
2SYEGA2fZLdzZQ9lmIfM5Q,Urban Village Brewing Co,"American (New), Bars, Food, Pubs, Breweries, Pizza, Restaurants, Nightlife",Philadelphia,39.9667,-75.13997,4.0,CA
oH-V_qIIUR3pkpOasIteoA,Walmart Supercenter,"Fashion, Mobile Phones, Shopping, Department Stores, Electronics, Grocery, Drugstores, Food, Discount Store",Tucson,32.1908937,-110.7702848,2.5,AZ
hDBnGZ40GSYc63GxEmjWVg,Noble Roman's Craft Pizza & Pub,"Bars, Nightlife, Pizza, Restaurants, Pubs",Brownsburg,39.846821,-86.397007,3.0,NV
d7LIvW1sTkJBTi3eL_LYZQ,Walmart Supercenter,"Fashion, Drugstores, Electronics, Grocery, Discount Store, Mobile Phones, Sporting Goods, Food, Department Stores, Shopping",Spring Hill,28.4584336,-82.6313742,2.0,NV
FNjY9rzdB0j-DYuKC0DmOw,Target,"Shopping, Sporting Goods, Fashion, Children's Clothing, Nurseries & Gardening, Grocery, Food, Furniture Stores, Electronics, Department Stores, Home & Garden",Metairie,30.002898,-90.184112,3.0,AZ
C7UcYxau9Rn5Q12hYOL2rA,Target,"Drugstores, Home & Garden, Eyewear & Opticians, Personal Shopping, Food, Furniture Stores, Shopping, Grocery, Fashion, Electronics, Department Stores",Clearwater,27.958182,-82.724497,3.5,NV
2ZLIyUiQ-TQjG3nyfKDnxA,Walmart Supercenter,"Department Stores, Grocery, Drugstores, Fashion, Shopping, Food, Discount Store, Electronics",St Charles,38.782561,-90.528168,2.0,AZ
gEJ3a8-m6VB827e6GHromw,Sauce on the Side,"Bars, Salad, Restaurants, Nightlife, Beer Bar, Italian",St. Louis,38.6271043879,-90.2566847205,4.5,CA
W06QBC9vkxA5CVBNVrOMRA,North Third,"Bars, Food, Beer, Wine & Spirits, Nightlife, Pubs, Restaurants, Burgers, American (New)",Philadelphia,39.96350593,-75.1427820977,4.0,AZ
TxXP32zeu7i9pDL_Xd3hWA,The Bunganut Pig Bar & Restaurant,"Arts & Entertainment, American (New), Restaurants, Nightlife, Music Venues, Pubs, Bars",Franklin,35.9170003,-86.8727494,3.0,AZ
XlIuTI1NRLzLlp11x-PTHA,Frog & Firkin,"Bars, American (Traditional), Pizza, Restaurants, Nightlife, Pubs, Burgers, American (New)",Tucson,32.2314846722,-110.9582967684,3.5,AZ
iqJ3t9iq0fsWaYL93s8Vmw,King of Prussia,"Shopping Centers, Fashion, Department Stores, Shopping",King Of Prussia,40.088372,-75.3915726,4.0,AZ
qo1skGbgDfQN3UItla2YLw,Santa Barbara Museum of Natural History,"Arts & Entertainment, Venues & Event Spaces, Public Services & Government, Active Life, Planetarium, Museums, Landmarks & Historical Buildings, Summer Camps, Event Planning & Services",Santa Barbara,34.440915,-119.714462,4.0,CA
F4HNi4Cq6YCrk-YGva-jCA,Walmart Supercenter,"Mobile Phones, Grocery, Drugstores, Electronics, Fashion, Discount Store, Shopping, Department Stores, Food",Reno,39.4810316616,-119.7987366175,2.0,AZ
AuaaGGR8ArIVhFABl7vIAA,The Prints & The Paper,"Bookstores, Shopping, Books, Mags, Music & Video, Printing Services, Arts & Entertainment, Flowers & Gifts, Local Services, Event Planning & Services, Cards & Stationery, Framing, Art Galleries, Gift Shops, Arts & Crafts",Edmonton,53.5518175,-113.5357297,4.5,NV
MOViZxyCV9W-B46Mul6RSw,Bullfrog Creek Brewing,"Breweries, Bars, Nightlife, Food, Pubs",Valrico,27.887546,-82.237778,4.5,AZ
tH_5sJ07lIZkdX14KBDNvA,Sam's Club,"Food, Drugstores, Wholesale Stores, Fashion, Tires, Grocery, Department Stores, Shopping, Automotive",Hendersonville,36.32906,-86.597205,2.5,CA
Omgbjm2M8GwCM-nK_sXOsA,Bellefonte Brewing,"Beer Bar, Nightlife, Breweries, Bars, Food",Wilmington,39.730792,-75.633549,4.5,AZ
crgS4ogZEt2rYGwYVfeK2A,Farm Burger Nashville,"Chicken Wings, Hot Dogs, Beer Bar, Salad, Bars, Nightlife, Restaurants, Burgers, American (Traditional)",Nashville,36.152213,-86.835193,4.0,NV
aca4m9TSqTxQsEQ2H0KSwA,Pizzeria Nonna,"Nightlife, Bars, Italian, Pubs, Restaurants, Food, Pizza, Desserts",Philadelphia,40.0600251316,-75.1910885247,3.5,NV
9sXtkZy1IumKBl31eM8Ijw,The Farm and Fisherman Tavern,"Sandwiches, Nightlife, Beer Bar, Bars, American (Traditional), Restaurants",Horsham,40.1881765546,-75.1458521344,4.0,NV
uTqmZj3IVvdXD99r3-kJxA,Nevada Museum of Art,"Specialty Schools, Art Museums, Venues & Event Spaces, Art Classes, Art Schools, Museums, Arts & Entertainment, Education, Event Planning & Services",Reno,39.5208903,-119.8132857,4.5,NV
otmz3zBEA4KvgJ5r8K5PRQ,The Frame Shop At Lakeside,"Arts & Entertainment, Shopping, Art Galleries, Framing, Home & Garden, Home Decor, Arts & Crafts",Reno,39.4924967,-119.807173,5.0,AZ
sRUSEvYXqilzRaMt15v6Gw,Dollar Car Rental,"Truck Rental, Automotive, Parking, Hotels & Travel, Car Rental",Tucson,32.1203929,-110.9353286,1.5,NV
D1LrSilfiSfZmNwkf6e7Zg,Grey Fox Pub,"Gay Bars, Nightlife, Bars, Performing Arts, Arts & Entertainment",Saint Louis,38.5940199,-90.2476849,3.0,CA
UNkOa6syMXonsoTErl2BIg,Costco Wholesale,"Food, Grocery, Shopping, Wholesale Stores, Fashion, Department Stores",Reno,39.5030121,-119.7849448,3.0,CA
9rBBukqUuhHQfh4_1V3vhw,Dollar Rent A Car,"Truck Rental, Parking, Car Rental, Hotels & Travel, Automotive",Tampa,27.9640444,-82.5345423,1.5,AZ
AOkvEcOTBvoQPdOden2ZOg,Target,"Shopping, Department Stores, Electronics, Food, Grocery, Fashion, Home & Garden, Furniture Stores",Langhorne,40.176502,-74.87843,3.0,NV
p0Sl_o64n-2l2pxiG489AA,Giggleberry Fair,"Active Life, Restaurants, Indoor Playcentre, Amusement Parks",New Hope,40.347856,-75.034826,3.0,NV
_Bi9kN_eR75G1eqIl7S3pA,The Bulldog,"American (Traditional), Restaurants, Beer, Wine & Spirits, Pubs, Food, Bars, Nightlife",New Orleans,29.9233606,-90.0873256,3.5,AZ
tZ_lWpM_VJrpg41rl7QDRg,Taphouse,"Bars, Restaurants, Pubs, Food, Gastropubs, Nightlife, Sports Bars, Beer, Wine & Spirits",Boise,43.6154111893,-116.2027890679,4.0,CA
QXGnmsKYANxOyZBqM-zlJA,The Plough & the Stars,"Nightlife, Irish, Restaurants, Bars, Gastropubs, Pubs",Philadelphia,39.948524,-75.1437297,3.5,CA
2HMf3ewAeMaeDsadJuL8DQ,Old Absinthe House,"Bars, Nightlife, Pubs, Dive Bars, Cocktail Bars, Restaurants, American (New)",New Orleans,29.9553128,-90.0684542,3.5,NV
z0SRVH4OpDQxgf2-m_wcZg,Jake's Eatery,"American (Traditional), Bars, Breakfast & Brunch, Nightlife, Restaurants, Pubs",Richboro,40.210401,-75.010509,3.5,CA
kbEVlzQLcYS3JSQPG9QMOQ,Liberty Bell Center,"Local Services, Public Services & Government, Landmarks & Historical Buildings, Local Flavor",Philadelphia,39.9495774962,-75.1503095688,4.0,AZ
BTPo7yWQ7xFOkoh7V9wDTA,Rudy's Pub & Grill,"Nightlife, American (Traditional), Pubs, Restaurants, Bars, American (New), Sports Bars",Meridian,43.5904703644,-116.3647413254,3.5,NV
h9UwnXTHZD055LK05F0GFQ,Irish Cultural Museum of New Orleans,"Venues & Event Spaces, Arts & Entertainment, Shopping, Museums, Event Planning & Services, Art Galleries",New Orleans,29.957433,-90.0691898,4.5,AZ
oThWInL6gUCt2d98fSIAfA,Chatham Tap Fishers,"Restaurants, Food, Beer, Wine & Spirits, Nightlife, British, American (Traditional), American (New), Chicken Wings, Bars, Pubs",Fishers,39.9565163876,-86.0230119251,3.5,AZ
2YTJa7DDWx2TQmHu-tPXlg,MOXI - The Wolf Museum Of Exploration + Innovation,"Children's Museums, Arts & Entertainment, Event Planning & Services, Venues & Event Spaces, Museums, Art Museums",Santa Barbara,34.4134819,-119.6916514,4.5,AZ
7QdjDfzcFKI2cfMRHFipFw,Biggest Aqua Life Aquarium,"Pet Services, Aquarium Services, Local Fish Stores, Pet Stores, Pets",Reno,39.5064866,-119.8056253,5.0,NV
w3t8RycX2LQZjmxM-oaqHg,Irish 31 - Westshore,"Bars, Nightlife, Restaurants, Sports Bars, Irish, Irish Pub, Pubs, American (Traditional)",Tampa,27.9455000026,-82.5268185139,4.0,AZ
oha2U5XJzc6IQdenpsxN1Q,Tarpon Springs Aquarium and Animal Sanctuary,"Tours, Hotels & Travel, Active Life, Zoos, Aquariums, Amusement Parks",Tarpon Springs,28.1683851163,-82.7544218117,3.5,NV
tJuyjXu2sGGRGjGWWNwAZA,JCPenney,"Women's Clothing, Men's Clothing, Fashion, Baby Gear & Furniture, Children's Clothing, Department Stores, Shopping, Home & Garden, Appliances",Reno,39.473746,-119.782579,3.0,AZ
6-5hbU746kMNgim0YOOg6w,Urban Cookhouse,"American (New), Automotive, Caterers, American (Traditional), Event Planning & Services, Comfort Food, Beer, Wine & Spirits, Parking, Sandwiches, Beer Bar, Vegetarian, Breakfast & Brunch, Wine Bars, Restaurants, Bars, Food, Nightlife",Nashville,36.1504257638,-86.7968296535,4.0,CA
Z_baIZoBe0N18WB5QM7UzA,Bowman's Tavern,"Beer Bar, Nightlife, American (Traditional), Restaurants, Bars",New Hope,40.326816,-74.931792,4.0,AZ
TlcMQKzX2Cxh3LSwY-24uw,Local Brewing,"Pubs, Music Venues, Bars, American (New), Nightlife, Gastropubs, Restaurants, Food, Breweries, Arts & Entertainment",Palm Harbor,28.0960115,-82.7379594,3.0,AZ
j1yb8y-jFwpG_hW9AH3PrQ,Santa Barbara Cider Company,"Bars, Wine Bars, Beer Bar, Wineries, Food, Wine Tasting Room, Nightlife, Arts & Entertainment, Cideries",Goleta,34.4347456363,-119.8258236619,5.0,AZ
S6L5hB5r9_j6UeanowxRvw,Picasso's Coffee House,"Arts & Entertainment, Shopping, Desserts, Restaurants, Breakfast & Brunch, Food, Coffee & Tea, Beverage Store, Art Galleries, Sandwiches, Cafes, Coffee Roasteries",Saint Charles,38.7812849,-90.4814815,4.5,NV
cjc4bQKxXvYVr7dHe1Vl_g,Hollywood Casino Amphitheatre - St. Louis,"Performing Arts, Arts & Entertainment, Event Planning & Services, Music Venues, Nightlife, Venues & Event Spaces",Maryland Heights,38.7444695,-90.4696259,3.0,CA
kJputVxFc4-tvwTI6MVm3g,Fort Ben Pub,"Restaurants, Nightlife, Bars, American (Traditional), Pubs",Indianapolis,39.8563955229,-86.0096655786,4.0,AZ
JjYmXia9-Dy0tGqI088Hfg,La Cabra Brewing,"Bars, Beer Bar, Brewpubs, Breweries, Restaurants, Nightlife, Food",Berwyn,40.0476220049,-75.4415199906,4.5,AZ
6IJ62H9UJi0p55XviPgeaA,Ybor Centennial Park,"Parks, Active Life",Tampa,27.9613286305,-82.4386111741,3.5,AZ
L7-PPe0fj-6U7qq31vjWnQ,Rincon Beach Bar,"Tapas/Small Plates, Beer Bar, Nightlife, Cocktail Bars, Bars, Food Delivery Services, Food, Restaurants",Carpinteria,34.4064015,-119.5477233411,4.5,AZ
ZhEJ98pvDE0E5DFyIQBAGg,Vince's Pizzeria and Taproom,"Bars, Nightlife, Restaurants, Beer Bar, Pizza",Newtown,40.2676399714,-74.9844142422,4.0,AZ
Nssa2tsfDlSdiURc_0qDFg,Llywelyn's Pub,"Bars, Pubs, Irish, Restaurants, Nightlife, Comfort Food",Saint Louis,38.610071,-90.2032713,3.5,AZ
lHK9hMs-GzSHuuN9uyZQKA,Kimmel Cultural Campus,"Music Venues, Performing Arts, Cinema, Nightlife, Arts & Entertainment",Philadelphia,39.946823,-75.165018,4.0,NV
bsRJY9hRr_p3PNZnxCqbjw,Barrelhouse Pub and Grill,"Nightlife, American (New), Burgers, Bars, Restaurants, Pubs",Garden City,43.6518350289,-116.280101873,3.0,AZ
qtgeJbDMky2YvKv8TWXk0w,University Mall,"Fashion, Department Stores, Shopping, Shopping Centers",Tampa,28.058019,-82.436151,2.0,CA
WMkiheTT-8kRslImVLWMVw,Standard Tap,"Local Flavor, American (Traditional), Restaurants, Burgers, Desserts, Breakfast & Brunch, Food, American (New), Gastropubs, Beer, Wine & Spirits, Nightlife, Bars, Pubs",Philadelphia,39.96414,-75.1405144,4.0,NV
7neWV37lyUK91x1WnCOyFQ,New Orleans Museum of Art,"Art Museums, Shopping, Arts & Entertainment, Art Galleries, Museums",New Orleans,29.986500127,-90.0934324968,4.5,CA
vq73W-SHrwBgXzQ__0yV2w,Second District Brewing,"American (New), Beer Bar, Restaurants, Bars, Food, Breweries, Nightlife, American (Traditional)",Philadelphia,39.9261812341,-75.1730921385,4.0,NV
M9vIGIzv7OuRtaRgr70aeg,Sanders Ferry Pizza & Pub,"Nightlife, Restaurants, Beer Bar, Pizza, Bars, Pubs, Chicken Wings",Hendersonville,36.3021938232,-86.6150535957,4.0,AZ
krTxH1a9kzWgwvt3PVH8pQ,Zookers Cafe,"American (Traditional), American (New), Nightlife, Bars, Beer Bar, Restaurants, Burgers",Carpinteria,34.3955443,-119.5139122,4.5,NV
mfRWNYc5wGLet9L0GGs1ig,Suburban Restaurant and Beer Garden,"Restaurants, Nightlife, Salad, American (New), Beer Gardens, Beer Bar, Bars, American (Traditional)",Exton,40.0619675,-75.6840878,4.0,AZ
CLGoxOPgDMz59RSGTn4v0w,Murphy's @ Flynn's,"Bars, Steakhouses, Restaurants, Event Planning & Services, Nightlife, Caterers, Pubs, Sandwiches, Seafood, Pizza",Indianapolis,39.84729,-86.11236,4.0,NV
pUlpCJBYR7chLMMUKA5Ydg,The Maison,"Venues & Event Spaces, Bars, Event Planning & Services, Nightlife, Jazz & Blues, Vegetarian, Cocktail Bars, Restaurants, Music Venues, Dive Bars, Arts & Entertainment",New Orleans,29.9627937,-90.0580004,4.0,CA
JY1q-u55yDv7D2shlAgCmw,Marshalls,"Department Stores, Fashion, Shopping",Wesley Chapel,28.1754636,-82.3555615,2.5,CA
AyCgav6b_x0HmSj4T6311A,Burlington,"Department Stores, Shopping, Fashion",Philadelphia,39.9515892654,-75.154816702,3.0,NV
BAaU9XVWHtSYU16BxdZERw,Franklin Music Hall,"Arts & Entertainment, Performing Arts, Music Venues, Event Planning & Services, Venues & Event Spaces, Nightlife",Philadelphia,39.9589273,-75.1500189,3.0,AZ
xjUtI0-k_d1-ZvBqXU9TYA,Old Herald Brewery & Distillery,"Food, Restaurants, American (New), Brewpubs, Event Planning & Services, Venues & Event Spaces, Breweries, Nightlife, Distilleries, Bars, Pubs",Collinsville,38.6713918,-89.986116,4.0,NV
HbXxINMJUKbHeuAnxtY6sw,O'Brien's Irish Pub & Grill,"Restaurants, Irish, Pubs, Nightlife, Bars, Irish Pub",Brandon,27.921765,-82.294907,3.5,NV
LKVdxqd_-FThU0JVHIMveg,Corner Pub Bellevue,"Nightlife, Sports Bars, Sandwiches, Bars, Restaurants, Pubs, American (Traditional), Burgers",Nashville,36.046683,-86.953611,3.5,CA
tWggqsQosvl26ZGX20CWPQ,Kildare's Irish Pub - West Chester,"Food, Pubs, Bars, Irish Pub, Beer, Wine & Spirits, Nightlife, Sports Bars, Irish, Restaurants",West Chester,39.9601228,-75.6056572,3.0,NV
IG2KelKEHCwybPl98frdgQ,La Parada,"Seafood, Local Flavor, Restaurants, Nightlife, Mexican, Beer Bar, Bars",Indianapolis,39.7716811,-86.1312087,4.0,CA
QmcUCigNOlv88MJW_-5Tag,Mag's 940,"Gay Bars, Performing Arts, Guest Houses, Local Flavor, Arts & Entertainment, Hotels & Travel, Bars, Nightlife, Social Clubs, Bed & Breakfast",New Orleans,29.9673788,-90.0571066,4.0,NV
Pk3N--cpw3uWZHhtUgR_FA,Pawn Shop Pub,"Nightlife, Pubs, Bars",Indianapolis,39.8518491,-86.1240708,4.0,AZ
PA_MlxC2gw_Rc6bXfa1Q5Q,Indianapolis Central Public Library,"Public Services & Government, Arts & Entertainment, Libraries",Indianapolis,39.77818,-86.156768,4.5,AZ
LNQSFEjYjJNODULj_mSWvw,Walmart Supercenter,"Shopping, Grocery, Department Stores, Fashion, Drugstores, Food, Electronics, Discount Store",Philadelphia,40.0831794358,-74.9628725129,1.5,CA
zAWIE3Tsvs82dW97OykxKw,Buffalo Wild Wings,"Chicken Wings, Desserts, Food, Sports Bars, Restaurants, American (Traditional), Beer Bar, Nightlife, Bars",Boise,43.6152228,-116.2035361,2.0,NV
dwm49y-s5ZaBl9diRlwtcw,Altitude Trampoline Park,"Event Planning & Services, Trampoline Parks, Active Life, Venues & Event Spaces, Rock Climbing",Nashville,36.19069801,-86.62928407,3.5,AZ
wPi7p5fZyGTOjDU28IlTqA,Woody's,"Restaurants, Bars, American (Traditional), Gay Bars, Dance Clubs, Nightlife, Pubs",Philadelphia,39.949064,-75.16241,3.0,AZ
JIgMaSsHwvlrevGC5sat4A,Stub's Sports Pub,"Bars, Pubs, Nightlife",Boise,43.5696456335,-116.1887359434,3.5,AZ
ZXKBVg-5drZ37wnwVEZe-A,Crescent Park,"Active Life, Dog Parks, Parks",New Orleans,29.9617310864,-90.0552477135,4.0,NV
59hbaCuGsGbPYbq5QBkaKA,The Flying Pig Saloon,"Nightlife, Restaurants, Bars, Pubs, American (Traditional)",Malvern,40.0368874,-75.5129515,4.0,AZ
z6AaOssKSrQDgBE3ty5Itw,P J Whelihan's - Sewell,"American (New), Beer, Wine & Spirits, Nightlife, Bars, Restaurants, Food, Chicken Wings, Gastropubs, Pubs, American (Traditional), Sports Bars",Sewell,39.73420788,-75.0648903,3.0,AZ
ARKtuM_CFDs427PjEXKwQw,Carnton,"Public Services & Government, Landmarks & Historical Buildings, Venues & Event Spaces, Event Planning & Services",Franklin,35.9039645889,-86.8582539722,4.5,AZ
S6ix_JnnUAv3k1quNE1GlA,A' Amor'e Pizzeria Grill & Pub,"Nightlife, Restaurants, Pizza, Sandwiches, Pubs, Bars",Pinellas Park,27.8603393559,-82.729034407,3.5,AZ
d7W1Fi6uRYUhDT_uW83d7w,The AllWays Lounge & Cabaret,"Nightlife, Performing Arts, Bars, Lounges, Arts & Entertainment, Music Venues, Cabaret",New Orleans,29.9685314431,-90.0556376032,4.5,NV
TdvI2kA0zslVlFS8a8YuTQ,The Sydney and Walda Besthoff Sculpture Garden,"Active Life, Arts & Entertainment, Parks",New Orleans,29.985983,-90.094271,5.0,AZ
N6tQYrWI8dK2YCPGtRJBHA,Quinn's Neighbourhood Pub and Eatery,"Pubs, Restaurants, Pizza, Nightlife, American (Traditional), Bars, Burgers",Franklin,35.915537,-86.840114,4.0,NV
kxsZpxBlYDFd-e0sh_c0mA,Great Barn Taproom,"Breweries, Beer Bar, Food, Farms, Nightlife, Arts & Entertainment, Bars",New Hope,40.36217,-74.951146,4.0,AZ
QgAvtXqgqz7x3YzrlNZRtQ,Walmart Supercenter,"Department Stores, Discount Store, Electronics, Fashion, Food, Drugstores, Shopping, Mobile Phones, Grocery",Boise,43.592279,-116.284745,2.5,NV
mu4DnyS_KgIKY4ziwzSslg,Urban Air Adventure Park - Willow Grove,"Rock Climbing, Active Life, Kids Activities, Trampoline Parks, Amusement Parks",Willow Grove,40.158328,-75.1251939,3.0,NV
RQWn5smjc-oVLzf3gHAnQg,Salty Shamrock,"Bars, Nightlife, Seafood, Restaurants, Irish Pub, Gastropubs",Apollo Beach,27.7681556,-82.3932343,3.5,CA
vaarp5cTV2b3-wZtQDn06g,P J Whelihan's Pub & Restaurant - West Chester,"Pubs, American (Traditional), American (New), Gastropubs, Chicken Wings, Nightlife, Restaurants, Sports Bars, Bars, Burgers",West Chester,39.9032021,-75.56431152,3.5,AZ
U1gebvkhLXW-m7dRqvZKwA,Musical Legends Park,"Bars, Arts & Entertainment, Nightlife, Jazz & Blues",New Orleans,29.955845,-90.0684361,4.5,NV
q75UQjNm6AEK4XNnkDLxTQ,The Project -- Coraz√≥n Cocina & Taproom,"Breweries, Bars, Burgers, Mexican, Tacos, Cocktail Bars, Club Crawl, Breakfast & Brunch, Beer Bar, Nightlife, Restaurants, Food",Santa Barbara,34.4145556,-119.6918679,4.0,CA
hxh1ongobphqXq30V13ukg,Bottle Bar East,"Food, Bars, American (Traditional), Nightlife, Gastropubs, Barbeque, Breakfast & Brunch, Restaurants, Pubs, Sports Bars, Beer, Wine & Spirits, Beer Bar",Philadelphia,39.970471,-75.134725,4.0,AZ
3tR1GRfd-0moZ8F-L6MGaA,Hilltown Tavern - Fairmount,"Breakfast & Brunch, Burgers, Restaurants, Sports Bars, Pubs, Bars, Nightlife",Philadelphia,39.9697986,-75.1763008,3.0,AZ
UF4XfzG0kvcVQTlpa4i5lA,Global Brew Tap House,"Lounges, Bars, Nightlife, Pubs",Edwardsville,38.7851229,-89.9570835,4.0,AZ
iJ3A49gtUPspc7nd4Ov2HA,Escape My Room,"Local Flavor, Challenge Courses, Event Planning & Services, Active Life, Arts & Entertainment, Venues & Event Spaces, Hotels & Travel, Escape Games, Tours, Museums",New Orleans,29.9473568,-90.0679304,5.0,AZ
0Hdvz0Ups_nN9kIb3uo4VA,Curran's Irish Inn,"Nightlife, Restaurants, Pubs, Irish Pub, Bars, American (Traditional), Sports Bars",Bensalem,40.0759765364,-74.9543717313,2.5,AZ
Q7B71n7tWwo70wJlZltBPA,US Post Office,"Post Offices, Local Services, Shipping Centers, Public Services & Government",Saint Louis,38.5772294,-90.4069459,1.5,NV
Kd2ldlgqcWP7drZ-ChG4Kw,Santa Barbara Botanic Garden,"Shopping, Museums, Arts & Entertainment, Home & Garden, Botanical Gardens, Nurseries & Gardening",Santa Barbara,34.4564877,-119.7099564195,4.0,NV
ykLukxAf8_iaDJwVUyYHlA,Walmart Supercenter,"Mobile Phones, Grocery, Department Stores, Convenience Stores, Food, Drugstores, Shopping, Discount Store, Electronics, Fashion",Levittown,40.1422698,-74.8222656,1.5,NV
ho7GpzsVdUi9ndG3Z4LuuA,The Taproom & Grill,"Bars, Pubs, Nightlife, Sports Bars",Haddon Township,39.9001269395,-75.0530919996,2.5,NV
VmcuFXUrXInZat40t-IbDg,Target,"Baby Gear & Furniture, Shopping, Home & Garden, Furniture Stores, Grocery, Fashion, Electronics, Department Stores, Food",Tucson,32.27986,-110.977,3.5,CA
MCSyG3ndsNFJN-F9MQWM0A,The Foodery Chestnut Hill,"Nightlife, Restaurants, Sandwiches, Beer Bar, Bars, Food, Beer, Wine & Spirits",Philadelphia,40.0694910114,-75.1994167295,4.0,AZ
M4n8LURoCNCMYkw_Yd9q1A,Antique Alley,"Shopping, Antiques, Thrift Stores, Art Galleries, Arts & Entertainment, Fashion, Used, Vintage & Consignment",Santa Barbara,34.4190504,-119.698095,4.5,NV
2T5t9DguNoYQAoTpA_8mcw,Philly AIDS Thrift,"Fashion, Department Stores, Used, Vintage & Consignment, Shopping, Thrift Stores, Local Services, Community Service/Non-Profit",Philadelphia,39.940654,-75.151203,4.5,NV
XaZlFz3ODGONeVVj9WJ7_g,Target,"Fashion, Department Stores, Grocery, Shopping, Home & Garden, Furniture Stores, Electronics, Food",Sparks,39.535435,-119.716892,3.5,AZ
BWkiW0r0h7ytdbWMhay7wA,Rapp Brewing Company,"Nightlife, Bars, Local Flavor, Pubs, Beer, Wine & Spirits, Food, Breweries, Beverage Store",Seminole,27.870748,-82.735568,4.5,AZ
NlIzmzJUS-9kn1oxxL6qDA,Delaware Park Racetrack & Slots,"Parks, Arts & Entertainment, Golf, Casinos, Horse Racing, Active Life",Wilmington,39.7093819,-75.6528873,3.0,NV
m0bREye3nKAWWItFxQkTdQ,Olympia Kebob House And Taverna,"Mediterranean, Caterers, American (Traditional), Specialty Food, Ethnic Food, Burgers, Bars, Soup, Event Planning & Services, Restaurants, Pubs, Nightlife, Greek, Food",ST LOUIS,38.624106,-90.3080597,3.5,NV
JLqjsQthNxCiq6qKNvBioQ,Flowing Well Park,"Parks, Active Life",Carmel,39.957029,-86.083938,4.5,AZ
KBpwkWRLL4oV5Ss2JTXmzA,Get Air Tucson,"Trampoline Parks, Recreation Centers, Active Life",Tucson,32.2176149,-110.9615609,2.5,CA
ErLvculzR07OtMqRUjeNNQ,Lafayette Cemetery No.1,"Religious Organizations, Local Services, Funeral Services & Cemeteries, Arts & Entertainment, Museums",New Orleans,29.928848949,-90.0853710644,4.5,NV
Nk-SJhPlDBkAZvfsADtccA,HopCat - Broad Ripple,"Restaurants, Pubs, Nightlife, American (Traditional), Bars, Beer Bar, Burgers",Indianapolis,39.8694505414,-86.1464068063,3.5,NV
OGd2l-ngsBy0409KbRETVw,Sam's Club,"Shopping, Department Stores, Tires, Automotive, Fashion, Wholesale Stores, Drugstores, Grocery, Food",Franklin,35.942528,-86.818028,2.0,NV
13NG8W2DG_eKRn3ppYw5Ow,Walmart Supercenter,"Grocery, Shopping, Department Stores, Fashion, Food",Mount Laurel,39.9314088519,-74.9633722591,2.0,AZ
nDExX1KzYmd03Dw_TMIXUw,Target,"Drugstores, Food, Furniture Stores, Department Stores, Fashion, Shopping, Home & Garden, Electronics, Grocery",Franklin,35.89233,-86.880687,3.5,NV
Zbxa2StnSktqNdkH-v2qmw,Grand Adventure Land,"Amusement Parks, Active Life, Go Karts, Mini Golf",Reno,39.5234844,-119.7804047,2.5,NV
fux8aN2h-uvuDUKCQMhCLw,MacDinton's Soho,"Nightlife, Irish Pub, Sports Bars, Bars, Pubs, Irish, Restaurants",Tampa,27.9405328457,-82.4831670086,3.0,CA
HW5LkI9qeqVDwHqhd00_8A,The Happy Rooster,"Bars, Nightlife, American (New), Pubs, Restaurants",Philadelphia,39.9504391,-75.1675545,3.5,CA
aqdsoQnytxapbk5i8zksVQ,The Warwick Tavern,"Beer Bar, Food, Nightlife, Restaurants, Beer, Wine & Spirits, Salad, Chicken Wings, Bars",Somerdale,39.8377259,-75.025017,3.5,NV
SOcYuL35HYCzUQu_Iyje8w,Brodie's Dark Horse Tavern,"Nightlife, Gay Bars, Beer, Wine & Spirits, Pubs, Sports Bars, Food, Fast Food, Restaurants, Karaoke, Dive Bars, Bars",Tucson,32.2519777,-110.9722953,3.0,NV
8ZS1THgWImzW92oyblWHaA,Sewerage & Water Board of New Orleans,Public Services & Government,New Orleans,29.944382,-90.071647,1.5,NV
oCoiJ-GBriiupCgpgWfVhQ,Paddy's Old City Pub,"Restaurants, American (Traditional), Nightlife, Bars, Pubs",Philadelphia,39.9537271,-75.1439691,3.5,NV
x5CfVY1EWkkti2N_eVlfaw,Domani Star,"Restaurants, Italian, Salad, Nightlife, Arts & Entertainment, Jazz & Blues, Breakfast & Brunch",Doylestown,40.3093902377,-75.1320069885,4.0,CA
Gx8lLXUrtwJP2Kh95WZNBg,The Stone Tavern,"Irish, Restaurants, Nightlife, Irish Pub, Pubs, Bars",West Chester,39.9687611,-75.5580102,3.5,NV
6xS8kItlMKI9eCwviIvjwg,Fresco Italian Cafe on the Canal,"Italian, Beer Bar, Bars, American (New), Nightlife, Wine Bars, Cafes, Restaurants",Indianapolis,39.7748766948,-86.1648461434,4.5,AZ
yu9e-_S7U97kleJQw0eOzQ,Richland Creek Greenway,"Hiking, Active Life, Parks",Nashville,36.1404819333,-86.8431829138,4.5,CA
EYw-TrwWA6h_1g_-TzbyLg,Canadian Tire,"Auto Repair, Auto Parts & Supplies, Department Stores, Shopping, Tires, Fashion, Automotive",Edmonton,53.6204556,-113.3976143,2.0,AZ
6pzRJjjbt_q8H3wL6TgIJg,Zen Rock,"Nightlife, Bars, Lounges, Pubs, Dance Clubs",Tucson,32.2221044466,-110.9692436025,2.5,NV
5DW8hK3NokQmw5jBCYYp6Q,The Pour House - North Wales,"Restaurants, Pubs, Burgers, Beer Bar, Bars, Nightlife, Food, Gastropubs, American (Traditional), Breakfast & Brunch",North Wales,40.23824271,-75.24153078,3.5,AZ
--O3ip9NpXTKD4oBS1pY2A,Alameda Park,"Active Life, Parks",Santa Barbara,34.4283025212,-119.7053968432,4.5,AZ
eeJREj8AQeQqX-uQQoSrCA,Sierra Tap House,"Local Flavor, Pool Halls, Bars, Beer Bar, Nightlife",Reno,39.5250001,-119.8164266,4.0,NV
LP8DNBLmHnrr7VYLB75MkQ,Duncan McClellan Gallery,"Education, Glass Blowing, Arts & Entertainment, Event Planning & Services, Art Galleries, Venues & Event Spaces, Shopping, Art Classes, Museums",St. Petersburg,27.76535,-82.665358,5.0,NV
DGY8cn8wttngO_BszB7BOQ,21st Street Brewer's Bar,"Breweries, Food, Lounges, Pubs, Bars, Nightlife, Restaurants, Pizza",Saint Louis,38.6212170703,-90.2127919014,4.5,AZ
zZo62mlKnFgerNx1pXq7Ng,Cherry Street Tavern,"Beer Bar, Sandwiches, Nightlife, Bars, Restaurants, Pubs",Philadelphia,39.9570188,-75.1758021,4.0,NV
6qmPT71FIVrtKhqWitSHoQ,Westbound,"Beer, Wine & Spirits, Beer Bar, Bars, Food, Nightlife",Tucson,32.2179029066,-110.9845857588,4.5,AZ
1ynfWYtAWbbMJs3NnRNXtQ,Curran's Irish Inn,"Nightlife, Pubs, Bars",Philadelphia,40.0220843,-75.0400549,3.0,NV
sNP0PovNW1RQnfDQogOuVQ,Continental Tavern,"Restaurants, Nightlife, Bars, American (New), Pubs",Yardley,40.2426843,-74.8389933,3.0,AZ
RfCH2Dt7AmAxnCp8zrYLsA,Union Jack Pub,"Nightlife, Restaurants, Pubs, Wine Bars, American (Traditional), Bars, Pizza, Sandwiches",Indianapolis,39.801997,-86.2686691,3.5,CA
fb_UwqBl9OB4ct6awajODA,Carpe Cafe,"American (New), Restaurants, Coffee & Tea, Shopping, Food, Cafes, Arts & Entertainment, Caterers, Event Planning & Services, Performing Arts, Art Galleries",Smyrna,35.9822639,-86.5203782,4.0,AZ
95tAFc8hVfzVr0uRJuDbaw,Walmart,"Discount Store, Department Stores, Fashion, Shopping, Grocery, Drugstores, Food",New Orleans,30.0053065667,-90.0390863106,2.5,NV
iutEDW8aI2fnlY2dj7qhMw,US Post Office,"Public Services & Government, Shipping Centers, Local Services, Post Offices",Saint Louis,38.6370733,-90.244917,1.5,CA
n2aY_LObgko-ko4grWzLyg,First Chance Last Chance,"Beer Gardens, Nightlife, Bars, Beer Bar, Lounges, Cocktail Bars, Dive Bars",Tampa,27.9596188,-82.441724,3.5,AZ
NqVky9-t3t9HXdlf7F150Q,TapHouse 61,"Bars, Beer Bar, Nightlife, Pubs",Saint Petersburg,27.7712227,-82.6614632,4.5,AZ
eLD4csCigN_aM7yt4ncEqw,Target,"Shopping, Discount Store, Food, Fashion, Home & Garden, Department Stores, Grocery, Furniture Stores, Electronics",Kenner,30.017065,-90.247514,3.5,AZ
m_P0oMu3PVz5pGBKjYGl_A,Chris' Jazz Cafe,"Jazz & Blues, Nightlife, Arts & Entertainment",Philadelphia,39.9503269,-75.165171,3.5,NV
0WdkdFykdG4eBGt5UjWVtw,Monon Greenway / Trail - Carmel,"Local Flavor, Hiking, Active Life, Parks",Carmel,39.9518506,-86.1316157,4.5,AZ
WnAeXhKB1pw7ciGGFGIUFQ,Nordstrom,"Shopping, Department Stores, Men's Clothing, Beauty & Spas, Fashion, Cosmetics & Beauty Supply, Women's Clothing",Indianapolis,39.9151886,-86.1115957,3.0,AZ
zgSZxYaCI0wcMTR0Dxd7oQ,Dead Presidents Pub & Restaurant,"Bars, Pubs, Restaurants, Nightlife, American (Traditional), Breakfast & Brunch",Wilmington,39.7512557,-75.5714352,3.5,CA
T8m0HbUwAAoYsn3wrqqHzg,Sam's Club,"Shopping, Food, Wholesale Stores, Grocery, Drugstores, Tires, Department Stores, Automotive, Fashion",Reno,39.4822934664,-119.7978082682,3.5,CA
YPuQRzDg3VkJW5n6NOraMw,Walmart,"Drugstores, Food, Shopping, Mobile Phones, Electronics, Fashion, Grocery, Department Stores",Marlton,39.8962112,-74.9154642,2.0,NV
V8wrC9MlYTs0JSAWEGd-aQ,Lowe's Home Improvement,"Department Stores, Shopping, Hardware Stores, Appliances & Repair, Local Services, Home & Garden, Fashion, Appliances, Nurseries & Gardening",Deptford,39.8329311337,-75.1056800276,2.5,NV
HGnhZBsEmvlKHsmmhcWleQ,HOB Tavern,"American (Traditional), Pubs, Restaurants, Bars, Nightlife, American (New), Sandwiches, Dive Bars",Bordentown,40.147888,-74.7112026,4.5,NV
x1lih3QXOz3rdRJBKoHMbw,MidAmerica St Louis Airport,"Transportation, Limos, Airports, Public Transportation, Airlines, Hotels & Travel",Mascoutah,38.5474848,-89.8157443,4.0,AZ
VJJvf5TwX2xXn2mFducV6w,Howl-O-Scream,"Local Flavor, Performing Arts, Active Life, Amusement Parks, Haunted Houses, Arts & Entertainment",Tampa,28.0379762045,-82.4211573645,3.5,NV
v7gYejBWthNRIDYOaJJb6w,Beef 'O' Brady's,"Pubs, Nightlife, Restaurants, Bars, Sports Bars, American (Traditional)",Valrico,27.9365976,-82.2423771,3.0,CA
FstqiEVkJCtzh7aaSi2tvg,Square One Pub,"American (Traditional), Bars, Restaurants, Pubs, Nightlife, Local Flavor",New Hope,40.3587568655,-74.976275586,4.0,AZ
40j_eQwVsvMH1Q_LfhSmsA,Caladesi Island State Park,"Boating, Beaches, Active Life, Parks",Dunedin,28.0569936764,-82.8236216664,4.5,AZ
rOjPwI0lLZMoQEW3slnmXQ,The Local,"Arts & Entertainment, Nightlife, Music Venues, Jazz & Blues, Bars, Restaurants, Barbeque",Nashville,36.1458982,-86.8125998,4.0,CA
Cdytv_YhJO0W0Ab8t2xLtg,Nipper's Pub,"Nightlife, Chicken Wings, Pubs, Bars, American (Traditional), Restaurants",Woodbury,39.8444681,-75.1248703,3.5,AZ
HDRXhkwl7s9x0e7vO5bXBg,Ulysses S. Grant National Historic Site,"Landmarks & Historical Buildings, Public Services & Government",Saint Louis,38.55178,-90.351592,4.5,AZ
xnvGKksbKye2vm7TPN4mjQ,Independent Bar,"Bars, Beer Bar, Nightlife",Saint Petersburg,27.7713258,-82.6494652,4.0,NV
w5FjaN7TdoduMUD0CYYD8g,Bald Birds Brewing Company,"Bars, Nightlife, Beer Bar, Food, Breweries",Philadelphia,40.0253102,-75.2227694,4.5,AZ
ETNlknCdy7jR33yoAH_l3g,City of Philadelphia,"Local Flavor, Landmarks & Historical Buildings, Public Services & Government",Philadelphia,39.9523942224,-75.1635988202,3.5,AZ
LATlYVr-igtbleDenTybWA,Walmart Supercenter,"Department Stores, Drugstores, Tires, Automotive, Fashion, Electronics, Shopping, Discount Store, Mobile Phones, Grocery, Food",Indianapolis,39.659937,-86.141802,2.0,CA
wB1Tin0OW1JRpaKM-E3ZYA,National Mechanics,"Pubs, Food, Breakfast & Brunch, Dance Clubs, Bars, American (New), American (Traditional), Beer, Wine & Spirits, Restaurants, Nightlife",Philadelphia,39.9495443,-75.1459872,4.0,NV
E9-k8aOCS2sSh9RYxvWU_A,Steppy's Sports Bar & Grill,"Bowling, Sports Bars, Restaurants, Bars, Mexican, American (Traditional), Active Life, Pubs, Nightlife",East Norriton,40.1455977,-75.3182664,3.0,NV
V6qIkeVB0yGnwKsCPROWLQ,Paddy & Irene's Irish Pub,"Nightlife, Bars, Irish Pub",Sparks,39.5347976685,-119.75440979,4.5,AZ
1KhNDQSdDqzPQaZk8PIdGg,West End Grill & Pub,"Restaurants, Breakfast & Brunch, Pubs, Nightlife, Bars, American (New)",Saint Louis,38.6425071,-90.2497918,4.0,NV
HLNtxaFvvHFx9whiptQzOg,Kalakutah Republic Grill,"Performing Arts, African, Nightlife, Restaurants, Bars, Arts & Entertainment",Indianapolis,39.8343073642,-86.2393748255,3.0,CA
WwWVeT5u1S7QZ2nDxsSaGw,Belk Department Store,"Department Stores, Shopping, Fashion",Land O Lakes,28.1882623771,-82.4403034915,3.0,CA
QCsok_ot2fG0pCIWP7tOmQ,Caffrey's,"Bars, Pubs, Burgers, Restaurants, Nightlife, Breakfast & Brunch",Sherwood Park,53.5115215,-113.3319309,3.5,AZ
RdyhYC-9wduhIcEJU_6bHg,Art Hill,"Parks, Active Life, Local Flavor",Saint Louis,38.6390996,-90.2949531,5.0,AZ
Qh3pgzg9jYjxoIf9kpyeSg,The Parking Spot,"Hotels & Travel, Automotive, Airports, Parking",Saint Louis,38.7374013,-90.3655493,3.5,AZ
Y4W8SdbmnrUb6noRvcSHeg,Eagle Island State Park,"Active Life, Parks",Eagle,43.6907816,-116.3942128,4.5,CA
vTjI8cOEOfyV5-NZi1uXcw,JCPenney,"Fashion, Women's Clothing, Department Stores, Home & Garden, Shopping, Appliances, Children's Clothing, Baby Gear & Furniture, Men's Clothing",Tucson,32.2883904,-110.9752274,2.5,NV
BoaNuuHZixlSCMfiZkFhag,Dillard's,"Department Stores, Children's Clothing, Men's Clothing, Fashion, Women's Clothing, Shopping",Franklin,35.9565501,-86.8126552,3.5,NV
POwyAA0vf4PvWe1L8Oc3Eg,Books & Brews,"Shopping, Books, Mags, Music & Video, Used Bookstore, Nightlife, Pubs, Bookstores, Food, Breweries, Bars",Indianapolis,39.9242151883,-86.0367340918,4.0,NV
fx-U1NC-HJlZ2In5UJiwNQ,Art Machine Productions,"Art Galleries, Beauty & Spas, Shopping, Arts & Entertainment, Tattoo",Philadelphia,39.9714127,-75.1340946,4.5,NV
5O1aEPl_01ThXXLttdJTbg,US Post Office,"Public Services & Government, Post Offices, Local Services, Shipping Centers",Cherry Hill,39.9009865,-74.9775894,2.5,NV
ZJCFuUb570QuL9_ERogjkA,Wings Etc,"Salad, Sandwiches, Restaurants, Pubs, Nightlife, Beer Bar, Sports Bars, Chicken Wings, Burgers, Bars",Plainfield,39.711386,-86.376854,3.0,NV
9mVVUl8KaA2YHB7dIvIM6A,Treehouse Indoor Playground,"Parks, Climbing, Active Life, Leisure Centers, Kids Activities, Arcades, Arts & Entertainment",Edmonton,53.5998996,-113.4081652,3.5,NV
_GILLGHoYD7Y8lQdI7UGiQ,Marshalls,"Department Stores, Shopping, Fashion",Moorestown,39.9469258985,-74.9669494,4.0,AZ
U0bRYyQaIP2bzmOZf2N89g,Winghouse - New Port Richey,"Chicken Wings, Restaurants, Pubs, American (Traditional), Bars, Nightlife",New Port Richey,28.2527517,-82.7282655,3.0,AZ
BiSdlIuOlf6MqyEZ6aWhfQ,Con Murphy's,"Restaurants, Sports Bars, Nightlife, Bars, Pubs, Irish",Philadelphia,39.95602,-75.167795,3.5,NV
OVZFGt5DsZKhlFA9cC8Acg,Target,"Drugstores, Shopping, Home & Garden, Furniture Stores, Fashion, Department Stores, Electronics, Food, Grocery",King of Prussia,40.09495,-75.365524,3.5,AZ
_5arUCK9zn1NegiZRxb6Rg,Love's Travel Stop,"Automotive, Parking, Gas Stations, Food, Convenience Stores",Nashville,36.2051526268,-86.771737,3.0,AZ
swaFsUDehhJrq5HA06lCYA,Ever Evolving Exotics,"Aquarium Services, Pets, Pet Services, Pet Stores",Tucson,32.250217,-110.897627,5.0,AZ
zG6YSl5XQsnQ9iHkIH_jRA,Jolly Ollie's Pizza & Pub,"Restaurants, Nightlife, Karaoke, Pubs, Bars, Pizza",Hendersonville,36.304052,-86.634766,4.0,NV
23obsrZJ88IK6Txtd-6ifw,T J Maxx,"Department Stores, Shopping, Fashion",Saint Louis,38.6038985,-90.4377827,4.0,CA
AV2MB75oRvnbek1_td3kXw,RareHues I Modern Vintage Market,"Food, Coffee & Tea, Home Decor, Used, Vintage & Consignment, Home & Garden, Shopping, Art Galleries, Fashion, Antiques, Arts & Entertainment",Tampa,28.040979,-82.504303,3.5,NV
-iwrEpq58-1-tE5WijAV-w,Rosetree Glass Studio,"Art Galleries, Arts & Entertainment, Shopping, Glass Blowing, Education, Art Classes",New Orleans,29.9510525,-90.0488078,5.0,AZ
aDczrdljKInA_XCdiVsmBw,Earthbound Beer,"Breweries, Food, Beer Gardens, Pubs, Nightlife, Bars",Saint Louis,38.5934396,-90.2286266,4.0,NV
yovpsWC8Iva36mtKSQQqSw,Washoe County Sheriff's Department,"Public Services & Government, Police Departments",Reno,39.57391,-119.810951,3.0,AZ
vlhrpmLcU1hPc1emRkVXRw,Rolling Hill Park,"Hiking, Active Life, Parks",Gladwyne,40.0412841,-75.2667051,4.0,CA
7OCQj1jrVoYHYJ6Zwo5rbA,Eagle Framing & Art Gallery,"Art Galleries, Framing, Shopping, Art Supplies, Arts & Entertainment, Arts & Crafts",Reno,39.5102771,-119.8028219,4.5,CA
zGBkQ1QABwBGUvvd43B6Qg,Laser Quest,"Escape Games, Active Life, Laser Tag, Amusement Parks, Arcades, Arts & Entertainment, Event Planning & Services, Party & Event Planning",Nashville,36.1639844,-86.7762151,4.0,AZ
vQQpyrhgqF5El4a_hNDdaA,Tower Pub,"Bars, Pubs, Nightlife",Saint Louis,38.599743,-90.261668,4.0,NV
mdLbmQH9wlE6HMdaeZGi3w,Target Recovery & Transport,"Local Services, Parking, Car Dealers, Towing, Junk Removal & Hauling, Automotive",Tampa,27.979301267,-82.459268282,1.5,NV
q5P31eRYuIP3JyW4TYijGg,Hudson Beach Park,"Active Life, Parks",Hudson,28.3619386,-82.7103407,3.0,AZ
GCy7T_i5RHSVuVGaUp9ILA,Walmart,"Discount Store, Grocery, Fashion, Department Stores, Electronics, Food, Mobile Phones, Shopping, Drugstores",Eddystone,39.863505,-75.3406713,2.0,NV
GIo6CTonm96GbnHqLsw04g,House of Blues New Orleans,"Event Planning & Services, Nightlife, American (New), Venues & Event Spaces, Music Venues, Arts & Entertainment, Restaurants, Musicians, Jazz & Blues, American (Traditional), Local Flavor, Bars",New Orleans,29.9533488,-90.0662829,3.5,AZ
Qz_bVagBlUEMATZexU9tyg,Huffaker Park and Mountain Trail,"Tennis, Playgrounds, Hiking, Active Life, Parks",Reno,39.4569477,-119.7674047,4.5,AZ
aa8dyLuupbMRyexfCRiLIQ,Sona Pub & Kitchen,"American (New), Gastropubs, Cocktail Bars, Irish Pub, Bars, Nightlife, Restaurants, Pubs",Philadelphia,40.026275,-75.225367,3.0,AZ
alM80dgR9izB_svltTw1Nw,Argilla Brewing,"Food, Restaurants, Bars, Pubs, Nightlife, Breweries, Pizza",Newark,39.7067386,-75.6851082,3.5,CA
Xfe8lGNdz6FhUGRo29RUWg,SheiKra,"Amusement Parks, Active Life",Tampa,28.036687,-82.424913,4.5,CA
1arlX5Ap720gX3Jw9KieTQ,Prime Example Jazz Club,"Bars, Restaurants, Cajun/Creole, Jazz & Blues, Nightlife, Local Flavor, Arts & Entertainment",New Orleans,29.9838600159,-90.0715789795,4.5,NV
uBcy5BdaJKJjAY6-fAwpdQ,U-Haul Moving & Storage of Castleton,"Automotive, Truck Rental, Parking, Local Services, Propane, Self Storage",Indianapolis,39.911921,-86.044863,2.5,NV
P-PBH28Ck3jaUY660VTuAw,Expresspark North Lot,"Parking, Automotive, Airport Shuttles, Hotels & Travel, Transportation",Philadelphia,39.86492399,-75.27243441,4.0,CA
UITsqzKo3QNdeY6ASTF1MA,Cigar Castle,"Tobacco Shops, Shopping, Lounges, Bars, Nightlife, Beer Bar",Tampa,28.0560682,-82.3943641,4.5,AZ
1sO-Ujuvs8igSyaD35xx4w,Audubon Park,"Active Life, Parks",New Orleans,29.927591,-90.127686,4.5,AZ
34mMhG2VVLE_UTBAnZnAMw,The Great Forest Park Balloon Race,"Arts & Entertainment, Active Life, Parks, Festivals, Local Flavor",Saint Louis,38.6406891427,-90.2743478586,4.0,AZ
aqTLu2dS_dG0ZUtDUH5fvg,Lafayette Square,"Parks, Active Life",New Orleans,29.9483169609,-90.0703486127,4.0,NV
CHF2-jj2ebNq2sne4q79UA,The Philadelphia Orchestra,"Arts & Entertainment, Local Flavor, Performing Arts",Philadelphia,39.946795,-75.165666,4.5,NV
wKZmW0CyQCKifd6T8VQeIQ,Legends Tap,"Bars, Pubs, Nightlife, Sandwiches, Restaurants, Salad, Pizza",Burlington,40.0785364657,-74.8586352024,3.0,AZ
9bm_JwRXQ5CIYNVU8irU8Q,Walmart Supercenter,"Discount Store, Shopping, Department Stores, Electronics, Drugstores, Automotive, Food, Grocery, Fashion, Tires",Tucson,32.3561418393,-111.0900909271,3.0,AZ
hNlvlGJsTXLJxeJ4RPsaeA,Alamodak Restaurant and Hookah Lounge,"Nightlife, Salad, Hookah Bars, Bars, Restaurants, Middle Eastern, Halal, Arabic, Beer Bar, Mediterranean",Philadelphia,39.9763544,-75.1374359,4.0,AZ
oGjhYdT6jaKzh6E7EyqKOw,Ybor City Post Office,"Public Services & Government, Post Offices",Tampa,27.964177,-82.436489,1.5,NV
4w0humU5JN7WcnirxBv05g,Nordstrom Rack,"Shoe Stores, Fashion, Shopping, Department Stores, Women's Clothing",Saint Louis,38.62757,-90.3475912,3.0,NV
7A-q7-bajt0NxMy36dUfIw,The Station,"Restaurants, Food, Breakfast & Brunch, Vegetarian, Coffee & Tea, Art Galleries, Arts & Entertainment, Bakeries, Shopping, Jewelry",Merchantville,39.9522838,-75.048543,4.0,NV
QQGyPctWtd9WOZnMKUChUQ,McMenamin's Tavern,"Restaurants, Pubs, American (New), Bars, Nightlife",Philadelphia,40.059745,-75.1908537,4.0,CA
EFql1oIf5JKaet3SdEpIQA,Morgan Street Brewery,"Nightlife, Breweries, American (New), Pool Halls, American (Traditional), Restaurants, Food, Beer Bar, Bars",Saint Louis,38.630873,-90.18532,3.0,NV
24xx8ju_U_uN1zJf2YtKkA,The Black Cat Tavern On 12th,"Beer Bar, Dive Bars, Gastropubs, Cocktail Bars, Nightlife, Bars, Restaurants",Philadelphia,39.91654,-75.1677739,5.0,NV
sBWuDgCSx9j-sRVhikx6nw,The Center for the Performing Arts,"Music Venues, Elementary Schools, Preschools, Education, Nightlife, Performing Arts, Arts & Entertainment",Carmel,39.9698862537,-86.1301893583,4.5,NV
c-jQ_--GMT_SvyjclyYqMg,Craft Manayunk,"Nightlife, Bars, Pubs, Food, Beer, Wine & Spirits, American (Traditional), Restaurants",Philadelphia,40.0230319381,-75.2190360036,3.5,AZ
gbcWVIt0cSJ2iDYXx9lEOQ,St. Stephen's Green,"Restaurants, Irish, Bars, Breakfast & Brunch, Nightlife, Irish Pub, Pubs",Philadelphia,39.9646285,-75.166045,3.5,AZ
MkF4gosEaJqJ3tNk1BZiwg,Crescent City Connection Bridge,"Landmarks & Historical Buildings, Public Services & Government",New Orleans,29.9376003477,-90.0562538988,4.0,NV
bjA-MBtEdiOtiBntcRw45A,Jackalope Brewing Company - The Ranch,"Beer Tours, Hotels & Travel, Tours, Food, Beer Gardens, Beer Bar, Nightlife, Bars, Breweries",Nashville,36.142608,-86.767013,4.5,AZ
w5X6SbNptPwPip2bj-A3Cg,Walmart Supercenter,"Shopping, Bakeries, Fashion, Food, Department Stores, Grocery, Drugstores, Discount Store, Electronics",Somerdale,39.8547716,-75.0242095,2.5,AZ
kfumcy_CmKEqjJBnPoj0hA,Walmart Neighborhood Market,"Department Stores, Discount Store, Drugstores, Bakeries, Electronics, Fashion, Grocery, Food, Shopping",Tampa,27.9974541,-82.5024737,3.0,AZ
rZ2Uygsn6vmnUIAaN_DIzQ,The Grill Room,"Nightlife, Event Planning & Services, Jazz & Blues, Hotels & Travel, Arts & Entertainment, American (New), Hotels, Restaurants, Breakfast & Brunch",New Orleans,29.949437,-90.06636,4.0,CA
IRIF899ySQMamNyEAJvjYA,Sam's Club,"Grocery, Wholesale Stores, Food, Shopping, Department Stores, Fashion, Automotive, Drugstores, Tires",Wesley Chapel,28.18813,-82.3574006,3.0,AZ
H2sO6NwVq2bBqL2uCY0D8g,Carondelet Park,"Boating, Parks, Active Life, Tennis",Saint Louis,38.563406,-90.266099,4.5,AZ
tOgxJdjP8YTTZyFvXGpJPw,TreeHoppers Aerial Adventure Park,"Amusement Parks, Party & Event Planning, Parks, Active Life, Ziplining, Event Planning & Services, Challenge Courses",Dade City,28.3783893,-82.3553237,4.5,NV
pr-0QKh5ywlGOuUi8EwImA,Collinsville Aqua Park,"Water Parks, Active Life, Amusement Parks",Collinsville,38.6828139985,-90.0196582393,3.0,NV
P3zq1bsGCZm3qp4yLkqHnA,Leadbetter Beach,"Active Life, Beaches",Santa Barbara,34.4020501247,-119.6988984091,4.0,AZ
ZmsrFqxzq-RpHrC2DbCAqw,Goleta Butterfly Grove,"Active Life, Pets, Hiking, Pet Services, Amusement Parks, Parks",Goleta,34.429689,-119.895983,4.5,AZ
ymgHUX3Llx9VuqiEjUwiaA,Iron Will Tattoo Club,"Shopping, Beauty & Spas, Art Galleries, Professional Services, Tattoo, Permanent Makeup, Arts & Entertainment",Glenside,40.1136213401,-75.152764,5.0,NV
2o4GOsWEmcdwjgqnEw0w9A,Mount Lemmon,"Hotels & Travel, Ski Resorts, Parks, Active Life, Hiking",Tucson,32.44752,-110.78166,4.5,CA
JakK5CvB7qYMEGqbuNh5fg,Target,"Fashion, Shopping, Department Stores, Electronics, Home & Garden, Food, Grocery, Furniture Stores",Smyrna,35.979397,-86.571713,4.0,CA
rx2Am9QOaB9xjc9DgUzf3A,Virginia Street Bridge,"Local Flavor, Public Services & Government, Landmarks & Historical Buildings",Reno,39.5252396,-119.8130393,5.0,AZ
ZtliyIRuWUJcg5-GeH3wCQ,Go Ape Zipline & Adventure Park,"Ziplining, Kids Activities, Event Planning & Services, Amusement Parks, Recreation Centers, Climbing, Active Life, Challenge Courses, Party & Event Planning",Indianapolis,39.8595028,-86.2985177,4.5,AZ
r4oV3EWnJX-1hjhNcKMI7w,Ortino's Northside,"Nightlife, Italian, Restaurants, Beer Bar, Bars, American (Traditional), Burgers",Perkiomenville,40.2915828,-75.4811241,3.5,AZ
6BvmLng8AmH56-eSekl3zg,Morris Arboretum,"Arts & Entertainment, Botanical Gardens, Museums",Philadelphia,40.0897421913,-75.2229091136,4.5,AZ
6vp741cxMvQMicJ3qZuLGQ,2nd Street Brew House,"Pubs, Beer, Wine & Spirits, Food, Nightlife, Bars, Restaurants, Beer Bar, American (Traditional), Sports Bars",Philadelphia,39.926632,-75.1493732,4.0,NV
wP7CPKf6K1uC2VNXQ_HrOA,Delaware Art Museum,"Arts & Entertainment, Art Museums, Art Galleries, Museums, Shopping",Wilmington,39.766198,-75.5644231,4.5,NV
T33982lrqDobYvS-WX2ltg,Sensational Pets,"Aquariums, Pet Services, Pet Sitting, Active Life, Pet Stores, Pets",Santa Barbara,34.44006,-119.737794,4.5,CA
-HewctWQ0P3HqKCr76bU-g,Dawson Street Pub,"Nightlife, Pubs, Bars, Gastropubs, Restaurants",Philadelphia,40.018561,-75.2127855,4.0,AZ
FSiPq3GSzHOch1axV8VCKA,Blind Dog Tavern,"Nightlife, Bars, Speakeasies, Lounges, Dive Bars, Cocktail Bars, Pubs",Reno,39.5252756843,-119.8139127582,4.5,CA
9C_aBq9VqoRF94N1TwjnQQ,Kohl's,"Women's Clothing, Home & Garden, Shoe Stores, Shopping, Toy Stores, Department Stores, Furniture Stores, Men's Clothing, Fashion",Royersford,40.1955628,-75.5289437,2.5,CA
uC07DgoSrR0dDh8PtdVtaQ,Pinball Gallery,"Electronics, Party & Event Planning, Cultural Center, Event Planning & Services, Shopping, Arts & Entertainment, Arcades",Malvern,40.0445886998,-75.530121152,5.0,NV
4cZsFnpFPWvPet0_X9imcQ,Fahy's Irish Pub,"Nightlife, Bars, Irish Pub, Dive Bars, Pubs",New Orleans,29.958928,-90.068153,4.0,AZ
RfgC18JxAHdYi61wPMHkgA,Brewburgers,"American (Traditional), Beer Bar, Burgers, Restaurants, Bars, Nightlife",Kenneth City,27.8214408735,-82.713644655,3.5,CA
PRKKic3gCMBsTEke3eJoHQ,Connolly Dog Park,"Dog Parks, Active Life, Parks",Voorhees Township,39.8628197212,-74.9493820942,4.5,AZ
4cPMTfzcUHCZ8cfIn_yowQ,Nevada Smith's Saloon,"Burgers, Pubs, Nightlife, Restaurants, Steakhouses, Bars",Tucson,32.2607294,-110.9906812,3.5,NV
BIJz39GnlrVUhrWPiWGECQ,ALDI,"Beer, Wine & Spirits, Organic Stores, Grocery, Fruits & Veggies, Specialty Food, Food, Meat Shops, Department Stores, Fashion, Shopping, Discount Store",Collingdale,39.9091231251,-75.2841462163,3.5,AZ
Mety9u6oVMEBliYTmBZ7Jg,St Joe's Bar,"Bars, Nightlife, Cocktail Bars, Dive Bars, Beer Bar, Lounges",New Orleans,29.9213963,-90.116895,4.0,AZ
Xdy7tkuV0ViNFVxcsL4wjA,Tarpon Springs City,"Public Services & Government, Event Planning & Services",Tarpon Springs,28.1508479,-82.7532853,4.0,CA
JK5y33Om4fm9sZ0IEvmRlQ,Smith Memorial Playground & Playhouse,"Playgrounds, Active Life, Parks",Philadelphia,39.981734,-75.195622,4.5,AZ
nDpgdmULZKgRgOypj-jWuA,Pizzeria Gregario,"Restaurants, Beer Bar, Salad, Pizza, Kombucha, Nightlife, Bars, Food",Safety Harbor,27.991606,-82.691476,4.0,CA
rejyeeyYsJc-7pls90_d5w,US Post Office,"Post Offices, Public Services & Government",Indianapolis,39.7738697,-86.1584044,3.0,AZ
DZbbKtBYp18VWJ032ir_qQ,Old State Tavern,"American (Traditional), Restaurants, Pubs, Bars, Nightlife, Sports Bars",Media,39.928786,-75.383186,4.5,CA
5iiu_zEsXGBLXzMrNi7-JA,Edward Medard Park,"Parks, Active Life",Plant City,27.9255631196,-82.1633490175,4.5,NV
NQ01WqVX0tojNHKn-0sFww,Tir na nOg Irish Pub,"Irish Pub, Nightlife, American (New), Bars, Irish, Pubs, Restaurants",Philadelphia,39.9544564822,-75.1667542796,3.5,NV
IAWrmB02zjOawfBg_0uBpw,QuickShot Paintball & Airsoft,"Airsoft, Active Life, Arts & Entertainment, Amusement Parks, Amateur Sports Teams, Paintball, Arcades",Shamong,39.810347,-74.736603,4.0,AZ
SIoCIxjn4jLt2O-4DajWJw,Mac's Tavern,"Nightlife, Restaurants, American (New), Bars, Pubs",Philadelphia,39.949794,-75.144739,3.5,NV
L1l9CKjw2WyO_kTohzkmIw,Doug Belden- Hillsborough County Tax Collect,"Departments of Motor Vehicles, Financial Services, Public Services & Government, Tax Services",Tampa,28.0443615136,-82.4243147314,3.0,NV
AyuNz2WyV4LOTORTdMGuFQ,Hillwood Pub,"Nightlife, Breakfast & Brunch, Pubs, Bars, Sports Bars, Mexican, Restaurants, American (Traditional), American (New), Burgers, Tacos",Nashville,36.1413931,-86.8822576,3.5,AZ
_Q-LbdtbUdP7uQuQ5CNjgg,John Heinz National Wildlife Refuge at Tinicum,"Landmarks & Historical Buildings, Zoos, Hiking, Public Services & Government, Parks, Education, Active Life",Philadelphia,39.8915607,-75.25734,4.5,CA
VI0otgWu9GcQOZYJnenmcw,Raley's,"Gas Stations, Bakeries, Convenience Stores, Department Stores, Grocery, Fashion, Automotive, Food, Shopping, Restaurants, Drugstores, Delis, Beer, Wine & Spirits",Spanish Springs,39.6092932,-119.6978456,4.0,AZ
GxONgiYsNMc1ZuIP8npLow,Bette's Family Fun Center,"Kids Activities, Event Planning & Services, Active Life, Amusement Parks, Playgrounds, Arcades, Arts & Entertainment, Venues & Event Spaces",Aston,39.8509584,-75.4246487,4.5,NV
TIZVONbbiaO0Gl4jnKQCqw,Mastodon State Historic Site,"Active Life, Parks",Imperial,38.3789953189,-90.3847750479,4.5,AZ
hN6huRd198jplKWFIPjJmQ,Funari Public Adjusters,"Public Adjusters, Insurance, Plumbing, Contractors, Home Services, Professional Services, Financial Services",Philadelphia,39.913695,-75.174821,5.0,AZ
k7i-kEfjGI6Yn40y23GoCA,Xtreme Zone,"Event Planning & Services, Arts & Entertainment, Party & Event Planning, Active Life, Go Karts, Axe Throwing, Virtual Reality Centers, Amusement Parks",New Castle,39.713534,-75.557669,3.5,AZ
_aO_GP15Zrh7wcOuvaXnNw,Rodin Museum,"Arts & Entertainment, Museums",Philadelphia,39.9619653,-75.1739912,4.0,CA
y55nPD3rRPeg3ZixwyeC1Q,Mt Rose Summit,"Hiking, Parking, Active Life, Automotive, Sledding, Parks",Reno,39.3606876,-119.861623,5.0,AZ
GxjZBGvGEU07tENm3ikygw,Amtrak Train Station,"Hotels & Travel, Train Stations, Transportation, Public Transportation",Wilmington,39.7370042229,-75.5509330978,3.5,NV
mn7ZzKvNk7I_k5EpkjPtMA,Firecracker Pizza & Beer,"Restaurants, Beer Gardens, Pizza, Nightlife, Bars, Beer Bar",St Louis,38.62743,-90.25134,4.0,AZ
rhlfk44YVcOLZ-T0Vbat4g,Gateway Arch & Old Courthouse,"Landmarks & Historical Buildings, Public Services & Government, Museums, Tours, Hotels & Travel, Active Life, Parks, Arts & Entertainment",Saint Louis,38.624901,-90.186317,4.0,NV
p74IWSpGNv7YMZzGAcOD6A,Reverend Zombie's House of Voodoo,"Gift Shops, Event Planning & Services, Arts & Entertainment, Food, Cards & Stationery, Tobacco Shops, Spiritual Shop, Supernatural Readings, Arts & Crafts, Flowers & Gifts, Convenience Stores, Museums, Shopping",New Orleans,29.9583779,-90.0651654,3.0,AZ
qZESNk2maE2eukjXU6FYfA,Halligan's Pub,"Restaurants, American (Traditional), Bars, Nightlife, Breakfast & Brunch, Irish Pub, Pubs",Flourtown,40.1070691,-75.213743,3.0,AZ
x0uQ48ZXlh1-Um7IqdHdrA,Walmart Supercenter,"Food, Nurseries & Gardening, Department Stores, Fashion, Keys & Locksmiths, Mobile Phones, Home Services, Shopping, Home & Garden, Drugstores, Grocery, Discount Store",Metairie,30.0045124888,-90.2289414132,2.5,CA
m6gILkoSovYr4yqFzTnROA,The Rialto Theatre,"Bars, Arts & Entertainment, Performing Arts, Music Venues, Nightlife",Tucson,32.222034,-110.9664833,3.5,CA
hbOWfn_4_cWr8wzHGC-0Bg,Falls Township Dog Park,"Parks, Active Life, Dog Parks",Bucks,40.1719376485,-74.809161589,4.0,NV
Alw_TjRgfsvUch176KECRQ,The Melting Pot World Emporium,"Fashion, Tobacco Shops, Women's Clothing, Department Stores, Costumes, Arts & Crafts, Men's Clothing, Shopping, Accessories",Reno,39.5139289,-119.8074218,4.5,AZ
7E-KKSCGfI3qdHGgUe7V_w,Reserva Cigars,"Lounges, Shopping, Beer Bar, Tobacco Shops, Nightlife, Vape Shops, Bars",Nashville,36.1298316,-86.8569307,4.0,AZ
I8IgwtCWX1GtonghoYUQGg,Walmart Supercenter,"Discount Store, Fashion, Department Stores, Food, Drugstores, Grocery, Shopping",Smyrna,35.9714808205,-86.4941731018,2.0,NV
bO4VP5rdmuaLQsik7OSgoA,The Franklin Theatre,"Arts & Entertainment, Performing Arts, Cinema, Nightlife, Event Planning & Services, Venues & Event Spaces, Music Venues",Franklin,35.9239804,-86.8707406,5.0,NV
swZOxn96qpag2cilU5JOdg,Crockett Park,"Parks, Active Life",Brentwood,35.9777109,-86.7764015,4.5,AZ
nygT0OIMWCXSK6RBWcdQbQ,The Villager Tavern,"Dive Bars, Sports Bars, Bars, Shopping, Nightlife, American (New), Pubs, Sporting Goods, Restaurants, Lounges",Nashville,36.1368193,-86.8011822,4.0,AZ
34gxToVwmt937dvv77HYyw,JCPenney,"Shopping, Department Stores, Women's Clothing, Home & Garden, Fashion, Baby Gear & Furniture, Appliances, Men's Clothing, Children's Clothing",Cherry Hill,39.944179,-75.026491,2.5,AZ
i01CRnVwZ0M9sf1u9PGRBA,Atomic Zombie,"Art Galleries, Piercing, Arts & Entertainment, Tattoo, Beauty & Spas, Shopping",Edmonton,53.542422,-113.535588,3.5,CA
Smx7keqNQjEt23HgSPCbrw,John F. Germany Public Library,"Public Services & Government, Education, Educational Services, Libraries",Tampa,27.950868,-82.462354,4.0,AZ
P_lHfuq5Jmkp7lmB8FoZ_g,Premium Parking - P402,"Parking, Automotive",New Orleans,29.9534872417,-90.0643221388,2.5,NV
jNlRQXyBXAg5fmI6ckgLmA,Walmart Supercenter,"Drugstores, Department Stores, Grocery, Discount Store, Fashion, Mobile Phones, Food, Shopping",Wimauma,27.7146674,-82.3335595,2.0,CA
Hzmx-I6ZGIhWM8OmMZtXyw,JT Brewski's Pub,"Bars, Restaurants, Pubs, Irish, Nightlife",Aldan,39.9208559,-75.2985298,3.5,AZ
oikYO1xHeFwbLKi4EiRZag,Orianna Hill Dog Park,"Parks, Professional Services, Active Life, Dog Parks",Philadelphia,39.9656131161,-75.1430350543,3.5,AZ
c3o53X6vbGm5YrGb3m7KKQ,Neiman Marcus- King of Prussia,"Fashion, Shopping, Department Stores, Men's Clothing, Shoe Stores, Women's Clothing",King of Prussia,40.0879956919,-75.3895043723,3.5,NV
RcjHdCH2IT-1Qhl2s4xwaQ,EZ Park,"Automotive, Parking",Philadelphia,39.9564066,-75.1540393,1.0,AZ
sdH8O_H4j32heE_1JCAk3Q,Dillard's Clearance Center,"Fashion, Shopping, Outlet Stores, Shoe Stores, Department Stores",Kenner,30.015141,-90.249369,4.0,NV
lAun0zsultQHTFlqIOBsKw,QVC Outlet,"Department Stores, Fashion, Shopping",Brandon,27.9371968848,-82.2871958411,3.0,NV
UI0Rcdl9x_GT8ZnIQS80SA,Hard Rock Cafe,"Arts & Entertainment, Nightlife, Pubs, Music Venues, Restaurants, Burgers, American (New), Bars, American (Traditional)",Saint Louis,38.6276089538,-90.2082054107,2.5,NV
9BgoraqidsIShkDE0K_vJg,Falcon's Fury,"Active Life, Amusement Parks",Tampa,28.037966,-82.422816,4.5,AZ
cHCRC7r9irhK0dIum1zeUw,New Day Craft,"Cideries, Wine Bars, Shopping, Beer, Wine & Spirits, Venues & Event Spaces, Event Planning & Services, Nightlife, Bars, Breweries, Local Flavor, Food, Art Galleries, Wine Tasting Room, Wineries, Arts & Entertainment",Indianapolis,39.782987062,-86.1350676433,4.5,CA
jsQQu9rVerR3OGxIa0hRQQ,Kelly's Taproom,"Bars, Beer Bar, American (Traditional), Nightlife, Pubs, Burgers, Restaurants",Bryn Mawr,40.024588,-75.3242387,3.0,CA
rGkyALD8FawGWbo-A_amxw,Atco Brewing Company,"Nightlife, Bars, Beer Bar, Food, Breweries",Atco,39.7715904,-74.8995479,4.0,AZ
WyqbPktHoO39cbLYDKjCpA,Clubhouse Bar and Grill,"Food, Bars, Restaurants, Beer, Wine & Spirits, American (Traditional), Nightlife, Pubs",Newtown,40.2220959,-74.9343493,3.5,AZ
QhTjP2gylEMQkFM11LCaYw,New Jersey State Museum,"Museums, Arts & Entertainment",Trenton,40.221024,-74.7732971,3.5,AZ
pPe4Vv6FtQBrz5cQzlIc3Q,Urban Optiks,"Eyewear & Opticians, Optometrists, Health & Medical, Art Galleries, Shopping, Arts & Entertainment, Ophthalmologists, Doctors",Indianapolis,39.8723914,-86.1431185,4.5,AZ
gzJBT0Bc5Ffyj1o4cKb1aA,Ross Dress for Less,"Women's Clothing, Department Stores, Shopping, Home Decor, Fashion, Men's Clothing, Discount Store, Home & Garden",Philadelphia,39.97723,-75.273857,2.5,AZ
_7lj5Anv74yWRA_JphK__Q,Palladium Theatre,"Arts & Entertainment, Performing Arts",Saint Petersburg,27.7778262,-82.6368227,4.0,AZ
DapgvU4e0zpofZSbl-w5xA,House Of Broel,"Bridal, Museums, Venues & Event Spaces, Toy Stores, Shopping, Tours, Event Planning & Services, Wedding Planning, Religious Organizations, Party & Event Planning, Arts & Entertainment, Hotels & Travel, Landmarks & Historical Buildings, Public Services & Government",New Orleans,29.9335411,-90.0808918,4.0,CA
RuEIK45gBF5iDbYoSa9tOA,The Underground Tap & Grill,"American (Traditional), Pubs, Tapas Bars, Restaurants, Nightlife, Bars",Edmonton,53.5412956,-113.4907434,3.5,AZ
PM7L9Vt0MlDUZsEVDCIkhg,Scott Joplin State Historic Site,"Arts & Entertainment, Museums",Saint Louis,38.6370154,-90.2149774,3.5,NV
yZbog6-Tr1oQthqxaEt7vQ,BRU Florida Growler Bar- Wesley Chapel,"Food, Beer, Wine & Spirits, Beer Bar, Bars, Nightlife",Wesley Chapel,28.1950285023,-82.3542125,4.5,NV
sRBpVgN5ExR7lOrBGWZZxQ,American Legion  Post 397,"Mexican, Bars, Nightlife, Pubs, Community Service/Non-Profit, Burgers, Local Services, Tacos, Restaurants, Lounges",Saint Louis,38.6720082,-90.4442596,4.5,NV
0LYcq-FOwY7iUSzpIKi4AQ,Top Deals,"Discount Store, Fashion, Food, Department Stores, Automotive, Convenience Stores, Gas Stations, Shopping",Indianapolis,39.8257487381,-86.2479122186,2.0,AZ
lQ7p1DLQgRxNT-etPMKhrA,Frame 56,"Shopping, Interior Design, Framing, Arts & Crafts, Arts & Entertainment, Art Galleries, Home Services",Tucson,32.4682600836,-110.9814606048,5.0,AZ
vH9jRIuqyJt1B9NUbFnZPA,Dance Productions Unlimited,"Trainers, Fitness & Instruction, Gyms, Performing Arts, Dance Studios, Education, Dance Schools, Specialty Schools, Arts & Entertainment, Active Life",Arnold,38.4127787,-90.3998182,4.0,CA
qUw40fUsB7jPCxJ2qRlm5w,Paddywagon Dunedin,"Irish Pub, Sports Bars, Nightlife, Bars, Pubs",Clearwater,28.0200216774,-82.7406565,5.0,NV
K2xCcUr4PgMF_n6cEHNNSQ,Historic Strawberry Mansion,"Landmarks & Historical Buildings, Arts & Entertainment, Festivals, Museums, Public Services & Government",Philadelphia,39.994293,-75.190387,4.0,AZ
gs49C3-oVlOnwEHsEBMzIw,University Park,"Playgrounds, Active Life, Parks",Greenwood,39.6114034,-86.050046,5.0,NV
7NgoZPftAlbaAjOjYNRVhw,Cups,"Art Galleries, Gift Shops, Home & Garden, Fashion, Souvenir Shops, Shopping, Arts & Entertainment, Accessories, Flowers & Gifts, Home Decor",Madeira Beach,27.7868927,-82.7838701,2.0,CA
ulirCXiw25zjgmiRSJg9Kw,Gilvin's Boots & Shoes,"Shopping, Local Services, Shoe Stores, Shoe Repair, Department Stores, Fashion",Indianapolis,39.7040057,-86.1514245,3.5,NV
1gCLBOMcp69PAPJDHjjiMw,Bealls Department Store,"Shopping, Department Stores, Fashion",Brandon,27.890925,-82.271493,2.5,NV
EwGQiqmRnBZtJlyDMGJjRA,Pinellas County Sheriff's Office,"Police Departments, Public Services & Government",Largo,27.893474,-82.790173,3.5,AZ
Bya0DwcVlhljIojnM9QDeQ,Steam Pump Ranch,"Arts & Entertainment, Landmarks & Historical Buildings, Museums, Venues & Event Spaces, Event Planning & Services, Public Services & Government",Oro Valley,32.4051513115,-110.9504089698,4.5,AZ
xx5h91N1eMiAXsOZN64Qnw,McCabe Park,"Active Life, Playgrounds, Parks",Nashville,36.1413723,-86.8418579,3.5,NV
TjjYLaIKu8YUo_z-twhc8A,Bar Louie,"American (New), Burgers, Beer Bar, Nightlife, Bars, Restaurants",Nashville,36.0800468866,-86.9491107433,1.5,CA
WSrHn_qHCOHqF5BfOmTr1g,State of New Jersey Motor Vehicle Comission,"Pizza, Departments of Motor Vehicles, Public Services & Government, Restaurants",Salem,39.5714358,-75.4667587,2.5,AZ
7dER3KbuaUfvEcnMspArNA,Truth Bar & Hookah,"Bars, Nightlife, Hookah Bars, Beer Bar, Wine Bars",Lutz,28.0814358,-82.4276369,4.0,NV
tP9Ub4aqRgvl4Sq6iRvFsw,Seminole City Park,"Active Life, Parks",Seminole,27.8393939125,-82.8005419672,5.0,NV
i_-x5VP_XGa8N9H4X2Q6vQ,U S Post Offices,"Post Offices, Public Services & Government",Nashville,36.0492110304,-86.6463219297,4.0,NV
u63eOwKXmQ6MyOZsZwBytw,Zionsville Nature Center,"Educational Services, Education, Parks, Active Life",Zionsville,39.9532929,-86.2664083,5.0,AZ
FI4pb2c5CizlSdj6PI-_Ew,US Post Office,"Shipping Centers, Local Services, Public Services & Government, Post Offices",Tucson,32.2204018,-110.9682204,2.5,NV
L7JGzjvVCPz6_RPr0kK4Ag,Song and Dance,"Arts & Entertainment, Performing Arts",Wesley Chapel,28.2421225,-82.3657842,3.0,AZ
ZcR-DlAbLmM5WQkNTOi0nA,Lest We Forget Slavery Museum,"Active Life, Museums, Amusement Parks, Arts & Entertainment",Philadelphia,39.9886324,-75.0906987,5.0,AZ
Fjsb0jqgWn-0NbhwXgxMMQ,Usps,"Post Offices, Local Services, Mailbox Centers, Public Services & Government, Shipping Centers",Richmond Heights,38.6308520507,-90.3197882054,1.5,CA
_MqYrmppU0chzEFAz_fcLQ,Frameworks Picture Framing,"Shopping, Arts & Entertainment, Home Decor, Arts & Crafts, Framing, Art Galleries, Home & Garden",Eagle,43.6887028,-116.3548816,5.0,AZ
A4vgder7kj4uIxNCVbYcrw,The Bula Barua Gallery,"Arts & Entertainment, Commissioned Artists, Shopping, Books, Mags, Music & Video, Art Galleries, Newspapers & Magazines, Professional Services",St. Petersburg,27.7739061,-82.6358473,5.0,CA
xAAhPuZ8FG6OlvAw5m1BVQ,Willard Park,"Active Life, Playgrounds, Parks, Swimming Pools",Indianapolis,39.7667851,-86.12748,3.5,NV
4NIs9qKQqdVzSTQla5dBIw,Van Gogh Alive,"Arts & Entertainment, Museums",St. Petersburg,27.7659145162,-82.6315795729,4.0,CA
rAp9uQc-oL3r2k1bsdAcfw,Reed's Swimming Pools & Service,"Active Life, Pool & Hot Tub Service, Home & Garden, Beaches, Swimming Pools, Hot Tub & Pool, Pool Cleaners, Home Services, Shopping",Brandon,27.9247079,-82.294786,4.0,CA
C2Yw0GR--GHpGUXeIYmK2Q,Ann Rice House,"Local Flavor, Landmarks & Historical Buildings, Public Services & Government",New Orleans,29.9296650486,-90.0802680822,4.5,AZ
jriC0RpqmwCEt16WaRRvqA,Integrity Studio,"Art Galleries, Shopping, Arts & Entertainment, Arts & Crafts, Framing",New Hope,40.3642201,-74.9534955,2.0,CA
ID9NN2uItO2o6gAchETldw,Hickory Point RV Park,"Campgrounds, Hotels & Travel, Home Services, RV Parks, Mobile Home Parks, Active Life, Parks, Real Estate",Tarpon Springs,28.1481489105,-82.7617225592,3.5,NV
ayr-NcLOPRKsHsPRO2J5Vg,Downtown Boise,"Shopping, Municipality, Shopping Centers, Public Services & Government",Boise,43.6160031,-116.2020172,3.5,AZ
vh70M5z7cSg5uTf-GFg9iA,Tarpon Springs Public Library,"Public Services & Government, Libraries",Tarpon Springs,28.1446367,-82.7552335,4.0,AZ
AWG2QYOoydgg2hMMk3KRoA,The Home Depot,"Home & Garden, Fashion, Shopping, Department Stores",Edmonton,53.4388952942,-113.606726693,2.0,CA
L3HyQSkhaVbu5yI1FjeSzA,Fred Astaire Dance Studio,"Dance Studios, Arts & Entertainment, Performing Arts, Active Life, Fitness & Instruction",Berwyn,40.0476835904,-75.4361797882,5.0,CA
IMn6n4kjpvp0ur_KT6C3pw,Dollar General,"Shopping, Discount Store, Food, Grocery, Fashion, Department Stores",Brandon,27.9365971,-82.290957,1.0,CA
qvci1kimMq0Twno1SPZwUg,New Tampa Recreation Center,"Active Life, Professional Sports Teams, Recreation Centers, Arts & Entertainment, Parks",Tampa,28.1383257121,-82.3743500429,4.5,NV
YTnrqcyhHq9ot4smSewsww,Mountain Oyster Club,"Arts & Entertainment, Shopping, Art Galleries",Tucson,32.238793,-110.854977,3.5,AZ
XwIN2RaaJEg8ztFWTAPqEQ,Jefferson Square Park,"Parks, Active Life",Philadelphia,39.933608,-75.150175,4.0,CA
FE0i3keZREvo6dU_sZ3lWg,Midtown Gallery Framers,"Art Galleries, Framing, Arts & Entertainment, Arts & Crafts, Shopping",Nashville,36.114522,-86.768818,5.0,CA
IJiLFFbxmKiTGyKOibv2jQ,Watson Trail Park,"Parks, Active Life",Sunset Hills,38.545229,-90.405399,4.0,NV
0Vb2DGI4gL9HU9VHaMFQDQ,Beall's Outlet,"Fashion, Department Stores, Discount Store, Shopping",Tampa,27.906524,-82.502675,3.0,NV
I4B51K9OC2YmxRwVts5o1w,Pleasant Run Trail,"Active Life, Parks, Hiking",Indianapolis,39.7368328,-86.1481878,4.5,AZ
I1mKxV_Z6WBARNkSCWxu6g,Hempwise,"Men's Clothing, Shopping, Fashion, Department Stores, Cannabis Clinics, Women's Clothing, Head Shops, Accessories, Health & Medical",Santa Barbara,34.4223251,-119.7036048,4.5,NV
xd2QyNuEA6gt6Yqn_Yt5iA,Bud's Cafe,"Nightlife, Bars, Restaurants, Cafes, Pubs",Norwood,39.8899995,-75.3001503,5.0,NV
ruXD0lB3rq4FMvnQL7iqLw,Tampa Bay Watch Discovery Center,"Museums, Community Service/Non-Profit, Local Services, Arts & Entertainment, Aquariums, Hotels & Travel, Active Life, Boat Tours, Tours",St. Petersburg,27.7735935,-82.6315285,4.0,CA
BGOF_3UGlETU19jySOk_Sw,Snow Valley Aerial Park,"Kids Activities, Amusement Parks, Playgrounds, Active Life, Parks",Edmonton,53.4847393557,-113.5553033917,5.0,AZ
YcsnaP8O-4g-jAuxRAzP2A,Pineapple Pedicabs,"Active Life, Transportation, Bike tours, Hotels & Travel, Art Tours, Parks, Tours, Food, Breweries, Pedicabs, Brewpubs",Reno,39.4835647,-119.7310213,5.0,AZ
lxdWfztvYPsgtPuea68Ebw,USS Indianapolis Memorial,"Public Services & Government, Landmarks & Historical Buildings",Indianapolis,39.776808,-86.1646729,5.0,NV
MTM5eXO6Mz0axVrUVNhbrA,Settlement Music School,"Musical Instruments & Teachers, Specialty Schools, Performing Arts, Arts & Entertainment, Shopping, Education",Philadelphia,39.9907026,-75.2220053,4.0,NV
6CuYCvwVRXjdDTKjFP_FJw,The Lure Ono,"Sandwiches, Juice Bars & Smoothies, Mexican, Bars, Burgers, Food, Nightlife, Beer Bar, Restaurants",St Petersburg,27.7714039761,-82.6432173729,4.5,NV
cKkxqm_FzbTYHbYm49hJpQ,La Placita Village Parking Garage,"Automotive, Parking",Tucson,32.2200967,-110.9716825,1.0,NV
IOZtQlscd2_0QcBmQstxjg,Blowers & Grafton,"Street Vendors, Food, Restaurants, Bars, Nightlife, Pubs, Seafood, Canadian (New)",Edmonton,53.4361887,-113.6073382,4.5,NV
FtyrXpqxGT0Py-940r1VRg,Blue Bell Park,"Hiking, Mountain Biking, Dog Parks, Active Life, Parks, Recreation Centers",Philadelphia,40.030109,-75.20231,4.0,CA
GgkFADywPR-BU4T25H8K-w,West Philly Tool Library,"Libraries, Public Services & Government",Philadelphia,39.9426904,-75.2104835,4.5,NV
PAdvZJSGP03u82dDTdbUHg,SYDNEY DOVER TRAILS,"Active Life, Horseback Riding, Parks",Dover,27.9380371184,-82.2099855553,3.0,CA
6dxJ1tUIlwC6DFuLSv1TJQ,Plainfield Bark Park,"Dog Parks, Parks, Active Life",Plainfield,39.6933073816,-86.3904650054,5.0,CA
muFSb1eCiT2ufKSzJrN4vw,Sherlock Holmes,"Restaurants, Pubs, Bars, Nightlife",Sherwood Park,53.5378364585,-113.3213495558,3.0,CA
9NQGITQ-V2U3nyVrs-ZsiA,Neshaminy Shore Picnic Park,"Parks, Amusement Parks, Active Life",Hulmeville,40.144238,-74.915414,4.0,AZ
Zqz-QkLcRfGz6JGP_B9Udg,Tomol Interpretive Play Area,"Parks, Active Life, Playgrounds",Carpinteria,34.3948809,-119.5233593,4.5,CA
PHsL2RRxr6d1fyVvCzz06g,Neon Museum of Philadelphia,"Museums, Arts & Entertainment, Art Galleries, Venues & Event Spaces, Event Planning & Services, Shopping",Philadelphia,39.978546,-75.1396602,4.5,AZ
Mgkr-1YrvH04d7prEW6Ynw,Creative Framing Concepts,"Art Galleries, Shopping, Arts & Entertainment, Arts & Crafts, Framing, Home & Garden, Home Decor",Carmel,39.970469,-86.0912228,5.0,CA
NUEZ5O_c8jKFgPQzrJqxqQ,Ross Dress for Less,"Women's Clothing, Men's Clothing, Discount Store, Fashion, Home & Garden, Home Decor, Shopping, Department Stores",Hermitage,36.2172243109,-86.5952942026,2.0,CA
djP07ozkyEmpBbCs3nZC4g,Leonard Park,"Active Life, Parks, Tennis, Playgrounds",Speedway,39.786085931,-86.2525550276,4.0,AZ
8DdYtA9Q85UGNRa3Ph0y9w,C Ponies Beach Horseback Rides,"Active Life, Party Equipment Rentals, Beaches, Horseback Riding, Surfing, Event Planning & Services, Hotels & Travel, Vacation Rentals",St Petersburg,27.6552851573,-82.6752600074,5.0,CA
Tcu6gDDwPRONZ1-a9QZMGg,Carpinteria Swimming Pool,"Beaches, Swimming Pools, Active Life",Carpinteria,34.3959975,-119.5159142,3.5,AZ
Nl7xpGAkF2isMdp5bhL-7g,Aston Public Library,"Public Services & Government, Libraries",Aston,39.8676077,-75.4207704,4.0,AZ
4IqXfcDpD4EBmS1OG_OXPw,Indy's Teeny Statue of Liberty Museum,"Museums, Arts & Entertainment",Indianapolis,39.7812642,-86.1151624,4.5,NV
NYSSsTu2e1CSnMvUrge07g,United States Post Office,"Post Offices, Public Services & Government",Nashville,36.1939921015,-86.6240258887,3.5,AZ
zA26X_SIMSEVh903TZB1Tw,Whitpain Dog Park,"Active Life, Dog Parks, Parks",Blue Bell,40.1591560328,-75.3007435613,2.0,NV
xTlArccpgTp3TlXzd0F0-A,Ghost Town,"Public Services & Government, Landmarks & Historical Buildings",Virginia City,39.3096771906,-119.6500429698,4.0,CA
YM-6t6cyFmv7fGGitRij3g,ACME Markets,"Shopping, Fashion, Department Stores, Food, Grocery",Philadelphia,39.9544596363,-75.2029260993,3.0,NV
eGey-aARfLgElykoA9YdsQ,Czanns Brewing Company,"Restaurants, Food, Breweries, Bars, Pubs, Nightlife",Nashville,36.1562398,-86.8470916,4.5,AZ
D2nWALQlqSPPxNLk84Mwrg,SideBird Kitchen,"American (New), Sandwiches, Restaurants, Beer Bar, Bars, Nightlife",Havertown,39.9843712,-75.3068932,4.5,AZ
PvotmOD_IGPj6QVlZvXMWQ,The University of Arizona Main Library,"Public Services & Government, Education, Libraries, Colleges & Universities",Tucson,32.2324424,-110.9491527,5.0,NV
XZFL126Em9M-0pM_KthWlw,Sunset Dog Beach,"Active Life, Beaches",Treasure Island,27.7427049,-82.7564475,3.5,AZ
QS0J5UleOpnrpgYY86B7ag,Fort De Soto Park Campground,"Hotels & Travel, RV Parks, Campgrounds",Saint Petersburg,27.645988,-82.717015,4.5,AZ
Nk8NROGgl53cP6ruA61XtQ,United States Postal Service,"Public Services & Government, Shipping Centers, Local Services, Post Offices",Land O' Lakes,28.2341205,-82.4581551,1.5,AZ
jJAn2iR1r7SPdYVKYNunFA,Fred Astaire Dance Studio - South Tampa,"Specialty Schools, Performing Arts, Arts & Entertainment, Education, Fitness & Instruction, Active Life, Dance Studios, Dance Schools",Tampa,27.9433926,-82.5061947,5.0,NV
vAjV1J-JjgWTzR9rXJSOzQ,US Post Office Greenville,"Post Offices, Public Services & Government",Wilmington,39.7780064378,-75.5968267098,1.5,AZ
YWXuoiduyZywa3tzrbZRYw,Classic Frame & Mat,"Shopping, Arts & Entertainment, Home & Garden, Art Galleries, Arts & Crafts, Home Decor, Framing",Gretna,29.9133449,-90.0592945,5.0,AZ
hGxzmfl3EjSoNLHsUJn1Lg,The Local,"Bars, Dive Bars, Nightlife, Pubs",Sparks,39.537015624,-119.7340977564,4.5,NV
h6Tf8tRPDRnX4QAdYfsaCQ,Kennedy Park,"Lakes, Fishing, Parks, Active Life",Tucson,32.181173,-111.008185,3.5,AZ
QEY_524IJ2uqNHCBrmTowQ,Miramar Beach,"Active Life, Beaches",Montecito,34.4184147191,-119.6315595309,4.0,AZ
jpi_v4T1LinzOVtng7OOwg,SkyConnect Rental Car Center,"Parking, Automotive, Trains, Hotels & Travel, Transportation, Car Rental",Tampa,27.9619684746,-82.5359668583,3.0,AZ
XAQtINBQINnaZ5g3qcOnvA,Washoe County Offices,"Community Centers, Public Services & Government",Reno,39.539097,-119.801934,4.0,AZ
MGiecyk-Ph97abPAfoQkcw,Bells Bend Park and Outdoor Center,"Hiking, Parks, Active Life",Nashville,36.154279,-86.9219126,3.5,NV
8TJ_PztMgyNnkzd1QoO0Ww,Frame of Mind,"Arts & Entertainment, Shopping, Art Galleries, Framing, Arts & Crafts",Edmonton,53.5255534,-113.427173,5.0,NV
tdD0wXYX_YNlwA1JLjXnuA,Attorney General,Public Services & Government,Indianapolis,39.7672002,-86.1635318,1.5,AZ
IViBs8QaaIjsKBADVJxzfQ,Columbia Bottom Conservation Area,"Skate Parks, Active Life, Parks",Saint Louis,38.8137687074,-90.1262968387,4.5,AZ
PSq-lVeaLStdpoxr0e3SJw,Liberty Public Adjusters,"Professional Services, Damage Restoration, Public Adjusters, Home Services, Financial Services, Insurance",Williamstown,39.689352,-75.000973,2.0,AZ
W70W-8Cd3dnAxwZ9wGCWnA,Reid Park Rose Garden,"Parks, Local Flavor, Active Life",Tucson,32.209728098,-110.9240264979,4.5,AZ
CNGvDhh7PtdmMAJdsMfcFQ,Dr. Carter G. Woodson African American Museum,"Local Flavor, Public Services & Government, Landmarks & Historical Buildings, Arts & Entertainment, Museums",Saint Petersburg,27.7608222464,-82.6638720185,4.5,AZ
bhPyMPCsIiQiBleXhQSGDg,Commons Park,"Parks, Active Life, Playgrounds",Indianapolis,39.7713773,-86.1240079,4.0,NV
W0wH1xdJifUvsprsEABwqg,Pioneer Park,"Active Life, Parks",Mooresville,39.6263240448,-86.3636859411,4.5,NV
16FLHpN9JfcZTlDQe0lcTw,Lido Park,"Playgrounds, Parks, Kids Activities, Active Life",Saint Pete Beach,27.719418,-82.738455,4.5,NV
p1xQSIooQ25nAYZ5xtyPIQ,Mud Creek Players,"Arts & Entertainment, Performing Arts, Ticket Sales, Active Life, Summer Camps",Indianapolis,39.9132389,-85.99617,4.0,AZ
fCodJihIFziZV7mT-hnlrw,Excel Physical Therapy,"Physical Therapy, Arts & Entertainment, Museums, Art Museums, Health & Medical",Philadelphia,39.9540022,-75.169996,4.5,CA
wiNfcceNThfooXkOH0Nd_Q,Glenns Valley Nature Park,"Event Planning & Services, Venues & Event Spaces, Parks, Playgrounds, Active Life",Indianapolis,39.6460449,-86.193612,4.0,AZ
PfR8U3lwXhJM5cububiXrA,Riverside Park,"Dog Parks, Recreation Centers, Parks, Active Life",Indianapolis,39.799956,-86.193221,3.5,CA
LuqXZeJP4KTnsSXFhotnmQ,Aspen Grove Park Trails,"Active Life, Local Flavor, Parks, Playgrounds, Hiking",Franklin,35.946678,-86.8257837,4.5,AZ
_AfPllcCgaVGj3UhYJ670A,The Great Frame Up,"Art Galleries, Arts & Crafts, Home & Garden, Framing, Arts & Entertainment, Home Decor, Shopping",Tampa,27.929863,-82.5066959,4.0,NV
VlXdebuuVW_6mlhXXx0Kfg,Paradigm Gallery + Studio,"Education, Art Classes, Arts & Entertainment, Shopping, Performing Arts, Art Galleries, Home Decor, Home Services, Real Estate, Home & Garden, Art Space Rentals, Art Consultants, Commissioned Artists, Professional Services",Philadelphia,39.9393004,-75.1498523,5.0,NV
hDIhfnSNc0IGJPapI_0GiQ,Petroglyphs Tucson,"Home Decor, Arts & Entertainment, Home & Garden, Furniture Stores, Shopping, Art Galleries",Tucson,32.2180412,-110.9841358,5.0,AZ
nazEG-Y2LF4nL4bIIz7DKg,Clearwater Travel Resort,"Hotels & Travel, RV Parks, Campgrounds",Clearwater,27.962428,-82.714922,3.5,AZ
N1TiUdp1wzLRg5-ksQG88g,Us Post Office,"Public Services & Government, Post Offices",Saint Charles,38.7820996336,-90.5001028225,2.0,CA
3b3Ef-JYPyWK5M74ok1KKg,United States Post Office,"Public Services & Government, Post Offices",Smyrna,35.9771003723,-86.5084228516,2.0,CA
kPl_YGxEiYLQZmYI8i1Ksw,PennDOT,"Public Services & Government, Departments of Motor Vehicles",Philadelphia,39.9124668455,-75.2324452454,5.0,NV
uxDI8-Wiqdkcv9xasQg-Xg,New Port Richey Public Library,"Libraries, Public Services & Government",New Port Richey,28.2503901656,-82.715795027,4.0,NV
jVz1dfYc_Q79iCcZjIymuQ,New Tampa Rotary Dog Park,"Parks, Active Life, Dog Parks",Tampa,28.1295606,-82.3834731,2.5,AZ
1rv2GqTyH3wH1m3R1L_2lA,Walnut Bridge Parking & Storage,"Parking, Self Storage, Automotive, Local Services",Philadelphia,39.9509293445,-75.1797278729,2.0,CA
wL8FZJyRCkcbVOeF9WNJvA,Soldiers Memorial Military Museum,"Public Services & Government, Arts & Entertainment, Landmarks & Historical Buildings, Museums",Saint Louis,38.629011,-90.2000346,4.5,AZ
X1Rlex5ddh8e__cDlq-hPQ,Dollar Tree Store,"Shopping, Department Stores, Fashion",Tucson,32.258658,-110.7966657,3.5,AZ
Gh3aHBukmf-VCIlgs9wtuQ,Rincon Country West RV Resort,"Active Life, Vacation Rentals, Recreation Centers, RV Rental, RV Parks, Hotels, Campgrounds, Event Planning & Services, Resorts, Hotels & Travel",Tucson,32.169195,-111.005158,4.5,AZ
m21tZ_Fs-k5fwl5BTUULOw,US Post Office,"Post Offices, Shipping Centers, Public Services & Government, Local Services",Saint Louis,38.6275633,-90.2511029,4.0,NV
iv_tLrLMCamXNZeXj7-JbQ,Metal Arts Village,"Arts & Entertainment, Shopping, Art Galleries",Tucson,32.265823,-110.913711,4.5,AZ
ukdojID4ZYPanPtgEqb8IQ,Marshalls,"Shopping, Fashion, Department Stores",Tucson,32.2232162094,-110.9170269594,4.0,AZ
BMzv81EPTXWS7Vt3NFPIog,Home Sense,"Fashion, Shopping, Department Stores, Home & Garden, Home Decor",Moorestown,39.944806,-74.963223,4.0,NV
U9p4Q73vNxSnxEVYeehXFQ,K&G Fashion Superstore,"Department Stores, Shopping, Formal Wear, Men's Clothing, Discount Store, Women's Clothing, Fashion",Cherry Hill,39.94658,-75.02496,3.5,NV
lJHYrtNQPiiQoL4skCaXaQ,Social Security,"Security Services, Public Services & Government, Professional Services",Indianapolis,39.8793061185,-86.2779039145,4.0,AZ
OI8BCJhQpWWg4N8VVvb6WA,Phila Auto Tag,"Registration Services, Notaries, Automotive, Public Services & Government, Local Services, Insurance, Auto Insurance, Financial Services",Philadelphia,40.0922822,-75.0310643,4.5,NV
WUoY6k7KNmimtHG63swNiw,Carrollwood Cultural Center,"Art Galleries, Cultural Center, Nightlife, Shopping, Farmers Market, Food, Performing Arts, Jazz & Blues, Education, Local Flavor, Arts & Entertainment",Tampa,28.0663155796,-82.5163085713,4.5,CA
gQ7KrFsYK74tqnLVXtuAbg,Fabletics,"Shopping, Sports Wear, Department Stores, Fashion, Women's Clothing, Sporting Goods, Fitness/Exercise Equipment",St. Louis,38.635675985,-90.3484717,4.5,NV
R17sHaXUv1D1fC9jXMuDJg,Nathan Bedford Forrest Equestrian Statue,"Public Services & Government, Landmarks & Historical Buildings",Brentwood,36.0614494,-86.769702,2.5,AZ
JgF6V-3p1DZ5QUzWzFfLmw,United States Postal Service,"Public Services & Government, Post Offices",Speedway,39.8018619485,-86.2539678812,2.5,NV
rY9vWVa0cO-Jwhs9jIS28Q,PennDOT Photo License Center,"Departments of Motor Vehicles, Public Services & Government",Harleysville,40.2723795106,-75.3784656152,3.5,CA
7DlqojCGK3fsGbMxvgKXRQ,Mobbly Beach Park & Mobbly Bayou,"Local Flavor, Active Life, Beaches, Parks",Oldsmar,28.012103,-82.665527,4.5,NV
ND_bmWKl3WodaIBe80UCNQ,The UPS Store,"Local Services, Couriers & Delivery Services, Post Offices, Public Services & Government, Mailbox Centers, Shipping Centers, Notaries, Printing Services",Tampa,27.9474871388,-82.4554551738,3.0,AZ
ebIWLR_mejGWJ2wOJpKItQ,Dented Keg Ale Works,"Nightlife, Food, Breweries, Bars, Pubs, Beer Bar",New Port Richey,28.2499650611,-82.7240844665,4.5,NV
Vg0oTgDyRwi73D5zRywrlg,Centennial Beer Hall,"Wine Bars, Beer Bar, Bars, Nightlife",Goleta,34.435818,-119.8283385,4.0,AZ
dcSTHsOvg4Njduz7cl4iuQ,Mary Jo's Performing Arts Academy,"Performing Arts, Arts & Entertainment",Tampa,28.0987967,-82.504962,2.5,NV
RPjJzbiIedTvwyie7Ejl-Q,Marshalls,"Shopping, Fashion, Department Stores",Philadelphia,40.0742819,-75.0331506,2.0,NV
g_-iKXEAQIqBB1zR1yrgGg,Stix Oldsmar,"Pool & Billiards, Restaurants, Pool Halls, Chicken Wings, Bars, Burgers, Beer Bar, Nightlife, Shopping",Tampa,28.03225,-82.646674,4.0,CA
M6EqVpneIE5NpRLZfXtUjw,Big Lots,"Discount Store, Shopping, Department Stores, Furniture Stores, Fashion, Home & Garden",Tucson,32.3388064458,-111.0491648009,3.0,CA
D-ZAYzEohv22AOh-ZPBlBw,Davis-Monthan Air Force Base,Public Services & Government,Tucson,32.1923591,-110.8752523,4.0,NV
ar5_VHL8ONvZ5OAxN8Rpcg,The Salvation Army Family Store & Donation Center,"Thrift Stores, Local Services, Department Stores, Shopping, Donation Center, Discount Store, Fashion",St. Petersburg,27.8206856,-82.6378357,2.5,CA
kALy2_jT7g2lvdI9kKyGQw,Silver Lake Nature Center,"Active Life, Parks",Bristol,40.1138482,-74.8632544,4.0,NV
l0ihZeow3OuWqkmsiFKQRw,US Post Office,"Local Services, Shipping Centers, Post Offices, Public Services & Government",Cherry Hill,39.91671,-75.008375,3.0,NV
kCVs2MaX3_y7nx6Z23SUsw,Big Lots,"Fashion, Department Stores, Furniture Stores, Shopping, Home Decor, Home & Garden, Discount Store",Indianapolis,39.9074858324,-86.2183948276,3.5,AZ
q5tktYGvDCazS4GxfrkZbA,Boyertown Museum of Historic Vehicles,"Arts & Entertainment, Museums",Boyertown,40.3334707,-75.6401749,5.0,NV
n6Dy8gwx1O_VAWwgfz7scg,Gizella Kopsick Palm Arboretum,"Local Flavor, Active Life, Parks",St. Petersburg,27.782867574,-82.6255761589,5.0,CA
11Z3SPTgWIgeIJP1JCNAqw,Kohl's,"Furniture Stores, Shopping, Fashion, Toy Stores, Men's Clothing, Shoe Stores, Women's Clothing, Home & Garden, Department Stores",Blue Bell,40.1672916,-75.2871993,2.5,NV
67e5flJfDOdow5ONivrrkA,US Post Office,"Public Services & Government, Post Offices",Nashville,36.1575755,-86.7836342,3.0,AZ
ArlrU5qdyFw8SXi6YZsUvA,US Post Office,"Shipping Centers, Post Offices, Local Services, Public Services & Government",Kulpsville,40.2422843,-75.3366677,3.0,AZ
ZhMbfAIHSE25FoFEXl9qsw,DXL,"Fashion, Accessories, Shopping, Men's Clothing, Plus Size Fashion, Department Stores, Shoe Stores",Tucson,32.2808046,-110.9787453,4.5,AZ
sNukG74oVlZdk1vbIn8dvw,Indiana BMV - Nora License Branch,"Departments of Motor Vehicles, Public Services & Government",Indianapolis,39.922233,-86.157296,3.5,CA
6Um_c8b-CYvKRvLzS05BNQ,Ocean Blue Galleries,"Arts & Entertainment, Art Galleries, Shopping",Saint Petersburg,27.7750165459,-82.6323249496,3.5,AZ
qNKOtTv_LmSGrBH3umm3GA,Fall Creek Greenway,"Public Services & Government, Parks, Active Life, Landmarks & Historical Buildings, Hiking",Indianapolis,39.8118241694,-86.1434219778,4.0,NV
BMsznPTwLUh3TQ_O9zliog,Kohl's,"Home & Garden, Fashion, Swimwear, Shopping, Men's Clothing, Furniture Stores, Women's Clothing, Department Stores, Shoe Stores",Wilmington,39.8208747,-75.549322,3.0,AZ
5qzhVk1pjel6vm78u-r-SA,Granny White Park,"Playgrounds, Active Life, Parks",Brentwood,36.0522547714,-86.8183161505,4.5,AZ
VMsbk8QNCfixxaDwdgfnyA,River Road Park,"Playgrounds, Hiking, Active Life, Parks",Carmel,39.9709208,-86.0496426,4.5,AZ
nBnfFKhuQh7M59QHFlNSIA,JCPenney,"Department Stores, Appliances, Shopping, Women's Clothing, Fashion, Home & Garden, Children's Clothing, Baby Gear & Furniture, Men's Clothing",Deptford,39.8315323,-75.0979797,3.0,AZ
tgHqt91y1HtQy7hKb8J9gg,James Oliver Gallery,"Arts & Entertainment, Art Galleries, Shopping",Philadelphia,39.9498566,-75.1531928,4.0,AZ
JpJogTQGjOQrA7yt1V8PMg,Christiana Pub,"Dive Bars, Karaoke, Bars, Nightlife, Pubs, Arts & Entertainment, Music Venues",Newark,39.665601,-75.661557,4.0,AZ
G5OTRl31cJtu0tI4pf7t4w,Schnucks - Zumbehl,"Bakeries, Department Stores, Food, Flowers & Gifts, Fashion, Florists, Drugstores, Grocery, Shopping",Saint Charles,38.781439,-90.530085,2.5,NV
hZn7HYYoFkBkBZWTBTds2g,Dark Matter Oddities & Artisan Collective,"Antiques, Home & Garden, Home Decor, Shopping, Arts & Entertainment, Art Galleries",New Orleans,29.958715,-90.0626169,4.5,NV
frHBGK7C2yCQwkdNLarLmQ,US Post Office,"Shipping Centers, Post Offices, Local Services, Public Services & Government",Saint Louis,38.6125285,-90.3165878,3.0,CA
uMgWlA0if5EA7OF4eQVKHg,Jungle Games,"Amusement Parks, Active Life",Lutz,28.1322790181,-82.4286221459,2.5,AZ
MbW8007dtzkzk-We6c_5uQ,What's In Your Tank,"Aquarium Services, Pet Stores, Pet Services, Pets, Local Fish Stores",Land O' Lakes,28.1919658117,-82.463938546,3.0,NV
nY_f4krx2TbS7BgKiHKWAA,Skater's Point,"Skate Parks, Active Life, Parks",Santa Barbara,34.4142335,-119.6869164,4.0,AZ
wwuSiy-ljTwoOL2giCBNWA,Atrium Dance Studio,"Dance Schools, Performing Arts, Fitness & Instruction, Education, Yoga, Active Life, Specialty Schools, Dance Studios, Arts & Entertainment",Pennsauken,39.9531141,-75.0630767,4.0,AZ
SaZJPDpHKl57z3giyPcleg,Lewis & Clark State Historic Site,"Public Services & Government, Landmarks & Historical Buildings",Hartford,38.8022768,-90.1021746,4.5,AZ
c1kkbCvr4_PEjPtIMqpj8g,Williams Park,"Basketball Courts, Playgrounds, Active Life, Parks",Brownsburg,39.8299168253,-86.4075263481,5.0,AZ
cygBw1IxU3WheJ9C-k7qUg,Image Gallery,"Art Galleries, Shopping, Arts & Entertainment",New Orleans,29.9578823925,-90.0647126511,1.5,NV
UM1hoaASsl6X-F4rMEOBpw,Vlasis Park,"Tennis, Active Life, Parks, Fishing, Lakes",Ballwin,38.5935565,-90.5385229,4.0,NV
MzCi-IqL4zam8jdzvEFkyw,Hillsborough County Tax Collector's Office ,"Tax Services, Public Services & Government, Financial Services",Tampa,27.9483566,-82.4548727,3.0,AZ
RB6lihfL9CIjni1EreFRPg,Animation Art Studio,"Arts & Entertainment, Art Galleries, Beauty & Spas, Shopping, Tattoo, Piercing",Indianapolis,39.8256793,-86.1594854,3.5,AZ
zr7vspTJPNgxP-j90bc_wg,Big Lots,"Shopping, Department Stores, Home Decor, Fashion, Discount Store, Furniture Stores, Home & Garden",New Orleans,29.9583113,-90.1855588,3.5,AZ
5MiC5lBDgN9FJB_i5CIxgw,I 75 Southbound Mile 238 Rest Area,"Public Services & Government, Event Planning & Services, Hotels, Hotels & Travel, Landmarks & Historical Buildings, Rest Stops",Ruskin,27.686228,-82.42131,3.5,AZ
T6hd8GrA8chqmy7dt3l_Lw,Pearl Bay,"Home Inspectors, Home Decor, Contractors, Roofing, Damage Restoration, Shopping, Home Services, Public Services & Government, Home & Garden",Santa Barbara,34.4193812,-119.7029531,5.0,AZ
kNcyGQotdLw7QfW-L9J4dw,Disco Furniture Warehouse,"Furniture Stores, Shopping, Home & Garden, Antiques, Arts & Entertainment, Art Galleries, Home Decor",New Orleans,29.9195899,-90.0821071,4.5,AZ
g3bhuSvxM4VaAhFccV1Cug,TJ Maxx,"Shopping, Fashion, Department Stores",Tucson,32.320324,-110.973214,3.5,NV
DnJhx23Eat0T0ax1oqOyjg,Walmart Neighborhood Market,"Shopping, Fashion, Discount Store, Electronics, Department Stores, Grocery, Food, Drugstores",Fishers,39.9810103,-86.0015558,2.5,CA
kuEDsnMhtjGKBUAjK5avNg,J.Tails,"Pets, Dog Parks, Dog Walkers, Pet Boarding, Pet Groomers, Active Life, Pet Services, Parks, Pet Sitting",Saint Petersburg,27.764444,-82.669046,4.5,NV
PnqnSow3sld10NmYhBcUgA,More Than Just Mail,"Post Offices, Public Services & Government",Largo,27.8761647,-82.7618973,3.5,AZ
Czu-oLufPChZ3_XeOaGbGA,New Jersey Renaissance Faire,"Arts & Entertainment, Performing Arts",Bordentown,40.077631,-74.754688,4.5,NV
n_5deYXlFAHwtPOXniATIA,Build-A-Bear Workshop,"Kids Activities, Amusement Parks, Toy Stores, Active Life, Shopping",Nashville,36.2017668,-86.694253,4.0,CA
Z17ByK-SmAZn4MQG07l5TA,Avon Town Hall Park,"Active Life, Arts & Entertainment, Public Services & Government, Disc Golf, Parks, Stadiums & Arenas, Playgrounds",Avon,39.7650487912,-86.4088513702,4.5,NV
yLS_1br4AfpDiWbTcCPSyA,Mona Lisa Pub,"Nightlife, Bars, Pubs",Edmonton,53.5706569,-113.4907911,3.5,NV
AViEkPTdQR1CV3Jix3Eqzg,Pima County Fairgrounds RV Park,"Hotels & Travel, RV Parks",Tucson,32.0459151069,-110.7829692063,3.5,AZ
LfmfAewJ8sLomjmflKYrkw,Craft Brewers of Boise,"Arts & Entertainment, Wineries, Beer, Wine & Spirits, Beer Bar, Brewing Supplies, Shopping, Bars, Breweries, Food, Nightlife, Wine Bars",Boise,43.6086789,-116.2431171,4.0,AZ
GjQPosKRsjgy6YOClQOUlA,ZooTampa at Lowry Park,"Zoos, Tours, Arts & Entertainment, Hotels & Travel, Active Life",Tampa,28.0134789526,-82.4679864808,4.0,AZ
JNBuXPEjE3eavcIUvUc49A,Yard House,"American (New), Vegetarian, Restaurants, Bars, Nightlife, Beer Bar",Moorestown,39.9431238413,-74.9625058225,4.0,NV
MMdJZWpeQWYAANjqkvFffA,Lafitte Greenway,"Active Life, Parks",New Orleans,29.9799265,-90.1007281,4.0,AZ
4NCwkUlZc7eJs5bTVeeR4A,Sunset Grille of Hernando Beach,"Nightlife, Pubs, American (New), Bars, Restaurants",Hernando Beach,28.4815368,-82.6506862,3.0,NV
0t-KIkSmBAVVdpjqsmmG5A,City of Dunedin,Public Services & Government,Dunedin,28.0131608,-82.7854585,4.5,NV
knVHLh49ZkMTTbYvL72DEQ,Magnolia Bridge,"Local Flavor, Public Services & Government, Yelp Events, Landmarks & Historical Buildings",New Orleans,29.9809294343,-90.0887735395,5.0,CA
wudNbKux2vdP4y8LHTawAw,Ross Dress for Less,"Fashion, Shopping, Women's Clothing, Department Stores, Home & Garden, Home Decor, Discount Store, Men's Clothing",Sahuarita,31.91003,-110.983415,2.0,NV
knT83yklXA3_9BVQYLXTBQ,Mackenzie Park,"Parks, Playgrounds, Active Life",Santa Barbara,34.4390708266,-119.7336387634,4.0,NV
qZd_pMnCdW1cmtq_jOzoYA,Parking Management Corporation,"Parking, Automotive",Nashville,36.1463393,-86.8646321,1.0,AZ
O2rUiFbaM33AziR2JvmXZQ,Cabana Bar,"Pubs, Bars, Nightlife",Saint Pete Beach,27.7311063026,-82.7465702221,4.5,CA
zGjpbVApADyoHCNJbcBh-w,Museum of Contemporary Art Santa Barbara,"Art Galleries, Museums, Arts & Entertainment, Shopping",Santa Barbara,34.41874,-119.7003524,3.5,NV
ZG8r_SUVZgruFtjm4SbGJg,Patroit Parking,"Automotive, Parking",Philadelphia,39.9492913604,-75.162716014,1.5,AZ
WC98L9P-mJjnqpxEVk25ag,ACME Markets,"Food, Grocery, Shopping, Fashion, Drugstores, Department Stores",Philadelphia,40.0793129079,-74.9933626516,3.5,NV
7HV6YSt-1ztLwDX53MkpyQ,Carter House Museum & Historical Site,"Landmarks & Historical Buildings, Public Services & Government, Arts & Entertainment, Museums",Franklin,35.9170736,-86.873434,5.0,AZ
w17NubKOGPiUwjUXiAGq-g,Social Security,"Local Services, Public Services & Government",Santa Barbara,34.418239163,-119.7022247314,2.5,CA
X0WzS9G-SoCMqaTseOresQ,Desert Trails RV Park,"RV Parks, Hotels & Travel, Campgrounds",Tucson,32.179284,-111.1484367,4.0,NV
kifAb_Z0TY_MjqcSnEBFfw,Books On The Beach,"Shopping, Books, Mags, Music & Video, Post Offices, Public Services & Government, Bookstores",Treasure Island,27.769958,-82.768391,3.5,NV
kdZr-IdMNOUNZxbZDy8TeQ,US Post Office,"Public Services & Government, Local Services, Shipping Centers, Post Offices",Tucson,32.273139,-110.9790247,1.5,AZ
penT9eIi3WrI49w_nQnVHQ,US Post Office,"Shipping Centers, Public Services & Government, Post Offices, Local Services",Collegeville,40.184369,-75.453775,1.5,AZ
V1Zb4bJaUIQAdvE-_9n9IQ,Lucky You Tattoo,"Beauty & Spas, Shopping, Arts & Entertainment, Art Galleries, Tattoo, Cultural Center, Piercing",Seminole,27.8147072,-82.7726842,4.5,AZ
BQ5SMsQ7OKDrXXEQNHMYhg,Churchville Park Nature Center,"Parks, Active Life",Feasterville Trevose,40.1860018,-74.9928323,4.5,AZ
SzMR7V1tUQwJaH7oqvzYQQ,Target,"Department Stores, Electronics, Furniture Stores, Fashion, Food, Shopping, Grocery, Home & Garden",Pottstown,40.269058,-75.656297,3.0,NV
9x-DdU6f16JF2cuepk-C9Q,U.S. Postal Services,"Public Services & Government, Post Offices",Tampa,27.958125,-82.483164,3.5,AZ
PGzD8zxL5jRHGU0ysuCulw,Winding Brook Farm,"Haunted Houses, Active Life, Arts & Entertainment, Farms, Pumpkin Patches, Home & Garden, Kids Activities, Amusement Parks, Shopping",Warrington,40.262349,-75.152143,3.0,NV
zGSpUHbAIzDmN4i8bVj8ng,Walmart Neighborhood Market,"Department Stores, Fashion, Shopping, Drugstores, Grocery, Discount Store, Electronics, Food",Indianapolis,39.6956264,-86.2664438,3.5,CA
hlbljZ88kCg7E9HXbZV6DA,Target,"Department Stores, Shopping, Fashion, Grocery, Electronics, Furniture Stores, Home & Garden, Food",Hendersonville,36.334395,-86.625271,4.0,CA
BCyeTT2C8p814-Eias0cIg,Marshalls,"Department Stores, Fashion, Shopping",Clearwater,27.9662520295,-82.7282566822,3.0,NV
f7S5zgjxnen2ADQrz6Inqg,Lock 29 Mont Clare,"Restaurants, Beer Bar, Bars, Cocktail Bars, Nightlife, Food, Juice Bars & Smoothies, American (Traditional)",Mont Clare,40.1361569524,-75.5072984382,4.5,AZ
J4ecRGQ_-c2A2vSNLip6Kw,The Studio@620,"Performing Arts, Arts & Entertainment, Art Galleries, Shopping",Saint Petersburg,27.7700233,-82.6422039,4.0,AZ
HJduAXxpms1kGJlpx_udoA,Pogue's Run Art & Nature Park,"Active Life, Parks",Indianapolis,39.800028,-86.088158,4.0,AZ
4QjOsH83KEcjen94P99u3Q,Downtown Santa Barbara,"Landmarks & Historical Buildings, Community Service/Non-Profit, Public Services & Government, Local Services, Local Flavor",Santa Barbara,34.4187493151,-119.6981547333,4.0,AZ
dAY2Pj-o155nJTsW1AvBDw,Old Navy,"Shopping, Women's Clothing, Fashion, Department Stores, Children's Clothing, Men's Clothing",Mehville,38.499383,-90.3337349,3.0,NV
ClJOFxt_rpMjc-ZliFUKqA,Target,"Furniture Stores, Home & Garden, Shopping, Electronics, Fashion, Department Stores",Philadelphia,39.9516748,-75.172254,2.5,CA
pxV25vMObcPZJjM2_i-TNg,Greenbrier Pizza & Pub,"Pubs, Bars, Restaurants, Pizza, Nightlife, Salad, Chicken Wings",Greenbrier,36.427025,-86.805235,4.0,CA
XzJGEjUulaphx4uFAW6bcw,Alverthorpe Park,"Active Life, Parks",Elkins Park,40.0877302644,-75.1089979459,3.5,CA
SW1C57UvP8r_xaDiz4-6xg,North Redington Beach,"Beaches, Public Services & Government, Active Life",North Redington Bch,27.8227268,-82.8249515,5.0,AZ
6wDCWZiHz_7yQ_6nfA9iIA,Dillard's,"Department Stores, Men's Clothing, Fashion, Shopping, Shoe Stores, Children's Clothing, Accessories, Women's Clothing",Brandon,27.934598,-82.326914,3.5,AZ
NU2KdZPkfppAhzib4a5S8Q,Torn Arts,"Tattoo, Beauty & Spas, Shopping, Art Galleries, Arts & Entertainment",Reno,39.5145528,-119.8034648,4.0,AZ
1cLhfVUILUQ9u6C9XtwcNg,Sophie's Artist Lounge,"Lounges, Bars, Nightlife, Arts & Entertainment, Art Galleries, Shopping, Cocktail Bars",St. Louis,38.6382623,-90.2273243,5.0,NV
DAVoDOQCp7HdnVnVjkmujw,The ScyFli Smoke Shop and Glass Gallery,"Shopping, Art Galleries, Tobacco Shops, Arts & Entertainment",Mount Laurel,39.9239335,-74.9483225,4.5,AZ
AA_FCitr95C0eXEW_sUNrA,Marshalls,"Fashion, Department Stores, Shopping",Voorhees,39.8245406086,-74.9312794264,3.5,AZ
2W-QTUL9MNwDsJzMa8oKag,Tabano Hollow Open Space,"Active Life, Parks, Dog Parks",Santa Barbara,34.4441900114,-119.8012351193,4.0,AZ
uMukWSL2dgLA_jFYqyeATg,The Great Frame Up,"Photography Stores & Services, Arts & Crafts, Printing Services, Local Services, Framing, Art Galleries, Arts & Entertainment, Shopping",Mount Laurel,39.972995317,-74.8703198036,5.0,CA
h0IEDvVAqFIBHY9Nhni5qQ,Canadian Tire,"Automotive, Department Stores, Tires, Shopping, Home & Garden, Gas Stations, Fashion",Edmonton,53.5386876444,-113.4170244361,2.0,CA
GPKEEDiVPdpP8WmqIWkT1g,Gabe's,"Shopping, Fashion, Discount Store, Men's Clothing, Home Decor, Home & Garden, Accessories, Department Stores, Women's Clothing",Pottstown,40.2343893913,-75.6628437844,3.0,NV
5SY-YaKX2AryNYj2q1RYOQ,Giant,"Grocery, Gas Stations, Shopping, Drugstores, Automotive, Department Stores, Food, Fashion",Royersford,40.2114918435,-75.4991789489,3.5,AZ
bd7sa9p7jCQNnlwRfrri8g,Dolphin Snorkeling Cruise,"Snorkeling, Boating, Beaches, Active Life",Gulfport,27.7406146,-82.6961396,4.0,NV
_jgOQXIndo3cQIJp_F1ObQ,Smart Art + Craft Supplies,"Thrift Stores, Arts & Crafts, Art Supplies, Shopping, Local Services, Art Galleries, Art Classes, Education, Arts & Entertainment, Community Service/Non-Profit",Nashville,36.219305,-86.695519,4.5,AZ
OWEwo9E9BqZAF0VI_95SEw,Target,"Shopping, Fashion, Grocery, Home & Garden, Department Stores, Drugstores, Electronics, Food, Furniture Stores",Exton,40.039406,-75.62947,3.5,AZ
-HCm7yAyNQKetrT0hq-LlA,The Art Of Consignment,"Home & Garden, Arts & Entertainment, Art Galleries, Fashion, Thrift Stores, Shopping, Antiques, Used, Vintage & Consignment, Home Decor, Furniture Stores",Santa Barbara,34.422978,-119.6870583,4.5,NV
oZZQbk2RJY5xk8EdqylMLQ,US Post Office,"Public Services & Government, Post Offices",Indianapolis,39.827891,-86.272765,2.0,CA
9NiwZgRagmDZUubOoVK1nA,Jefferson Parish Library,"Public Services & Government, Libraries",Harvey,29.8717809634,-90.0469654023,4.0,NV
9Ym69YBWtclmrd1hhNM2Nw,Sweet Mabel,"Jewelry, Home Decor, Home & Garden, Art Galleries, Arts & Entertainment, Shopping",Narberth,40.0058449884,-75.2606583199,4.5,NV
kDBk4XXDgXTfuVqm8ddwQw,William S. Sahm Park,"Active Life, Parks, Golf",Indianapolis,39.919587301,-86.0559951612,4.0,NV
wPuoQJPbrEQyBt9K73JiQQ,Hillsborough Area Regional Transit,"Hotels & Travel, Public Transportation, Transportation",Tampa,27.9701763931,-82.4098824255,2.5,CA
E16ypqFaVOt_CnHrX4gw2A,The UPS Store,"Printing Services, Shipping Centers, Notaries, Post Offices, Local Services, Mailbox Centers, Public Services & Government",Tampa,28.0548971437,-82.4008225964,3.0,CA
3OOK6-fiNy4RKIVu18atVw,Walmart,"Department Stores, Fashion, Electronics, Grocery, Discount Store, Drugstores, Shopping, Food, Mobile Phones",Cahokia,38.5559626,-90.1663246,2.0,AZ
eqeW6Xwu4rNoxWYeW8Rqhw,Burlington,"Shopping, Home Decor, Home & Garden, Department Stores, Women's Clothing, Accessories, Fashion, Children's Clothing",Sparks,39.5324611,-119.7206595,2.0,NV
450dgxdtJSHfeMbwAurhCw,Arte Bella,"Arts & Entertainment, Art Supplies, Art Classes, Nightlife, Art Galleries, Paint & Sip, Education, Event Planning & Services, Shopping, Party & Event Planning, Arts & Crafts",Tucson,32.2202258,-110.8655032,4.5,AZ
u198kVNWD__0kr-WFuxtVA,Burlington Bristol Bridge,"Public Services & Government, Landmarks & Historical Buildings",Burlington,40.081200936,-74.8695330913,3.5,AZ
YXG8iURXM5MCcZqKbcC0Qg,Gallery Burguieres,"Art Galleries, Professional Services, Shopping, Graphic Design, Local Flavor, Arts & Entertainment",New Orleans,29.958595,-90.0640114,4.0,CA
Q0mU3F5jWPieFIPMwIJLEw,Fascinating Rhythm School of Performing Arts,"Active Life, Dance Studios, Arts & Entertainment, Performing Arts, Fitness & Instruction",Reno,39.4437709,-119.7698374,4.5,NV
W3jcvYCb82O5hmtI7JBfjg,Restless Artists Theatre Company,"Performing Arts, Arts & Entertainment",Sparks,39.535986,-119.770746,4.5,NV
Sdy-p-2z0Xc0b5rlPEQ0Lg,Battery Park,"Parks, Battery Stores, Landmarks & Historical Buildings, Public Services & Government, Shopping, Active Life",New Castle,39.6577572389,-75.5647467077,4.5,NV
4DHKg7ud2JyFA9piowdO4Q,Marshalls,"Fashion, Shopping, Department Stores",Saint Louis,38.5531104,-90.4091981,4.0,CA
cayEli5ZH9EAMkOLhJiuBg,Walmart Superstore,"Fashion, Department Stores, Shopping",Tampa,28.0227615612,-82.5065074536,2.0,NV
p1i8V23visvXVioqO74XKg,Beyond Van Gogh,"Art Museums, Museums, Arts & Entertainment",St. Louis,38.6318912411,-90.3468950362,4.5,AZ
B-RZB3_G-zQm1a1GBMsvxg,The UPS Store,"Post Offices, Public Services & Government, Notaries, Local Services, Shipping Centers, Printing Services, Mailbox Centers",Tampa,27.996118,-82.582823,4.0,NV
dXREfNidBVaPbF8g5Xf54A,Department of Motor Vehicles,"Departments of Motor Vehicles, Public Services & Government",Harvey,29.9001323,-90.0718147,2.5,CA
ZZO_HIYbXMYNCinwvjcAWg,The Brick,"Shopping, Fashion, Home & Garden, Appliances, Mattresses, Department Stores, Furniture Stores",Edmonton,53.5217443,-113.6186753,1.0,NV
HRVv9HPqyLz1NhDIRsOAbg,Clearview  Title & Notary,"Departments of Motor Vehicles, Professional Services, Registration Services, Insurance, Local Services, Legal Services, Notaries, Landmarks & Historical Buildings, Financial Services, Automotive, Public Services & Government",Metairie,29.9930125,-90.181577,3.5,NV
t9F3EzdwHkMIOxY71fVRUQ,Jimmie B. Keel Regional Library,"Public Services & Government, Education, Libraries, Educational Services",Tampa,28.086807,-82.492586,4.0,NV
gc8nLHXxV0RS_aXTHfWYPw,Macy's,"Shopping, Fashion, Men's Clothing, Women's Clothing, Department Stores, Shoe Stores",Brandon,27.9302779,-82.3260074,3.5,NV
zkanKLWoYXHX4jKLlr0s_Q,Sneaky's Sports Bar & Grill,"Restaurants, Bars, Music Venues, Arts & Entertainment, Beer Bar, Nightlife, Sports Bars, American (Traditional), American (New)",Largo,27.893629,-82.742307,3.0,AZ
80_HbSZ8XbmY7J1137_SKA,Canadian Tire,"Shopping, Department Stores, Fashion",Edmonton,53.6230118,-113.4885479,1.5,NV
IYmnc4LXB6QZrVuGmETM2w,Nashville North KOA,"RV Parks, Local Services, Campgrounds, Active Life, Propane, Venues & Event Spaces, Hotels & Travel, Hiking, Event Planning & Services",Goodlettsville,36.3729656,-86.7094986,4.0,CA
HCzx0zJbeEpHuEYCpnnP7w,USPS,"Post Offices, Public Services & Government",Brandon,27.9333579,-82.3030881,3.0,NV
EtKppmSJzGRwbhjErePa6A,Center of Clayton,"Fitness & Instruction, Beaches, Gyms, Swimming Pools, Active Life, Cardio Classes",Clayton,38.651026,-90.347847,3.5,NV
c-LV-sFVgOxOcIW8fd6s3w,Bed Bath & Beyond,"Gift Shops, Department Stores, Home & Garden, Kitchen & Bath, Cosmetics & Beauty Supply, Flowers & Gifts, Shopping, Furniture Stores, Fashion, Beauty & Spas",Wilmington,39.8312695,-75.539982,3.5,NV
v80uESN2_EK2TR-oj3b1bg,Peaches and Pearls Boutique and Gallery,"Thrift Stores, Art Galleries, Antiques, Arts & Entertainment, Accessories, Fashion, Shopping",Tampa,27.985086,-82.569504,4.0,NV
vV57YWbrHqm1iylWmIdwVA,Grounds For Sculpture,"Active Life, Restaurants, Venues & Event Spaces, Music Venues, Botanical Gardens, Museums, Event Planning & Services, Religious Organizations, Parks, Arts & Entertainment, French, Nightlife",Hamilton,40.2369422795,-74.7189904945,4.5,NV
-81BXpO5Fuk-RqCabS7LMw,Big Storm Brewery- Clearwater,"Nightlife, Beer Bar, American (New), Local Flavor, Beer Gardens, Food, Food Trucks, Bars, American (Traditional), Brewpubs, Breweries, Restaurants",Clearwater,27.887477,-82.699619,4.0,AZ
iTCSWHgX3Jf1CTjzFsi4TA,Pack N Post,"Public Services & Government, Post Offices",Sparks,39.639109,-119.7093118,4.0,CA
c55aD38k7brmjPbtGJ-fag,United States Post Office,"Post Offices, Public Services & Government",Tampa,27.9336042,-82.5075141,3.0,NV
OxuMbH32vslHfMRcihOLjA,SoulJoel's Comedy Club,"Music Venues, Comedy Clubs, Nightlife, Arts & Entertainment, Performing Arts",Norristown,40.1271188973,-75.3896935832,4.5,CA
JGYJ31n0Hj8kEnfhlKCNYA,Boscov's,"Home & Garden, Eyewear & Opticians, Department Stores, Fashion, Appliances & Repair, Appliances, Men's Clothing, Shopping, Women's Clothing, Beauty & Spas, Cosmetics & Beauty Supply, Shoe Stores, Local Services",Plymouth Meeting,40.1173310977,-75.2809575,2.5,AZ
Y8djj3w2NPUkR5PoXwM4cA,Boston Commons,"Restaurants, Seafood, Sports Bars, Bars, Nightlife, Pubs, Fish & Chips, Food, American (New), Beer, Wine & Spirits",Nashville,36.17697293,-86.7508104023,4.5,NV
zpbKfinr2DRlddANvchx2g,PennDOT Photo & Exam Center,"Public Services & Government, Departments of Motor Vehicles",Dublin,40.375367,-75.2063861,3.5,AZ
RZprk5c9cKgQdOMolW4C-g,Target,"Department Stores, Shopping, Food, Home & Garden, Fashion, Furniture Stores, Electronics, Grocery",Florissant,38.805361,-90.310749,3.5,NV
g0UzHjer5gS0cCsNYAYO5A,Ritual Shoppe ,"Used, Vintage & Consignment, Home Decor, Fashion, Art Galleries, Accessories, Spiritual Shop, Shopping, Arts & Entertainment, Home & Garden, Candle Stores, Jewelry, Women's Clothing",Philadelphia,39.950741,-75.173949,4.0,NV
WH_DZNs-vB0sx3K5-WOvDg,Free Beach Ride,"Advertising, Professional Services, Hotels & Travel, Transportation, Public Transportation",Saint Pete Beach,27.7233519,-82.7399189,3.0,CA
v_PY4Lw53nf6Nej9is-3tw,The Bourse Garage,"Parking, Automotive",Philadelphia,39.9493001,-75.1477762,3.0,CA
kgPuqp27TbjeKtD2KJdc3Q,US Post Office,"Shipping Centers, Public Services & Government, Local Services, Post Offices",Saint Louis,38.6186671,-90.3479571,2.5,CA
rPkZtnp6Rw8eL0E4CjYVvg,New Orleans City Hall,"Courthouses, Public Services & Government",New Orleans,29.9521082,-90.077042,2.5,CA
GXrTz1Pbzn-jKMGnirouTw,The UPS Store,"Local Services, Mailbox Centers, Printing Services, Shipping Centers, Notaries, Public Services & Government, Post Offices",Palm Harbor,28.0615644917,-82.7093248706,3.0,AZ
FJdmjKt8pWoVycAJhybfXA,US Post Office,"Post Offices, Local Services, Shipping Centers, Public Services & Government",West Chester,39.9970571,-75.5813411,2.0,CA
pRUIk3XMylfXBGwxjMCs1A,The Studio Public House,"British, Pubs, Beer Bar, Salad, Restaurants, Sandwiches, Nightlife, Bars, Tapas/Small Plates",St Petersburg,27.7707937916,-82.6736375528,4.5,CA
PDGyduDCysMP5L__5BnYJA,The Board & Brew,"Nightlife, Arts & Entertainment, Restaurants, Beer Bar, American (New), Bars, Coffee & Tea, Breakfast & Brunch, Food, Sports Bars",Philadelphia,39.9534403364,-75.1883720979,4.5,NV
pvUgdf2JwJgx3SsLgpCHzg,Premium Parking - P194,"Automotive, Parking",New Orleans,29.9556846,-90.0700352,2.0,AZ
Wh9SaOgRrBneVIOY93gkRA,Antelope Club,"Restaurants, Nightlife, Soup, Beer Bar, Salad, Bars, Sandwiches, Gastropubs, Breakfast & Brunch, Cigar Bars",Indianapolis,39.7760255,-86.1537734,4.5,NV
t5sIW5l42Qz0WFXdHMYoDw,Eagleville Tavern,"Restaurants, Bars, Nightlife, American (Traditional), Pubs",Eagleville,40.1595512,-75.4085693,3.5,AZ
CK580D1vIUw6kCVWhTWEmQ,JCPenney,"Shopping, Women's Clothing, Department Stores, Home & Garden, Fashion, Men's Clothing, Baby Gear & Furniture, Appliances, Children's Clothing",Indianapolis,39.908588,-86.068212,3.0,NV
4JlhAxRbExs-6OOmHw5rJw,Packs and Pints,"Nightlife, Pubs, Food, Bars, Beer, Wine & Spirits, Cocktail Bars",Sparks,39.53519,-119.755329,4.5,AZ
mTKJ19xsnLI4MjgB_wqAhA,Big Swing Golf Center,"Amusement Parks, Golf Lessons, Mini Golf, Batting Cages, Fitness & Instruction, Golf, Active Life",Sewell,39.7664739,-75.1117286,3.5,CA
5DrWyTrFJ3YC8AysckykuQ,Devil's Dungeon,"Haunted Houses, Arts & Entertainment, Amusement Parks, Active Life",Nashville,36.1607463,-86.7572271,4.0,NV
5DAFsDeeALSlYu7gyRXmSA,Walmart Neighborhood Market,"Drugstores, Fashion, Grocery, Department Stores, Electronics, Discount Store, Shopping, Food",Riverview,27.7906486,-82.3384877,2.0,NV
XF2Sm0Jz7VYrZe-ZN-Djgg,Shamrock RV Park,"Hotels & Travel, Sporting Goods, Hotels, Shopping, Event Planning & Services, Campgrounds, Outdoor Gear, RV Parks",Reno,39.56919,-119.821898,4.0,CA
7hzOeTR46RxhOwZezsZ4Lg,Bottleworks District,"Barbers, Public Markets, Beauty & Spas, Food Stands, Shopping, Restaurants, Hotels, Event Planning & Services, Hotels & Travel",Indianapolis,39.779009,-86.1442748,4.5,AZ
I7awyxYvyjq_dBaIqEjtkw,ACME Markets,"Food, Grocery, Department Stores, Drugstores, Shopping, Fashion",Media,39.9159369,-75.3786379,2.5,CA
Si2ToIE073ze2U4KOCmtJQ,TJ Maxx Home Goods,"Home & Garden, Shopping, Fashion, Department Stores, Home Decor",Boise,43.6038375,-116.2852373,3.5,AZ
0feKq4uYJXW8BbVn8u7pkg,Schuylkill River Trail,"Landmarks & Historical Buildings, Public Services & Government, Active Life, Parks, Hiking",Philadelphia,40.0532987,-75.2304038,4.5,AZ
NLf38lG5kvEHTFgRgjAJGQ,The Darkness,"Arts & Entertainment, Active Life, Haunted Houses, Amusement Parks",Saint Louis,38.6120854,-90.2002177,3.5,AZ
lBbgr4T-xqyx5cT5IT864Q,Lions Park,"Hotels, Hotels & Travel, Event Planning & Services, Active Life, Venues & Event Spaces, Parks, Wedding Planning",Carpinteria,34.4020369497,-119.4902873186,5.0,AZ
6yBhLeo0sWDwADXpjL6iSA,Oscars Pub,"Pubs, Bars, Nightlife, British, Restaurants",Sherwood Park,53.537791,-113.323938,4.0,AZ
uHoQF3cCeReumuyQvjuf5g,Logan Square Self-Park Garage,"Automotive, Parking",Philadelphia,39.9558029,-75.1703323,4.0,AZ
ZKPrXH_GNW_AtZ31tP3NmA,White Dog Cafe,"Cocktail Bars, Gluten-Free, Bars, Diners, Vegetarian, Nightlife, Restaurants, American (New), Breakfast & Brunch, American (Traditional), Pubs",Philadelphia,39.9535582,-75.1929054,4.0,AZ
sjWf71VmU5HIwqX8RGCLJw,Riviera Bar,"Cocktail Bars, Wine Bars, Nightlife, Bars, Beer Bar, Restaurants",Santa Barbara,34.4218599144,-119.7039636863,4.5,NV
siPJQeI7zK2EwvwzN8KpUg,Target,"Electronics, Shopping, Furniture Stores, Home & Garden, Fashion, Department Stores",Philadelphia,39.95981,-75.14784,3.5,CA
dNhZQWYVm3V4rnyqL3oWVw,Sam's Club,"Shopping, Wholesale Stores, Tires, Eyewear & Opticians, Grocery, Automotive, Fashion, Department Stores, Drugstores, Food",Philadelphia,40.0930401,-74.9586875,3.0,NV
AxpFE7za0KJjPaBSz_SvqQ,United States Post Office,"Post Offices, Public Services & Government",Clearwater,27.9630225218,-82.7466840307,2.0,AZ
yK0BlCBlfjBS8YPnvmtvQw,Hillsboro Village,"Shopping, Local Flavor, Public Services & Government, Shopping Centers",Nashville,36.1375842113,-86.8007659638,4.0,CA
t2tinLg0uFGV6SlUxVlzOA,Target,"Fashion, Furniture Stores, Department Stores, Home & Garden, Food, Grocery, Shopping, Electronics",Greenwood,39.603069,-86.157634,4.0,AZ
nwF3L8MoXaAMos_DG_vbvw,Macy's,"Department Stores, Men's Clothing, Shopping, Fashion, Shoe Stores, Women's Clothing",Tucson,32.288328,-110.971518,3.0,CA
OMieiNtpV9INei8voiGMqw,Fort Mifflin,"Landmarks & Historical Buildings, Public Services & Government",Philadelphia,39.8753247,-75.213082,4.0,AZ
6cKPEwB73h9ok8P31_94AA,Gadsden Park,"Sports Clubs, Dog Parks, Active Life, Playgrounds, Parks",Tampa,27.8672129899,-82.4947775155,4.5,AZ
zLt3rYWU2vi3Jyt-nqvLTA,Kohl's,"Sports Wear, Men's Clothing, Shoe Stores, Department Stores, Fashion, Sporting Goods, Shopping, Accessories, Women's Clothing",Saint Louis,38.5577431,-90.3861659,3.0,AZ
EbihKk3aJtbbwrO-qFUNxQ,Walmart Supercenter,"Photographers, Electronics, Eyewear & Opticians, Sporting Goods, Tires, Health & Medical, Food, Event Planning & Services, Photography Stores & Services, Automotive, Drugstores, Department Stores, Fashion, Shopping, Pharmacy, Discount Store, Grocery, Mobile Phones",Harvey,29.895409,-90.057273,2.5,AZ
8t33UzQWLhDdOKQG9MBt9Q,Ross Dress for Less,"Men's Clothing, Home & Garden, Department Stores, Shopping, Fashion, Women's Clothing, Home Decor, Discount Store",Plymouth Meeting,40.1027741,-75.2918566,2.0,NV
hNREiCDqmcra8EGRWXdbfQ,Sam's Club,"Fashion, Wholesale Stores, Food, Grocery, Drugstores, Shopping, Tires, Department Stores, Automotive",St Louis,38.4973261,-90.3351491,2.5,CA
LRjM31ttIQ-jwDTgAZL5VQ,Pups Pub,"Parks, Dog Parks, Bars, Nightlife, Pubs, Active Life",Tampa,27.9447614682,-82.4821870603,4.5,NV
Jz4P8fzVhZW-1X77C5vudA,R E Olds Park,"Local Flavor, Parks, Active Life, Playgrounds, Dog Parks",Oldsmar,28.0314369202,-82.6687393188,4.5,AZ
U0OjBcWqsGcbcSiZBKsWPQ,Prodigy Burger & Bar,"Sandwiches, American (Traditional), Bars, Burgers, Restaurants, Nightlife, Beer Bar, Barbeque",Fishers,39.9356666,-85.9480053,3.5,AZ
_SDi_TylUAxMW7uBSMxieg,Edgar M. Queeny County Park,"Hiking, Pets, Active Life, Amateur Sports Teams, Parks",Ballwin,38.6086213329,-90.4918696328,4.0,NV
FcKqZpor9OjdTfoWkaGXuA,Colonial Cafe,"Bars, American (Traditional), Beer Bar, Dive Bars, Restaurants, Beer, Wine & Spirits, Food, Nightlife",Woodbury,39.8551543,-75.1408154,4.5,NV
UAt42UOX6yUWtgg22i7p-g,Santa Barbara DMV,"Departments of Motor Vehicles, Public Services & Government",Santa Barbara,34.4131085,-119.7013217,2.5,AZ
X3t4Cj_W3CLh8DFo_MUCOg,Orpheum Theater,"Nightlife, Arts & Entertainment, Music Venues, Performing Arts",New Orleans,29.9544471072,-90.0727006048,3.5,CA
4IdX5HXglLSVWRzf9ViSqA,Dillard's,"Women's Clothing, Department Stores, Men's Clothing, Fashion, Shopping, Children's Clothing",Saint Louis,38.636843,-90.34736,2.5,CA
5DDPX5QQS43uACR1MiCVPA,Bavarian Bierhaus,"Beer Bar, Music Venues, Desserts, Nightlife, Bars, Arts & Entertainment, Restaurants, German, Food",Nashville,36.2037825616,-86.6933882711,3.5,AZ
9jkpUgdotECSHTdol962nQ,Walmart Supercenter,"Tires, Shopping, Food, Electronics, Automotive, Drugstores, Grocery, Department Stores, Mobile Phones, Fashion, Discount Store",Meridian,43.618102,-116.343375,2.0,CA
HTNwzJFAIxKOnmjYJhHgYg,Sunset Sushi And Thai,"Nightlife, Beer Bar, Sushi Bars, Bars, Thai, Restaurants",Franklin,35.911931,-86.8283860668,4.0,CA
VHn9quq6LQftvSxOUfABjA,Tucson Bowl,"Party & Event Planning, Amusement Parks, Event Planning & Services, Active Life, Restaurants, Bowling, Venues & Event Spaces, Pizza",Tucson,32.2078328,-110.8433055,3.0,NV
SSMxlv-MpG1K4Xb9sNJXww,City of St. Louis,Public Services & Government,Saint Louis,38.6268404,-90.1993389,3.5,NV
CFVPlOQZ70znjeCLISKHOw,Universal Fine Wine and Spirits,"Pubs, Beer, Wine & Spirits, Nightlife, Restaurants, Bars, Lounges, Cocktail Bars, Food",Holiday,28.181578,-82.7396451,3.5,NV
0k8DG6BPaVKCRfnWJZhLUA,Chinatown Friendship Gate,"Public Services & Government, Landmarks & Historical Buildings",Philadelphia,39.9537097058,-75.156232,4.5,NV
gMKpJv1K8cmFPlSzROrMDA,Beef 'O' Brady's,"Nightlife, Sports Bars, American (Traditional), Restaurants, Fast Food, Bars, Pubs, American (New)",Seffner,27.9815519256,-82.2886819392,2.5,AZ
rBIwGqpV2CKq8UBJ5SLSOQ,US Post Office,"Shipping Centers, Local Services, Post Offices, Public Services & Government",Philadelphia,40.0299059,-75.1684465,1.0,CA
Ch8VCPuGX6lJWBaofljE1A,Udall Park,"Parks, Active Life",Tucson,32.2493717,-110.8391799,3.5,AZ
OqPqz33yPrTdUqCCWwPm5w,Village Pub & Package Goods,"Nightlife, Restaurants, Italian, Bars, Pubs, American (Traditional)",Tabernacle,39.8439543812,-74.7094797148,4.5,NV
TwIouh_gbW9TCSK3PhuPrg,T J Maxx,"Fashion, Shopping, Department Stores",Franklin,35.948462,-86.823777,3.0,AZ
xlMQBBt9wrtahdqiRDcVSg,The Stillery,"American (New), Restaurants, Pubs, Beer, Wine & Spirits, Pizza, Nightlife, Food, Bars",Nashville,36.1622491,-86.7757119,4.5,NV
BhwwkrSLzEIkCVH4Tkmh0A,Jack Brown's,"Burgers, Bars, Beer Bar, Restaurants, Nightlife, American (Traditional)",Nashville,36.1430062,-86.7923326,4.0,NV
1-JiblAbA6CD5EHXZ_mhNA,Amp Up Action Park,"Laser Tag, Go Karts, Active Life, Axe Throwing, Amusement Parks",Town And Country,38.6001320391,-90.4850637777,3.5,NV
dutm97q2F4a6RV6YQ0uLHw,Crush Bar and Tap,"Nightlife, Gay Bars, Wine Bars, Bars, Cupcakes, Desserts, Tapas Bars, Beer Bar, Food, Restaurants",Santa Barbara,34.4226114945,-119.7044321379,5.0,AZ
L-cH4UMva8xX8A6quhtosA,Adventureworks Nashville West,"Recreation Centers, Parks, Challenge Courses, Team Building Activities, Event Planning & Services, Climbing, Active Life, Ziplining",Kingston Springs,36.1404262073,-87.1288943439,4.5,AZ
VNMnczVaPRkOLqASfOxPeg,Main Street Pub & Eatery,"Bars, Pubs, American (New), American (Traditional), Pizza, Nightlife, Restaurants",Hendersonville,36.3035705251,-86.646094434,4.5,AZ
8ld9cclwXnaTxhvbx2bt9A,Bay Crab House,"Seafood, Food, Specialty Food, Restaurants, Shopping, Salad, Seafood Markets, Public Markets",Norristown,40.1319577,-75.3292365,4.0,NV
3kVKljH2t_UhupnOhc08lw,Walmart Supercenter,"Department Stores, Electronics, Drugstores, Fashion, Grocery, Food, Shopping, Discount Store",Tampa,28.0902437,-82.4534422,2.5,NV
ajUf1h6j8KZ9bg69MSKxSQ,Sims Park,"Playgrounds, Active Life, Parks",New Port Richey,28.251385,-82.721755,4.5,CA
furmdJkF__wm82zGyL45eQ,Arcadia Bar,"Restaurants, Brewpubs, Vegan, Nightlife, Breweries, Canadian (New), Vegetarian, Pizza, Pubs, Bars, Food, Beer Bar",Edmonton,53.5514635,-113.5291668,4.5,NV
KInoSyTm9ioQcY1RFQ4ISg,The District Tap,"Nightlife, American (Traditional), Restaurants, Bars, Sports Bars, Beer Bar",Indianapolis,39.910544,-86.102581,4.0,AZ
ZzpPd25Mh9An0BMOrF3zcw,Nemours Estate,"Landmarks & Historical Buildings, Hotels & Travel, Tours, Local Flavor, Public Services & Government",Wilmington,39.7799801313,-75.5586846461,4.5,AZ
FmxYcT3LWjs4FX41VQjl1w,M.L.Rose Craft Beer & Burgers - Providence,"Breakfast & Brunch, Nightlife, Bars, Beer Bar, Restaurants, American (New)",Mt. Juliet,36.1686951168,-86.5112851078,4.0,NV
leylVHplKaE2v4d29vUsEw,Docs Pub,"Nightlife, Bars, Pubs, Irish Pub, Local Flavor",Burlington,40.0815565,-74.8432843,3.5,NV
cfD04ABSXGeOMkpCIS2Hog,The African American Museum in Philadelphia,"Public Services & Government, Cultural Center, Arts & Entertainment, Landmarks & Historical Buildings, Museums",Philadelphia,39.9532614,-75.1517562,3.5,CA
QbfQnAX9Z-5S0mQWeMYSLw,Target,"Department Stores, Fashion, Home & Garden, Shopping, Food, Grocery, Electronics, Furniture Stores",Tucson,32.249311,-110.853411,3.5,CA
dGVsh3S39RlPj_MfBZklZQ,Elings Park,"Active Life, Playgrounds, Parks",Santa Barbara,34.4114541722,-119.735932001,4.5,AZ
dDnzs9Gqn5XNhCgY01WVzA,Marathon Village,"Party & Event Planning, Event Planning & Services, Home Services, Food, Landmarks & Historical Buildings, Shopping Centers, Real Estate, Convenience Stores, Commercial Real Estate, Shopping, Public Services & Government, Museums, Arts & Entertainment, Venues & Event Spaces, Distilleries",Nashville,36.1640511,-86.7963357,4.0,CA
-qzHEErYuwly3XBGlVZy8g,Huntsman Brewing,"Pizza, Chicken Wings, Food, Brewpubs, Nightlife, Beer Gardens, Pubs, Bars, Breweries, Restaurants",Reno,39.5138908816,-119.8059972,4.0,AZ
da1kb7L_7L-6ru2c502t8A,Southern Lights Brewing,"Nightlife, Bars, Pubs, Breweries, Food",Clearwater,27.986666,-82.7512762,4.5,AZ
Sc4zXubCVhKsQs9zuCLjIA,Flying Pig Picture Frames,"Shopping, Arts & Crafts, Arts & Entertainment, Art Galleries, Framing",Philadelphia,39.9772796,-75.1447392,5.0,NV
JnUryjdIsVaBYXYW8atWMQ,Mackay Mansion,"Landmarks & Historical Buildings, Public Services & Government",Virginia City,39.3063243713,-119.6501992643,4.5,AZ
9NnEOZpZuKYfaK6YxqRNXA,Heritage Hop Haus Meridian,"Beer Bar, Nightlife, Food, Pubs, Bars, Beer, Wine & Spirits",Meridian,43.6108898353,-116.3917664369,4.5,NV
Ld805G25xHALqbBo1Sypbg,National Blues Museum,"Arts & Entertainment, Music Venues, Venues & Event Spaces, Nightlife, Museums, Event Planning & Services",Saint Louis,38.630434,-90.1894902,4.5,NV
MU22HJFl4YoZw2L1lX1cRg,Latimer Garage,"Parking, Automotive",Philadelphia,39.947835,-75.166933,3.5,NV
krcU3vu-4xC_O5Zb0IXqJg,Barringer's Tavern,"Nightlife, Pubs, Bars, Diners, Beer Bar, Burgers, Restaurants",Indianapolis,39.7304427,-86.1586231,4.0,AZ
OK2nqgnnsGoDBzrc4N2_YQ,Harps Of Trinity Irish Pub And Grill,"Restaurants, Steakhouses, Irish Pub, Nightlife, Cafes, Pubs, Bars, Irish, Wine Bars, American (Traditional)",Trinity,28.187632,-82.685717,4.0,AZ
7j0euOA5-1647OSx0b-EmQ,Meijer,"Bakeries, Pharmacy, Fashion, Grocery, Food, Department Stores, Health & Medical, Convenience Stores, Drugstores, Toy Stores, Shopping, Electronics",Avon,39.761967,-86.329686,3.0,AZ
RcsTutp1103SGiYtam7xRg,The Frisco Barroom,"American (New), Sandwiches, Restaurants, Burgers, Pubs, Nightlife, Bars",Webster Groves,38.5918891045,-90.3377774332,4.0,CA
1M6nUmeiYpOhuqIzq1JzVQ,Hotel Tango - Zionsville,"Lounges, Cocktail Bars, Beer Bar, Restaurants, Distilleries, Food, American (Traditional), Nightlife, Bars",Zionsville,39.9417169,-86.2590697,4.5,CA
fUTl2cZOu5UdBBwtq_NdKQ,Skate Country East,"Active Life, Amusement Parks, Skating Rinks",Tucson,32.2057758,-110.8216712,4.0,NV
0IXwCbilY8prtBholmFkUw,Pottstown United Brewing Company,"Food, Bars, Brewpubs, Breweries, Restaurants, Pubs, Nightlife, Beer Bar, American (Traditional)",Pottstown,40.245577,-75.648378,4.5,AZ
jRUMx5_klPfszKmB9PmEgQ,Bella Rosa Galleries,"Used, Vintage & Consignment, Local Services, Accessories, Fashion, Jewelry, Antiques, Jewelry Repair, Arts & Entertainment, Art Galleries, Shopping",Santa Barbara,34.4224619,-119.7032676,5.0,CA
ZcAd4J3vipB1HWDlw8e-GA,Drunken Mullet,"Nightlife, Seafood, Pubs, Restaurants, Burgers, Sports Bars, Bars",Hernando Beach,28.4814784324,-82.6500388607,4.0,NV
OurEo3zOuyCIyp9uUUQksg,Macy's,"Fashion, Department Stores, Shoe Stores, Shopping, Women's Clothing, Men's Clothing",Metairie,30.0046211138,-90.1559772825,3.0,AZ
sjE5w4MiRYJ9Sw1UPh6tWw,Carson‚Äôs,"Restaurants, Pubs, Karaoke, American (Traditional), Nightlife, Bars",Saint Louis,38.6103223,-90.2027676,2.5,AZ
62o8oBwkQcbO3w6uoYP3FA,O'Fallon Brewery,"Nightlife, Restaurants, Event Planning & Services, Pubs, Venues & Event Spaces, American (Traditional), Bars",Maryland Heights,38.7047205559,-90.4477253929,3.5,AZ
In8iorViIHJ9-0I83CBLNQ,Meijer,"Drugstores, Food, Fashion, Home & Garden, Toy Stores, Department Stores, Grocery, Electronics, Books, Mags, Music & Video, Shopping",Indianapolis,39.9257376,-86.0210658,3.5,NV
VUeRlNoPfxywzNxWHU2Tig,Target,"Shopping, Grocery, Fashion, Department Stores, Furniture Stores, Electronics, Home & Garden, Food",Santa Barbara,34.440028,-119.750853,3.0,AZ
kNa9t0mCXNFhPRR5Y2eimQ,Micano Home and Garden Decor,"Interior Design, Home Services, Shopping, Flowers & Gifts, Arts & Entertainment, Home Decor, Home & Garden, Art Galleries, Furniture Stores, Gift Shops",Reno,39.5112842,-119.8056355,5.0,AZ
KTgZXj6xh8aN_tLfI-YZ1Q,Bar Poulet,"Cocktail Bars, Restaurants, Nightlife, Bars, Beer Bar, Wine Bars, French",Philadelphia,39.9508012,-75.1739867,4.5,AZ
XjT5SB3cAzPWKGdjf8MCyA,Race Street Pier,"Parks, Active Life",Philadelphia,39.9532324138,-75.1398003101,4.5,AZ
skX8LBrX5U45JoF07ykbJQ,E Sushi Odessa,"Restaurants, Sushi Bars, Japanese, Bars, Beer Bar, Nightlife, Steakhouses",Odessa,28.1958513945,-82.5917008406,4.0,AZ
KRhzXkF-kcNRzW-Dv83jlg,Dooney's Pub - Voorhees,"Burgers, Pubs, Irish Pub, Restaurants, Irish, Sports Bars, Nightlife, Bars",Voorhees Township,39.837099,-74.923443,3.5,CA
OOVV2JjUjkZUlsEh7q5DCQ,Kelly Drive,"Active Life, Local Flavor, Public Services & Government, Landmarks & Historical Buildings",Philadelphia,39.969295957,-75.1847901312,4.5,AZ
_VW9zTozHT0k8luWnmsDQQ,Drake's Keystone,"American (New), American (Traditional), Restaurants, Bars, Mexican, Pubs, Sushi Bars, Sandwiches, Nightlife",Indianapolis,39.9106044049,-86.1020536367,4.0,NV
ZF0tt7hn6WK3-aNWgtLcFA,Eastern State Penitentiary Historic Site,"Landmarks & Historical Buildings, Public Services & Government",Philadelphia,39.9683684,-75.1726552,4.5,NV
PjLSciC6njlWMJteIrm5fA,Silver Dolphin,"Home & Garden, Home Decor, Specialty Food, Chocolatiers & Shops, Shopping, American (Traditional), Food, Accessories, Souvenir Shops, Fashion, Art Galleries, Arts & Entertainment, Restaurants, Breakfast & Brunch",Hernando Beach,28.4872374,-82.64999,4.5,CA
AK5AQ8TSpLXmjflYbrN_Sw,PJ's Tavern,"Restaurants, American (Traditional), Nightlife, Venues & Event Spaces, Bars, Pubs, Event Planning & Services",Kirkwood,38.5825654,-90.4075481,3.5,AZ
ZBL9Zr-zm7_2WTxOfAVKiw,Freedom Barks Dog Park,"Playgrounds, Parks, Skate Parks, Public Services & Government, Active Life, Skating Rinks, Dog Parks",Medford,39.896611,-74.831745,4.5,NV
-i7Czdm7FhnqVldcVDTeiw,Clementon Park & Splash World,"Water Parks, Parks, Active Life, Amusement Parks",Clementon,39.803596,-74.985311,2.5,CA
edZOMuuz6TKNGnsE3ms1QA,Septa,"Train Stations, Hotels & Travel, Public Transportation, Transportation",Philadelphia,40.0040298,-75.165723,1.5,AZ
sfwMByVwbb69zhw4xzXzgA,Salt + Smoke,"Restaurants, Nightlife, Barbeque, American (Traditional), Beer Bar, Bars",St. Louis,38.6232435,-90.1911423,4.5,AZ
IgFxKVu_yHlCJsQkTYPPeQ,JAMNOLA,"Art Museums, Museums, Arts & Entertainment, Hotels & Travel, Tours, Art Tours",New Orleans,29.96396,-90.0490678,4.5,NV
fKsll9lTZufo2lf0VKC16Q,Taylor's Pub at Nora,"Bars, Burgers, American (Traditional), Sandwiches, Pubs, Nightlife, Restaurants",Indianapolis,39.9131729,-86.1339528,4.0,AZ
4o6wBoDias3_qfTrOZ-Y8g,Courigan's Irish Pub,"Bars, Restaurants, Pubs, Irish, Nightlife, Irish Pub, Sports Bars",Saint Petersburg,27.7708192,-82.6335305,3.5,NV
zQ4yPiqoyMtoohGpEip7zw,The Growler Guys,"Breweries, Nightlife, Chicken Wings, Pizza, Food, Restaurants, Beer Gardens, Pubs, Bars",Reno,39.4562814,-119.7774657,4.0,AZ
RhYXqQnb63QWeCcmN9j_Sg,Chatham Tap Butler,"British, Pubs, Restaurants, Burgers, Pizza, Bars, Chicken Wings, Nightlife",Indianapolis,39.8413054,-86.1696125,3.5,AZ
u5X0-UIS5mFpztajebHZfA,East Branch Brewing Company,"Beer Bar, Sandwiches, Food, Brewpubs, Bars, Vegan, Salad, Breweries, Restaurants, Nightlife, American (New)",Downingtown,40.0068182,-75.7008481,4.5,NV
s21EGSlDN__XtbmQ0p_stQ,Izzy‚Äôs Feel Good Food,"Beer Bar, Cocktail Bars, Bars, Restaurants, Nightlife, Mexican, Tacos, American (Traditional), Sandwiches, Arts & Entertainment, Music Venues",Franklin,35.919934628,-86.8722586334,4.5,NV
T9_tBmx1KZxsmgQ3AxnyUg,Centennial Dog Park,"Dog Parks, Active Life, Parks",Nashville,36.1480914295,-86.8174212889,4.0,AZ
lrowppSl2sk3hU4tSUaS6Q,Badfins Food + Brew,"Latin American, Sandwiches, Tacos, American (New), Wine Bars, Bars, Breakfast & Brunch, Comfort Food, Restaurants, Nightlife, Beer Bar, Mexican, Barbeque, Seafood",Clearwater,27.97461,-82.8288798,4.0,NV
tQIw_BZzfjh8UC4Eqhd0XQ,Clearwater Beach,"Beaches, Active Life",Clearwater Beach,27.9792571,-82.825646,4.5,AZ
n4XdEzFBySM8_D_uJqSToA,Alchemist Coffee Roasting,"Bars, Coffee & Tea, Food, Beer Bar, Restaurants, Nightlife, Sandwiches, Breakfast & Brunch",Boise,43.5908318,-116.3154722,4.5,CA
cOGU70XAVSMlhkPtoIpURA,North End Pizza,"Nightlife, Restaurants, Bars, Beer Bar, Pizza",Boise,43.6295335003,-116.2034234303,4.0,NV
h4h82zIPc-kG8fYgYjlidw,City Hall,"Landmarks & Historical Buildings, Public Services & Government, Local Flavor",Philadelphia,39.9523991022,-75.1635996804,4.0,CA
NbTNxhZXhPOPUhBFXZ1jLQ,The Blacktop Grill,"Hot Dogs, Food Stands, Nightlife, Mexican, Food, Restaurants, Food Trucks, Bars, Beer Bar, Specialty Food, American (New), Comfort Food",Tucson,32.357595,-111.0463099,5.0,AZ
rnWc8mgFnziFBbDmhdetzw,New Orleans Passport Center,"Public Services & Government, Hotels & Travel, Passport & Visa Services, Travel Services",New Orleans,29.951306,-90.0654788,2.5,AZ
PlLFg595QSUAiTKi9WPupg,Browns Socialhouse Windermere,"Nightlife, Bars, Asian Fusion, American (Traditional), Pubs, Restaurants, Gastropubs, Burgers, Canadian (New), Breakfast & Brunch",Edmonton,53.4347854,-113.6032227,3.5,CA
ORL4JE6tz3rJxVqkdKfegA,Gaylord Opryland Resort & Convention Center,"Venues & Event Spaces, Performing Arts, Arts & Entertainment, Hotels & Travel, Food, Convenience Stores, American (New), Beauty & Spas, Restaurants, Museums, Event Planning & Services, Hotels, Cinema, Resorts, Day Spas",Nashville,36.2115923083,-86.6943191727,3.0,NV
ISR1pARUW4nmJrT2gPcYnQ,Doughnuts & Dragons,"Arts & Entertainment, Nightlife, Wine Bars, Bars, Food, Donuts, Beer, Wine & Spirits, Beer Bar",Indianapolis,39.9100091654,-86.1003527,4.5,AZ
n5ckluP3guLVOMBwVS7tXA,Brew Hub Taproom,"Pubs, Bars, Gastropubs, Restaurants, Breweries, Food, American (New), American (Traditional), Nightlife",St. Louis,38.6300479842,-90.281469542,4.0,CA
CR8n4CVq19UqPpJlapQ7jg,MRB Bar And Restaurant,"Restaurants, Pubs, Nightlife, Sports Bars, Seafood, Cajun/Creole, Bars",New Orleans,29.9595007,-90.0609279,4.0,NV
uIeOIUfeeboa3c0uur5rWA,The Mini Time Machine Museum of Miniatures,"Event Planning & Services, Museums, Arts & Entertainment, Venues & Event Spaces",Tucson,32.2654589,-110.8955775,4.5,AZ
nhIffYn3kMRlHeClz0az1g,Santa Barbara Amtrak Station,"Trains, Public Transportation, Transportation, Hotels & Travel",Santa Barbara,34.413643053,-119.6928286747,3.0,CA
6iFfVfpSlMNSzxvrG6P6jw,Bernie's Restaurant & Bar - Glenside,"Bars, American (Traditional), Nightlife, Restaurants, Pubs, Tapas/Small Plates, Cocktail Bars",Jenkintown,40.101246821,-75.1388816776,3.0,CA
n1jYl9qU29FFZ64Sx9adgA,The Sazerac House,"Event Planning & Services, Party & Event Planning, Museums, Venues & Event Spaces, Hotels & Travel, Arts & Entertainment, Tours, Historical Tours",New Orleans,29.9518507,-90.0675586,5.0,AZ
IYzqGs1e28misAwcZvf8yg,The Florida Aquarium,"Active Life, Day Camps, Aquariums, Venues & Event Spaces, Event Planning & Services, Arts & Entertainment, Education, Wedding Planning, Local Services, Botanical Gardens, Elementary Schools, Community Service/Non-Profit",Tampa,27.9441896,-82.4450624,3.5,NV
sqKxwF3RpvQSqFfbBaeLQQ,Donut Bar Tucson,"Donuts, Food, Wine Bars, Nightlife, Bars, Beer Bar",Tucson,32.2225639,-110.9689738,4.5,AZ
whbDvrMP-3N-tFRM35YD-g,Flatwater Restaurant,"American (New), Comfort Food, Nightlife, Sandwiches, Restaurants, Bars, Beer Bar",Indianapolis,39.8708229,-86.1435891,4.0,NV
k7ESc-3Odp6t9-V17YDipA,Chuck Lager America's Tavern,"Cheesesteaks, American (Traditional), Bars, American (New), Pubs, Restaurants, Nightlife",Wesley Chapel,28.187754,-82.3492155,4.0,AZ
nhEyyLGxsJfe5auEKqofTw,The District Tap Downtown,"Restaurants, Nightlife, Venues & Event Spaces, American (Traditional), Bars, Event Planning & Services, Breakfast & Brunch, Sports Bars, Beer Bar",Indianapolis,39.7645516,-86.15799,4.0,NV
bCIZeggW02uPdz2lobSjUA,Good Oak Bar,"Pubs, Bars, Wine Bars, Nightlife, Cocktail Bars",Tucson,32.2220392159,-110.9665788086,4.5,AZ
AcGOk0jbFkvI1QzDpkqA8w,The Rusty Lyon,"Cocktail Bars, American (Traditional), Bars, Restaurants, Nightlife, Beer Bar, Food, Beer, Wine & Spirits",Dunedin,28.0139357,-82.7895115,4.0,CA
ZMQsdYyB5NCBhwSrtBXiHg,Bonefish Grill,"Seafood, Cocktail Bars, American (New), Bars, Beer Bar, Restaurants, Nightlife",Greenwood,39.6301466078,-86.1576527182,4.0,NV
dM3MUSrijoDvuhh7jJEAKQ,The Bates Motel & Haunted Hayride,"Home & Garden, Active Life, Pumpkin Patches, Shopping, Haunted Houses, Amusement Parks, Arts & Entertainment",Glen Mills,39.9455745315,-75.4960495,3.5,AZ
mnwTbHyIgpMvOG9705zqWA,Country Music Hall of Fame and Museum,"Arts & Entertainment, Museums",Nashville,36.158266,-86.776126,4.0,CA
v_AbyvMdKUi_ac4A8nkG-A,Jason Aldean's Kitchen + Rooftop Bar,"Nightlife, Restaurants, Southern, American (Traditional), Beer Bar, Bars",Nashville,36.1614919146,-86.7759911536,3.5,AZ
elnmOdMKGQvAF9FoVXg6Eg,Wheel Fun Rentals - 24 E Mason St,"Active Life, Shopping, Hotels & Travel, Bikes, Paddleboarding, Local Flavor, Beach Equipment Rentals, Tours, Bike Rentals, Sporting Goods",Santa Barbara,34.4136345,-119.6894577,4.5,NV
rgkRwY28yIhw7V7ji1WP9A,Museum of the American Revolution,"Arts & Entertainment, Museums",Philadelphia,39.948212,-75.1455516,4.0,AZ
dYYkzkiAQoOtRjdR0kcspw,Tennessee Brew Works,"Breweries, Venues & Event Spaces, Beer Bar, Food, Pubs, Tours, Nightlife, Restaurants, Event Planning & Services, Hotels & Travel, Bars, Beer Tours, Arts & Entertainment, American (Traditional), Gastropubs, Music Venues, American (New)",Nashville,36.1504112236,-86.7759260162,4.5,AZ
iI090K0JMViyPPh7Viovrg,Germantown Pub,"Chicken Wings, Breakfast & Brunch, Pubs, Restaurants, Burgers, Bars, Sandwiches, Southern, Nightlife, Cajun/Creole, Salad, Sports Bars",Nashville,36.1756652506,-86.792577,3.5,AZ
ZNxFIwgPnmLu6ouQPPpR_Q,Sambuca Restaurant,"Music Venues, American (New), Arts & Entertainment, Restaurants, Nightlife, Jazz & Blues, Bars",Nashville,36.1518014103,-86.7844176292,4.0,CA
dGUyXgFW1WSYMgRypKaYew,The Row,"Restaurants, Breakfast & Brunch, Pubs, Southern, Bars, Nightlife",Nashville,36.151356,-86.79772,4.0,NV
dbli0TD6YQfbnWTv-43KLg,Houston's Restaurant,"Burgers, Nightlife, Sandwiches, Jazz & Blues, American (Traditional), Arts & Entertainment, American (New), Bars, Restaurants, Steakhouses",New Orleans,29.9366725,-90.0777792,3.5,CA
scotX4dcVT8Co0Nyy1pDYA,Iron Abbey Gastro Pub,"Bars, Belgian, Venues & Event Spaces, Gastropubs, Food, Restaurants, Nightlife, Pubs, Beer, Wine & Spirits, Event Planning & Services",Horsham,40.188266,-75.1343293,4.0,AZ
B2xtWMBTyDtd-ndqqaIC1Q,City Works,"Beer Bar, Restaurants, Event Planning & Services, Venues & Event Spaces, Desserts, Bars, Nightlife, Gastropubs, Food, American (New), American (Traditional), Sports Bars",King of Prussia,40.084023,-75.4055,3.0,AZ
-l3G5kG-LuiKe6Eqy3KKZw,Sids Garage,"Burgers, Restaurants, Food, Nightlife, American (New), Bars, Beer Bar, Breweries",Meridian,43.6215412544,-116.3502899644,4.0,AZ
wupvqueqdEZXQxv14sa9vw,Rincon Brewery,"Pubs, Bars, Food, American (Traditional), American (New), Nightlife, Breweries, Brewpubs, Restaurants",Carpinteria,34.398372,-119.518002,4.0,CA
DPtdBtLp6ng9cAB9_rzB6g,Tootsie's Orchid Lounge,"Nightlife, Music Venues, Lounges, Landmarks & Historical Buildings, Arts & Entertainment, Bars, Public Services & Government",Nashville,36.1609209,-86.7782995,3.5,NV
ELY0HI8GDEx0jkmREVna0A,Frankford Hall,"German, Restaurants, Nightlife, Food, Bars, Pretzels, Beer Gardens, Pubs",Philadelphia,39.969439,-75.134647,4.0,AZ
6Pu5MKIWbn6FO-oebSSrYQ,The Southern Steak & Oyster,"Seafood, Bars, Breakfast & Brunch, Nightlife, Cajun/Creole, American (Traditional), Southern, Steakhouses, Pubs, Restaurants",Nashville,36.1598191068,-86.7746758461,4.0,NV
