business_id,name,categories,city,latitude,longitude,bussines_stars,state
hmO76DoSlxEUPJ2NN3K9aw,Fly Away Airport Parking,"Airport Shuttles, Hotels & Travel, Transportation, Parking, Automotive",Nashville,36.1032776,-86.6677192,2.5,CA
96myvjjiQW8ZFp4LrE1gXQ,Westward Look Wyndham Grand Resort and Spa,"Event Planning & Services, Restaurants, Hotels, Hotels & Travel, Venues & Event Spaces",Tucson,32.342479,-110.965218,3.0,AZ
x1lih3QXOz3rdRJBKoHMbw,MidAmerica St Louis Airport,"Transportation, Limos, Airports, Public Transportation, Airlines, Hotels & Travel",Mascoutah,38.5474848,-89.8157443,4.0,AZ
DXDoeVULsKLb7LLyAfvuVg,Moxy Nashville Downtown,"Event Planning & Services, Hotels, Hotels & Travel",Nashville,36.161118,-86.7753746,3.5,CA
JdR1vhCkBiTNkh_kM6Wsjg,Southwest Airlines,"Hotels & Travel, Transportation, Airlines",Tampa,27.9807435,-82.5340121,3.0,NV
PcYxtg2aC5BmhvukcGOlfw,Beachview Inn,"Hotels, Hotels & Travel, Event Planning & Services, Vacation Rentals",Clearwater Beach,27.97252,-82.8290972,3.0,NV
OypYjTC0zPu_lJ_SGzV4pw,Saddlebrook Resort Tampa,"Day Spas, Beauty & Spas, Resorts, Hotels & Travel, Restaurants",Wesley Chapel,28.2269967325,-82.3284218448,2.5,AZ
Z6hqjf076rZHcfKQRMKUmg,Kimpton Aertson Hotel,"Venues & Event Spaces, Hotels, Event Planning & Services, Hotels & Travel",Nashville,36.1486415119,-86.798840813,3.5,CA
6gdAMPGsK0D_3u8h3A8H2A,The Warwick Hotel Rittenhouse Square,"Hotels & Travel, Hotels, Event Planning & Services, Caterers",Philadelphia,39.9486999512,-75.1694030762,3.0,NV
KGBjEO-FilXoCK_Pk-jsvA,Penn's View Hotel,"Hotels, Hotels & Travel, Event Planning & Services",Philadelphia,39.950201,-75.142285,4.0,NV
10LguIzpeYam06-APg8iBA,Loews Vanderbilt Hotel,"Utilities, IT Services & Computer Repair, Internet Service Providers, Hotels & Travel, Event Planning & Services, Local Services, Hotels, Home Services, Professional Services",Nashville,36.1505074723,-86.8026042766,3.5,AZ
iJ3A49gtUPspc7nd4Ov2HA,Escape My Room,"Local Flavor, Challenge Courses, Event Planning & Services, Active Life, Arts & Entertainment, Venues & Event Spaces, Hotels & Travel, Escape Games, Tours, Museums",New Orleans,29.9473568,-90.0679304,5.0,AZ
kGpHN4I3Z4jpcudKhsg71g,Enterprise Rent-A-Car,"Hotels & Travel, Car Rental",Bryn Mawr,40.0181616356,-75.3122513242,4.0,NV
cxB31SdS6anItwCmTOKtNg,International House Hotel,"Hotels & Travel, Hotels, Event Planning & Services",New Orleans,29.9512243,-90.0689468,3.5,AZ
OTXWDPg-5YXq4L5fDLJd_g,Quality Inn East,"Hotels, Event Planning & Services, Hotels & Travel",Indianapolis,39.797247,-86.043651,2.0,AZ
2XEf2xOj-iZImMeWELkQFw,Place d'Armes Hotel,"Event Planning & Services, Hotels, Hotels & Travel",New Orleans,29.958753,-90.063406,4.0,NV
hXENwSCtd8pdBrnN8XkXyA,Renaissance St. Louis Airport Hotel,"Hotels, Hotels & Travel, Event Planning & Services, Venues & Event Spaces",St. Louis,38.73212,-90.346234,3.0,CA
8XtpIfn6bjrzKQraKuZHEQ,Renaissance Philadelphia Downtown Hotel,"Hotels, Hotels & Travel, Event Planning & Services, Venues & Event Spaces",Philadelphia,39.9490202,-75.1478095,3.0,CA
p6H295aQCbDJ80GcpqFvwA,Club Quarters Philadelphia,"Hotels, Event Planning & Services, Hotels & Travel",Philadelphia,39.9512939,-75.1684401,3.0,CA
8JJSe4zRLqmJUnjPzUvCEA,AC Hotel by Marriott Tucson Downtown,"Venues & Event Spaces, Event Planning & Services, Hotels, Hotels & Travel",Tucson,32.2215629,-110.9673821,3.0,AZ
oVr68YLI0PMSkEc_SHMkFA,"The Ritz-Carlton, St. Louis","Hotels, Event Planning & Services, Hotels & Travel, Party & Event Planning, Venues & Event Spaces",St. Louis,38.6482356598,-90.3309796751,4.0,CA
kYgMSD2obyOgORgd3RSE_w,Mr John's Steakhouse,"Seafood, Fitness & Instruction, Hotels, Hotels & Travel, Gyms, Active Life, Event Planning & Services, Restaurants, Steakhouses",New Orleans,29.9349207,-90.0802564,4.0,NV
4ich7wsPzXjfTVmFENm51Q,Green Fleet Bike Shop,"Sporting Goods, Tours, Bikes, Bike Rentals, Hotels & Travel, Shopping, Active Life",Nashville,36.1727303,-86.7943267,4.5,NV
hAZlcREMAHe0z9GbMX-Faw,Hyatt Centric French Quarter New Orleans,"Hotels & Travel, Event Planning & Services, Hotels",New Orleans,29.9550373429,-90.0700573,4.0,NV
M3G7USDHXk--ZycO1Zjs1w,Bob Evans,"Hotels & Travel, Restaurants, Comfort Food, Salad, Bed & Breakfast, Breakfast & Brunch, American (Traditional), Sandwiches",Ruskin,27.7113102,-82.3773791595,3.0,CA
w37sJQmXgGzRK6MCackIyw,Seaside Inn & Suites,Hotels & Travel,Clearwater,27.9710464276,-82.8292674199,1.5,CA
j2PtdsRf9m9SGdwFfGfssw,Boise Hotel and Conference Center,"Hotels, Event Planning & Services, Hotels & Travel",Boise,43.5727764,-116.2141257,2.0,CA
qeJ7HUUo-Cg75fxDV2dDbA,Allegiant Air,"Hotels & Travel, Airlines, Transportation",Clearwater,27.9052190108,-82.6923751831,2.0,CA
toEYTrafM81UMo2GyCSxFw,Cambria Hotel Philadelphia Downtown Center City,"Hotels, Event Planning & Services, Hotels & Travel",Philadelphia,39.9486052,-75.1640808,3.5,CA
pfl45YV5Us5NvDm5cLremw,Lavender Inn by the Sea,"Hotels, Event Planning & Services, Hotels & Travel",Santa Barbara,34.4097626481,-119.6982318921,4.5,AZ
GTNh2Jx56qE5kJSOVZxZlg,Cigar City Brewing,"Cuban, Food, Airports, Restaurants, Breweries, Hotels & Travel, Tours",Tampa,27.976725964,-82.5377468,3.0,NV
EEbKsmWBhkjWEzEFWsnEZA,Le Méridien New Orleans,"Event Planning & Services, Hotels & Travel, Hotels, Venues & Event Spaces",New Orleans,29.9489972174,-90.0663200696,3.0,AZ
6RmCKos_1EmLtg4oQXR9hw,Residence Inn by Marriott Clearwater Downtown,"Hotels, Hotels & Travel, Event Planning & Services",Clearwater,27.961903,-82.793391,4.5,CA
jX1kNhinDzathM9gLumIjA,"Brisas Del Mar, Inn at the Beach","Event Planning & Services, Hotels & Travel, Hotels",Santa Barbara,34.4101247243,-119.6972139087,4.5,CA
lzo5vrmcxGcsyPMaGrnQVg,Aloft Nashville West End,"Hotels, Hotels & Travel, Event Planning & Services",Nashville,36.1527508,-86.795497,2.5,NV
71cUrGn9enOIIiPtwqp82w,Germantown Cab,"Taxis, Hotels & Travel, Transportation",Philadelphia,40.03696,-75.166095,1.5,CA
kLnOdN3_HuF1iXjtkb79aw,Courtyard by Marriott Boise Downtown,"Event Planning & Services, Hotels, Hotels & Travel",Boise,43.6075508711,-116.1914321411,3.5,CA
vbNQyHZ1M8jz6jcR0jTU3Q,Homewood Suites by Hilton Nashville-Downtown,"Event Planning & Services, Hotels & Travel, Hotels",Nashville,36.1621311,-86.7830645,3.5,AZ
k1EL0UvRYao_La9zdeUfJw,Hilton New Orleans Airport,"Hotels, Event Planning & Services, Hotels & Travel",Kenner,29.981288,-90.2571349,2.5,CA
wHicEIN-xE-uZD_JoyrzTQ,Hyatt Place Tampa/Busch Gardens,"Venues & Event Spaces, Hotels & Travel, Hotels, Event Planning & Services",Tampa,28.0523232,-82.4277647,3.5,NV
kKfwRhExL-lwLFWF3aw3nQ,Omni Tucson National Resort,"Hotels & Travel, Restaurants, Beauty & Spas, Hotels, Event Planning & Services, Day Spas",Tucson,32.3581969,-111.023356,3.0,AZ
fqC3Iu46oXYuN-YVpMUg_w,Drury Plaza Hotel St. Louis At The Arch,"Hotels & Travel, Hotels, Event Planning & Services",Saint Louis,38.6248869,-90.188709,4.5,CA
HdEMas-4bFHkXsNR9I5T7w,Dan The Cab Man,"Professional Services, Hotels & Travel, Town Car Service, Taxis, Transportation, Limos, Airport Shuttles, Local Services",Tampa,27.9895988357,-82.5110675767,4.5,NV
2dPiEMXII3wF4uNCeWDEpg,Clayton Plaza Hotel,"Resorts, Event Planning & Services, Hotels, Venues & Event Spaces, Hotels & Travel",Clayton,38.648477,-90.3364872,3.5,CA
5C3Xq33S5VgLun8vxTxMqA,Two Chicks Walking Tours,"Historical Tours, Arts & Entertainment, Architectural Tours, Hotels & Travel, Tours, Walking Tours",New Orleans,29.930713,-90.076524,5.0,AZ
wodnQC9cHX81nPpP0mcuUA,Alden Suites A Beachfront Resort,"Hotels & Travel, Event Planning & Services, Hotels",Saint Pete Beach,27.7322631,-82.7447975,3.5,NV
OH4GQI_hfIBTXu81r3qKYg,Southwest Airlines,"Airports, Hotels & Travel, Transportation, Airlines, Airport Terminals",St Louis,38.7367996947,-90.3548053781,3.0,AZ
xokB_HY4211kzHs20njkEg,Staybridge Suites Reno,"Hotels, Venues & Event Spaces, Event Planning & Services, Hotels & Travel",Reno,39.4294919,-119.7550391,3.5,AZ
ijU7hEUbD1Nq7KKbi4nyeQ,I Bike Santa Barbara Wine Country Tours,"Hotels & Travel, Wine Tours, Bike tours, Mountain Biking, Bike Rentals, Wineries, Arts & Entertainment, Tours, Food, Fitness & Instruction, Active Life",Santa Barbara,34.4037623,-119.6942723,5.0,CA
-uTSULI-6yd-P-TOReLX9Q,Blue One Transportation,"Buses, Airport Shuttles, Transportation, Hotels & Travel, Limos",Tampa,27.9839597,-82.5469749,2.5,NV
zJErbOQMKX-MwHs_ulV7DA,Philadelphia Marriott Old City,"Event Planning & Services, Hotels, Hotels & Travel, Venues & Event Spaces",Philadelphia,39.9452460633,-75.1433300972,3.0,AZ
KsKXCCfAqSav1PnlyEreaA,Hilton Garden Inn New Orleans Convention Center,"Event Planning & Services, Hotels & Travel, Hotels",New Orleans,29.9412759617,-90.0660306215,3.0,NV
S-EzBTZ75f8Jz6WvagftAg,Hertz Rent A Car,"Automotive, Car Dealers, Hotels & Travel, Airports, Car Rental",Reno,39.5058565,-119.774971,2.5,AZ
IpA_AqlvRfWL9IH-WRSLcw,Los Prietos Campground,"Campgrounds, Hotels & Travel",Santa Barbara,34.5399483,-119.8489789,3.0,CA
jTI5Xjk27An8ceJ6VwpXiQ,DoubleTree by Hilton Hotel Philadelphia Center City,"Hotels, Event Planning & Services, Caterers, Hotels & Travel",Philadelphia,39.9479028004,-75.1640327275,3.0,NV
zOoroCpuwgL11Rhj3vNf4g,Tierra Verde Boat Rentals,"Event Planning & Services, Boat Tours, Tours, Active Life, Jet Skis, Bed & Breakfast, Boating, Hotels & Travel, Tubing, Boat Charters",Tierra Verde,27.6911349,-82.7195736,4.5,AZ
OE3ZfpTIi1HhueAQB_cPAA,Dolphin Beach Resort,"Event Planning & Services, Venues & Event Spaces, Hotels, Hotels & Travel",St. Pete Beach,27.7224916,-82.7410875,2.5,CA
KxxHb9EaLFuk9qy_BAAOcQ,"Homewood Suites by Hilton Nashville Vanderbilt, TN","Event Planning & Services, Hotels, Hotels & Travel",Nashville,36.1480439,-86.8068744,4.0,CA
DlU5bGy4imZ5JzZYoQkdSg,College Hunks Hauling Junk & Moving - St Louis,"Local Services, Packing Supplies, Home Cleaning, Recycling Center, Movers, Transportation, Junk Removal & Hauling, Self Storage, Home Services, Shopping, Hotels & Travel, Packing Services",Saint Louis,38.687635,-90.394208,4.0,CA
fla7uhSa82DyFTMxiO53ng,Four Points by Sheraton French Quarter,"Hotels & Travel, Event Planning & Services, Venues & Event Spaces, Hotels",New Orleans,29.9577981,-90.0666116,3.5,CA
-jXAkQIdZWq6i1Wwv8z1UQ,Rose Garden Inn,"Hotels, Event Planning & Services, Hotels & Travel",Santa Barbara,34.4400491,-119.7419479,1.5,CA
6I_DA3uqOox50rBvjrQ_-g,Aloft Philadelphia Airport,"Event Planning & Services, Hotels & Travel, Hotels, Venues & Event Spaces",Philadelphia,39.8911246892,-75.2342512699,3.0,AZ
yBani53UgROCin6DNNlzoQ,National Car Rental,"Hotels & Travel, Car Rental",Tampa,27.962934,-82.534716,4.0,AZ
Z4qU8t48Eh9ouN-iPaDBVg,Parrotdise Express,"Event Planning & Services, Boating, Local Services, Hotels & Travel, Boat Tours, Boat Charters, Tours, Active Life, Local Flavor",Dunedin,28.0126631457,-82.7925123689,5.0,NV
54vEFcAri3Wj6cdM4ljDBA,Moonrise Hotel,"Hotels, Hotels & Travel, Event Planning & Services",Saint Louis,38.6556869,-90.2987689,4.0,AZ
WIgKtACDmWnfHzygsiWakw,Residence Inn by Marriott Indianapolis Airport,"Event Planning & Services, Apartments, Hotels & Travel, Hotels, Home Services, Real Estate",Indianapolis,39.7287856601,-86.2486463785,3.5,NV
bGY64084bu14qyZCBIzY9g,Bob Evans,"American (Traditional), Bed & Breakfast, Breakfast & Brunch, Salad, Hotels & Travel, Comfort Food, Restaurants",Port Richey,28.2899468,-82.7124336,3.0,AZ
rKVTgmMCy6DtCVvODhDUyQ,Drury Inn & Suites St Louis Creve Coeur,"Event Planning & Services, Hotels, Hotels & Travel",Creve Coeur,38.670703,-90.446952,4.0,NV
YyzkEQCnzj9FaRE-g6vNmg,Gold Cab Taxi,"Airport Shuttles, Taxis, Hotels & Travel, Transportation",Santa Barbara,34.4208305,-119.6981901,4.0,NV
sRUSEvYXqilzRaMt15v6Gw,Dollar Car Rental,"Truck Rental, Automotive, Parking, Hotels & Travel, Car Rental",Tucson,32.1203929,-110.9353286,1.5,NV
9HUpW8t-GfzZbEmfX_kWYQ,The Grove Hotel,"Hotels & Travel, Venues & Event Spaces, Hotels, Event Planning & Services",Boise,43.61398,-116.203781,3.5,AZ
Qh3pgzg9jYjxoIf9kpyeSg,The Parking Spot,"Hotels & Travel, Automotive, Airports, Parking",Saint Louis,38.7374013,-90.3655493,3.5,AZ
o0PttHsA5hRE73nPGNAtlw,Chesterfield Taxi & Car Service,"Limos, Hotels & Travel, Airport Shuttles, Taxis, Transportation",Saint Louis,38.6893316,-90.3983425,3.5,AZ
yi9udL5fcmBjwcBcygv51Q,Canal Place,"Shoe Stores, Fashion, Caterers, Shopping, Hotels, Hotels & Travel, Men's Clothing, Shopping Centers, Event Planning & Services",New Orleans,29.9509988462,-90.0649962815,3.5,CA
w9WLlcY_mziJ6qAB6WtpsA,The Flying V Bar & Grill,"Restaurants, Hotels, American (Traditional), Nightlife, Bars, Beauty & Spas, Event Planning & Services, Day Spas, Hotels & Travel, Seafood, American (New)",Tucson,32.327823,-110.850591,4.0,NV
mIhTKiCFvASrx1IrNT6Ktw,Ramada by Wyndham Santa Barbara,"Event Planning & Services, Hotels, Hotels & Travel",Santa Barbara,34.4440217,-119.7879814,3.0,AZ
KpAaOGX4bxD8-0riUDbuOA,Homewood Suites by Hilton St. Louis - Galleria,"Event Planning & Services, Hotels, Hotels & Travel",Richmond Heights,38.6374408,-90.3441142,3.0,AZ
pdwHLvSSepLZaS6xmcRjQw,Lazydays RV Resort,"Campgrounds, Hotels & Travel, RV Parks, Resorts",Seffner,28.0119416283,-82.3027863836,4.0,AZ
I2Yt74AzSQFfyQqgN7PSEg,Sheraton Indianapolis Hotel at Keystone Crossing,"Venues & Event Spaces, Hotels, Restaurants, Hotels & Travel, Event Planning & Services",Indianapolis,39.9153605,-86.1084079,2.5,CA
Enx5dZwgbJnzLCBiNGQxwg,Renaissance Tampa International Plaza Hotel,"Hotels, Event Planning & Services, Venues & Event Spaces, Hotels & Travel",Tampa,27.9657065351,-82.5197751313,4.0,AZ
o9Gru-QFoxGK26FSWRCLXA,National Car Rental,"Hotels & Travel, Car Rental",Philadelphia,39.8787104089,-75.2452735795,3.5,CA
eglFXlsJAzUneXmG4cDgsA,Alaska Airlines,"Transportation, Airlines, Hotels & Travel",Boise,43.567171,-116.222375,2.5,AZ
ISaAsVe4vB7OCql9nrn1Pg,United Airlines,"Airlines, Airports, Hotels & Travel, Transportation",Kenner,29.9828919653,-90.2568054199,2.0,AZ
H_ntB9U0wBCf48X53UnFOg,Quality Inn & Conference Center,"Event Planning & Services, Hotels, Hotels & Travel",Tampa,28.0539875,-82.4290297,2.0,CA
oQlk24DRu1-COxjkOgJjtg,Uber,"Hotels & Travel, Transportation, Taxis",Santa Barbara,34.420334,-119.7107494,2.0,NV
QBiNLoutKIgS6lzGks-50A,Bilmar Beach Resort,"Caterers, Hotels, Resorts, Party & Event Planning, Venues & Event Spaces, Event Planning & Services, Hotels & Travel",Treasure Island,27.7674978866,-82.7693894062,3.5,CA
KBbMxIj6PhSXW6ZSoNm9Hg,"The Inn at Opryland, A Gaylord Hotel","Hotels & Travel, Event Planning & Services, Venues & Event Spaces, Hotels",Nashville,36.2178212869,-86.6950437427,2.0,NV
DVFlOevRsyNdCe4VqoJI0A,The Mercantile Hotel,"Hotels, Hotels & Travel, Event Planning & Services",New Orleans,29.94557253,-90.06602828,4.0,AZ
ozCvex2kcf9k_r5GrWTEwA,Bats Taxis,"Transportation, Hotels & Travel, Limos, Town Car Service, Taxis, Airport Shuttles",St Pete Beach,27.726063,-82.741327,3.5,AZ
2KWdqoTYBTpBq-Rlb4sR5w,Montecito Inn,"Hotels & Travel, Hotels, Event Planning & Services, Venues & Event Spaces",Santa Barbara,34.4212447,-119.640407,3.5,NV
RqeokGq-qSYlk7WA4WF6sA,Enterprise Rent-A-Car,"Car Dealers, Hotels & Travel, Automotive, Car Rental",Saint Louis,38.5237346241,-90.3505216093,3.0,AZ
mRALAZduUGa_QBAyxQ89HQ,Four Points by Sheraton Nashville - Brentwood,"Event Planning & Services, Hotels & Travel, Hotels, Venues & Event Spaces",Brentwood,36.0420737,-86.7769404,3.5,AZ
25Uww0C0wvF9CZ_3B6vWtA,Enjoy The Mountain,"Motorcycle Rental, Tours, Hiking, Mountain Biking, ATV Rentals/Tours, RV Rental, Hotels & Travel, Arts & Entertainment, Active Life",Santa Barbara,34.4143420056,-119.6873324599,4.5,AZ
Ob4fDK3LQ3zsKvOBohGU-g,Clarion Hotel Philadelphia International Airport,"Hotels & Travel, Event Planning & Services, Venues & Event Spaces, Hotels",Essington,39.8662621,-75.3116227,2.0,AZ
mxbnb3UCKZQvWri3TGgogQ,Thrifty Rent A Car,"Hotels & Travel, Car Rental",SAINT LOUIS AP,38.737172,-90.387736,2.0,CA
Y7DOTl_hILwEGoxQl11kNw,Courtyard by Marriott New Orleans Westbank/Gretna,"Venues & Event Spaces, Hotels, Hotels & Travel, Event Planning & Services",Gretna,29.925628,-90.041489,2.5,NV
UcUgyFueY2LyHe3Zhcuhkg,Best Western Suites Near Opryland,"Hotels, Event Planning & Services, Hotels & Travel",Nashville,36.2234991946,-86.6969958571,2.5,NV
ZZQs5sQpWnYOfolSb3CXMA,Mason Beach Inn,"Hotels & Travel, Event Planning & Services, Hotels, Bed & Breakfast",Santa Barbara,34.4094606,-119.6947742,3.5,NV
uYUsK2muRiy0ahFZchlVEw,Bourbon O Bar,"Bars, Nightlife, Music Venues, Lounges, Event Planning & Services, Hotels, Hotels & Travel, Arts & Entertainment",New Orleans,29.9590515552,-90.0651563866,4.5,NV
fpiFvK2mQpwSZ4O5IZKeNA,Hyatt Place Boise/Towne Square,"Hotels, Hotels & Travel, Event Planning & Services, Venues & Event Spaces",Boise,43.6132616,-116.2853319,3.5,AZ
xhcJ1A6qGZkEzF9vjwC5iw,Embassy Suites by Hilton St. Louis St. Charles,"Event Planning & Services, Hotels, Hotels & Travel, Caterers",Saint Charles,38.7698152605,-90.5025091767,3.5,AZ
jCzafdhgaDVLYzuozw6BIA,Enterprise Rent-A-Car,"Car Rental, Automotive, Hotels & Travel",Tucson,32.2860231,-110.9892935,3.0,AZ
1M0FpaH6os3Punr90bvIDw,SpringHill Suites Tampa Brandon,"Hotels & Travel, Hotels, Event Planning & Services",Tampa,27.9401753359,-82.338012074,3.0,CA
dkxCH6f6-YXsmfWDEiZs-Q,Hawthorn Suites By Wyndham Philadelphia Airport,"Event Planning & Services, Hotels & Travel, Hotels",Philadelphia,39.8884,-75.230898,2.0,AZ
zwJrR0BOMiH7T1YYhgdGpA,The Pool,"Hotels & Travel, Swimming Pools, Active Life",Reno,39.5234844,-119.7804047,3.0,AZ
uWKjddyA3EUpW4VHgCXNFg,Sleep Inn & Suites,"Hotels, Hotels & Travel, Event Planning & Services",Metairie,30.0010047828,-90.1864483953,3.5,AZ
G8JU8WDH3Ny8KLF-YVpB1w,Nashville Airport Marriott,"Event Planning & Services, Hotels, Hotels & Travel, Venues & Event Spaces",Nashville,36.1460782,-86.6929133,3.5,NV
9NfPTgy_L9X57ep_Wq13Iw,Condor Express Whale Watching,"Whale Watching Tours, Hotels & Travel, Event Planning & Services, Boating, Active Life, Tours, Boat Charters",Santa Barbara,34.40829,-119.6914691,4.5,AZ
lQwSrnzTxhssWHRGyq5rvQ,Wyndham Philadelphia Historic District,"Venues & Event Spaces, Hotels, Event Planning & Services, Hotels & Travel",Philadelphia,39.9520404,-75.147515,2.5,AZ
W0RpA6o2aPMQepCv_vn_2Q,Magnolia- New Orleans,"Hotels, Event Planning & Services, Hotels & Travel",New Orleans,29.9510212,-90.0685271,3.5,AZ
b7UPlhqUiliUy9vITKHGvQ,The Wayfarer,"Venues & Event Spaces, Hotels & Travel, Event Planning & Services, Hostels, Hotels",Santa Barbara,34.4150289,-119.69232,4.0,CA
ibyaHFKnJ8mLwTj9cHTIDQ,Molloy Gulf Motel & Cottages,"Hotels & Travel, Hotels, Event Planning & Services",Treasure Is,27.7621125,-82.7666744,3.5,AZ
NK0_YatQwVmIFJJyrdNNpQ,The Study at University City,"Hotels, Hotels & Travel, Event Planning & Services",Philadelphia,39.9544058,-75.1900591,4.0,AZ
p8FH_mX7hMyjgauPMVwU9w,Drury Inn & Suites Nashville Airport,"Event Planning & Services, Hotels, Hotels & Travel",Nashville,36.1446933,-86.6658431,4.0,AZ
orbXZK6M1NoCb2r5wqwXhw,Bob Evans,"Salad, American (Traditional), Bed & Breakfast, Restaurants, Hotels & Travel, Comfort Food, Breakfast & Brunch, American (New)",Indianapolis,39.7641635242,-86.2693255395,2.0,AZ
y7IbpgftK97lerMOrgHFoA,United Airlines,"Hotels & Travel, Transportation, Airlines",Philadelphia,39.8757359,-75.2493279,2.0,AZ
cTgooCuznRzo0mUA9fBmNA,Aspirations Winery,"Arts & Entertainment, Hotels & Travel, Local Flavor, Tours, Wineries, Wine Tours, Food, Tasting Classes, Wine Tasting Classes, Education",Clearwater,27.9726699478,-82.7264709177,5.0,NV
tdNMGyk_RPQhghzGN--emA,Aloft Nashville Franklin,"Bars, Nightlife, Lounges, Hotels & Travel, Event Planning & Services, Hotels, Venues & Event Spaces",Franklin,35.9517581,-86.8142481,3.5,AZ
auv_gvtR7fZp9b0mkEbTIA,Bienville House Hotel,"Event Planning & Services, Hotels, Hotels & Travel",New Orleans,29.953824,-90.06526,4.0,NV
t4Xg0j6xTJLph5Tb1VaMOw,The Butterfly House,"Parks, Botanical Gardens, Hotels & Travel, Local Flavor, Tours, Active Life, Event Planning & Services, Venues & Event Spaces, Museums, Arts & Entertainment",Chesterfield,38.6645754987,-90.5428576467,4.5,NV
f_ca5M7QItcuwvE2QJOIMQ,Homewood Suites by Hilton St. Petersburg Clearwater,"Event Planning & Services, Hotels & Travel, Hotels",Clearwater,27.894496,-82.663967,3.0,NV
jY8pZdhEQATs28mqApl8aw,Hawthorn Suites By Wyndham St. Louis Westport Plaza,"Event Planning & Services, Hotels & Travel, Hotels",St. Louis,38.6921964936,-90.448170211,2.0,AZ
vjscHGen0aMOn5NAKuItrA,Abba & Sons Moving,"Transportation, Home Services, Hotels & Travel, Movers, Local Services, Self Storage, Packing Services",Tucson,32.2645111,-110.975393,4.0,AZ
QGTvT3wucl1UKZgxTRGStQ,Hotel De L'eau Vive,"Event Planning & Services, Hotels, Hotels & Travel",New Orleans,29.949712,-90.0669215,2.5,CA
yZVm-kuSC6AgLc4FtT45cw,Ramada Tucson,"Hotels, Hotels & Travel, Event Planning & Services",Tucson,32.216185,-110.980657,2.5,AZ
HaZSc5RR1-YM-cBrD3vCAw,Homewood Suites by Hilton Indianapolis Carmel,"Event Planning & Services, Hotels, Hotels & Travel",Carmel,39.952237,-86.15653,2.5,AZ
QmcUCigNOlv88MJW_-5Tag,Mag's 940,"Gay Bars, Performing Arts, Guest Houses, Local Flavor, Arts & Entertainment, Hotels & Travel, Bars, Nightlife, Social Clubs, Bed & Breakfast",New Orleans,29.9673788,-90.0571066,4.0,NV
Bnq23ywx8HHAuG8qnoDqbQ,Frontier,"Transportation, Airlines, Hotels & Travel",Ewing,40.2770685,-74.8179248,1.5,AZ
ASPCEVAIaTCdsyv5y0Q5-A,Oliver C Joseph,"Auto Repair, Car Dealers, Hotels & Travel, Automotive, Auto Parts & Supplies, Car Rental",Belleville,38.5180713,-90.023259,2.0,NV
DapgvU4e0zpofZSbl-w5xA,House Of Broel,"Bridal, Museums, Venues & Event Spaces, Toy Stores, Shopping, Tours, Event Planning & Services, Wedding Planning, Religious Organizations, Party & Event Planning, Arts & Entertainment, Hotels & Travel, Landmarks & Historical Buildings, Public Services & Government",New Orleans,29.9335411,-90.0808918,4.0,CA
VVIQd6SyPsrVeUsk1T5TRA,Pear Tree Inn St. Louis Airport,"Hotels & Travel, Event Planning & Services, Hotels",St. Ann,38.7393059,-90.3746499,3.5,AZ
lWHsWAszNVISPFB3gQTuyg,Hampton Inn Limerick-Philadelphia Area,"Hotels, Hotels & Travel, Event Planning & Services",Limerick,40.218107,-75.541022,2.5,CA
QMHd6Z2djm_SBLzGhLvFqw,Courtyard by Marriott Philadelphia South at The Navy Yard,"Event Planning & Services, Hotels & Travel, Hotels, Venues & Event Spaces",Philadelphia,39.895454514,-75.1717264504,4.0,AZ
ZdHf2EkMQPV2OBNgGhMAKQ,Americas Best Value Inn Nashville Downtown,"Hotels, Event Planning & Services, Hotels & Travel",Nashville,36.2096512,-86.7777406728,2.0,AZ
IK4iU_hsbzLPbRhZRv1jrw,Motel 6 - Goleta,"Event Planning & Services, Hotels, Hotels & Travel",Goleta,34.4410086628,-119.8279461009,2.5,NV
T8xCfzj8F7KAfU0bW_Fhsw,Crown Buick GMC,"Hotels & Travel, Car Dealers, Car Rental, Auto Repair, Automotive, Tires",Metairie,29.9931776,-90.180742,3.5,NV
ZIfgtVOkrOp2YWaclG1YXQ,AmericInn by Wyndham Fishers Indianapolis,"Hotels & Travel, Event Planning & Services, Hotels",Fishers,39.9305293,-86.0255137,3.0,NV
7UgkM8jUpZjIoZffUO0IJQ,Extended Stay America - Tampa - Brandon,"Hotels & Travel, Hotels, Event Planning & Services",Brandon,27.944421,-82.327543,1.5,NV
tH10ZuH28GrccqTZ6TTl7A,Carnival Cruise Lines,"Hotels & Travel, Tours, Arts & Entertainment",Tampa,27.9437745,-82.4458698,2.5,CA
-rpI6XyHt76wV5g-mgibTg,Mid Town Hotel,"Hotels & Travel, Event Planning & Services, Hotels",New Orleans,29.9675536,-90.1039233,2.0,CA
rZ2Uygsn6vmnUIAaN_DIzQ,The Grill Room,"Nightlife, Event Planning & Services, Jazz & Blues, Hotels & Travel, Arts & Entertainment, American (New), Hotels, Restaurants, Breakfast & Brunch",New Orleans,29.949437,-90.06636,4.0,CA
awoL_ZkakGAihaPyBfbs1g,Pineapple Hill Bed & Breakfast Inn,"Hotels & Travel, Bed & Breakfast, Hotels, Event Planning & Services",New Hope,40.311334,-74.9073355,5.0,NV
ZPZ_M7G2BY35vdZqfrjbew,Magnolia Mansion,"Hotels & Travel, Bed & Breakfast, Guest Houses, Hotels, Event Planning & Services",New Orleans,29.93335,-90.07937,2.5,NV
HV0RS_cHVHatqYwC1j_qsw,Bergey's Chevrolet,"Auto Parts & Supplies, Automotive, Car Dealers, Hotels & Travel, Car Rental, Auto Repair",Colmar,40.2763561,-75.2608947,3.0,NV
k8stonbWUKchWoyQnrG2KA,Holiday Inn Express & Suites St. Louis West - Fenton,"Hotels, Event Planning & Services, Venues & Event Spaces, Hotels & Travel",Fenton,38.5394636,-90.4712482,4.0,AZ
PXmjnpt34IsHQQiC5diLTQ,Marriott St. Louis West,"Event Planning & Services, Hotels, Venues & Event Spaces, Hotels & Travel",St. Louis,38.642584387,-90.4980969429,3.0,CA
YHxJjmPj7XJVTBZFdiXw2A,PedalPub St Petersburg,"Tours, Event Planning & Services, Hotels & Travel, Beer Tours, Art Tours, Bike Rentals, Bus Tours, Party Bike Rentals, Adult Entertainment, Nightlife, Active Life",St Petersburg,27.768571,-82.659897,5.0,NV
BGGJqF1lOU7qN1AH0ltPMg,Grey Line Tours,"Hotels & Travel, Tours",New Orleans,29.9541893005,-90.0646972656,4.5,NV
Nh1rc9aSeO-Y5lYmXVS6CA,Quality Inn Nashville Downtown - Stadium,"Hotels & Travel, Event Planning & Services, Hotels",Nashville,36.1688337591,-86.766910851,2.0,AZ
7Oi7mIHgSt8Monw3FYTtvA,Penny’s Brazilian Wax & Spa,"Hair Removal, Nail Salons, Massage, Day Spas, Hotels & Travel, Health Retreats, Permanent Makeup, Waxing, Beauty & Spas",Kenner,30.0259515,-90.2381722,4.0,NV
AdPk3z9_tGW8wlLnQBAPDw,John Fenwick Travel Plaza,"Travel Services, Hotels & Travel",Penns Grove,39.6956021373,-75.3969342589,2.0,NV
SSJ0OFC_QvGOGgKm5ODJjg,The Pickled Pedaler,"Bike Rentals, Bars, Active Life, Event Planning & Services, Nightlife, Sports Bars, Party Bus Rentals, Tours, Hotels & Travel, Party Bike Rentals",Indianapolis,39.7588676191,-86.1462066373,4.5,NV
jxbhi7rEQIjh4uSRunZQVA,Hampton Inn St. Louis-Downtown At the Gateway Arch,"Event Planning & Services, Hotels, Hotels & Travel",Saint Louis,38.630049,-90.186505,4.0,CA
UIwItjBCjCKF4nDNVBzVIQ,Super 8 by Wyndham New Orleans,"Hotels, Event Planning & Services, Hotels & Travel",New Orleans,30.0100957044,-90.0145384663,3.5,AZ
R-FCQ9R0emv37lMJt4hN9Q,The Westin St. Louis,"Event Planning & Services, Hotels & Travel, Hotels",Saint Louis,38.623493,-90.194839,3.5,NV
c1c6AK8tMezO-Z3anZWCOg,Apple Hostels,"Hostels, Hotels & Travel",Philadelphia,39.9489146228,-75.145232422,4.0,NV
wynKaoaiSAxf9zO8dJOVbw,Courtyard by Marriott Nashville Goodlettsville,"Event Planning & Services, Hotels, Venues & Event Spaces, Hotels & Travel",Goodlettsville,36.3199177793,-86.7003421177,4.0,CA
I2fi_zXR29g0cbhgTaY7Pw,Reno Brew Bike,"Beer Tours, Tours, Hotels & Travel, Breweries, Bars, Food, Nightlife",Reno,39.5311187265,-119.8086464985,5.0,AZ
RIi9_NoeQ2gjqW_8HW0PYw,Holiday Inn Metairie New Orleans Airport,"Event Planning & Services, Resorts, Hotels & Travel, Venues & Event Spaces, Hotels",Metairie,29.9935903,-90.1549946,2.5,CA
_h9-mFTOR3nXej-uhVxgTg,Doos Amazing Tours,"Rafting/Kayaking, Active Life, Hotels & Travel, Bike Rentals, Paddleboarding, Local Flavor, Tours",St Petersburg,27.7739498,-82.6307447,5.0,AZ
3IjpO8tHrDkltcshN_m-7g,Southwest Airlines,"Transportation, Airlines, Hotels & Travel",Tucson,32.1202544,-110.937308,3.5,AZ
wXJzCxrEEsWBj0TOV7Nzvw,Country Inn & Suites By Carlson,"Event Planning & Services, Hotels, Hotels & Travel",Tucson,32.2321792,-110.9843337,4.0,NV
noYjWEY5R7k_wTtHUkt0dw,The Station Grille,"Restaurants, Breakfast & Brunch, Event Planning & Services, American (Traditional), Nightlife, Burgers, Hotels & Travel, Hotels, Bars",Saint Louis,38.62813,-90.208034,3.0,AZ
TkZdjnkAKWo9iljqT-hRxQ,Gram's Place,"Hotels & Travel, Hostels, Bed & Breakfast, Hotels, Event Planning & Services",Tampa,27.9731895,-82.4633655,4.0,NV
QqOGaAiefPZCbc3lCiUNyQ,Residence Inn Tampa North/I-75 Fletcher,"Event Planning & Services, Hotels, Hotels & Travel",Tampa,28.067718,-82.3710169,2.0,NV
X7MyCFbHwzAYvqqh7zb-Ug,St Vincent's Guest House,"Event Planning & Services, Bed & Breakfast, Hostels, Guest Houses, Hotels & Travel, Hotels",New Orleans,29.9341452,-90.0728883,2.5,AZ
Xd9N9DCpy3GwPKTtS5K77w,Courtyard by Marriott Nashville at Opryland,"Event Planning & Services, Hotels & Travel, Hotels",Nashville,36.2226567,-86.6969881,3.5,NV
7wL-1JWa88df9OUtbbMHcQ,Corazon Restaurant And Bar,"American (Traditional), Bars, Nightlife, Hotels & Travel, Restaurants",Tampa,27.9474884,-82.4566012,4.5,AZ
xj9coidf8vtl5cT9wonq9g,Hyatt Place Indianapolis / Carmel,"Event Planning & Services, Venues & Event Spaces, Hotels, Hotels & Travel",Carmel,39.963563705,-86.1591517433,2.5,AZ
zBg40fmmODdTHg_h6mRWiw,Destination Vine,"Wine Tours, Tours, Travel Services, Hotels & Travel",Santa Barbara,34.433094,-119.6817845,5.0,NV
DjpCcVUuolhT6FF78W1aQw,Jeremiah Inn Bed & Breakfast,"Event Planning & Services, Hotels & Travel, Hotels, Bed & Breakfast",Tucson,32.2953565,-110.7584831,5.0,NV
koOE6eAAyW8c70G-xAYqJA,Destination Drivers,"Tours, Beer Tours, Wine Tours, Hotels & Travel",Santa Barbara,34.4216024,-119.698259,5.0,NV
RpG7yb1q00aPjDgH8c3cLg,Candlewood Suites Bensalem - Philadelphia Area,"Event Planning & Services, Hotels, Hotels & Travel",Bensalem,40.1276148,-74.9686831,4.0,NV
ID9NN2uItO2o6gAchETldw,Hickory Point RV Park,"Campgrounds, Hotels & Travel, Home Services, RV Parks, Mobile Home Parks, Active Life, Parks, Real Estate",Tarpon Springs,28.1481489105,-82.7617225592,3.5,NV
wJxy5gsCOIHoIH20yV80ng,The Musical History Tours,"Tours, Historical Tours, Hotels & Travel, Bus Tours",Philadelphia,39.9507334382,-75.1501874998,5.0,CA
woutLoZlabf_dwSrY70ksA,U-Save Car & Truck Rental,"Car Rental, Hotels & Travel, Truck Rental, Automotive",Glenside,40.1141946,-75.1406259,3.5,CA
yyCPpug9sPBX6pSBbJk8tQ,Intown Suites,"Real Estate, Hotels & Travel, Event Planning & Services, Hotels, Home Services, Apartments",Greenwood,39.6136437,-86.0851573,2.5,CA
Zz2832p4aNNh0VlX_ngBKw,Dream Catcher Explorations,"Hotels & Travel, Tubing, Tours, Boat Tours, Active Life, Snorkeling",Tarpon Springs,28.1629023,-82.7692651,5.0,NV
fXKGpeecdUG2P9-RMw4vsg,Ramada by Wyndham New Orleans,"Bed & Breakfast, Hotels & Travel",New Orleans,30.0114826,-90.0149612,1.0,AZ
cgp9gTl_w9q4Yqh1l4omNw,IdentoGo,"Passport & Visa Services, Travel Services, Hotels & Travel",Kenner,30.0028767,-90.2396919,5.0,AZ
WVK43TKUTEHjIVlF25cYLw,SpringHill Suites Marriott Nashville Downtown/Convention Center,"Venues & Event Spaces, Hotels & Travel, Event Planning & Services, Hotels",Nashville,36.1559429,-86.7752176,3.5,CA
WRuW-59kMoJBEOlSUI8nfw,Easy Rider Transport,"Health & Medical, Hotels & Travel, Transportation, Airport Shuttles, Medical Transportation",St. Petersburg,27.7730556,-82.64,4.0,CA
by4ujtBTb4Ee0F9ycCG5NA,Upstage Limo Nashville,"Hotels & Travel, Transportation, Limos",Nashville,36.1493237,-86.7781228,5.0,AZ
vyV80mTt7Jgn5NquZImWGg,Americas Best Value Inn Pottstown,"Event Planning & Services, Hotels & Travel, Hotels",Pottstown,40.2465147,-75.6546752,2.0,AZ
wCrh_VwxVc65OGFzxHn5uA,Staybridge Suites - Franklin,"Hotels, Hotels & Travel, Event Planning & Services",Franklin,35.9389286557,-86.8223989264,5.0,NV
Qb3d5ihgSO3X2Fw0ZAmb5g,budget rental car,"Car Rental, Hotels & Travel",Clearwater,27.9067008,-82.6924004,2.0,NV
DHV8Nubli7MSc5CGa89Izg,The Gulf Beach Resort,"Hotels, Hotels & Travel, Event Planning & Services",St. Pete Beach,27.7247201,-82.7422662,4.0,AZ
vFxq9m8qz0Y1NKDlbsjpwA,BentoLiving Chestnut Hill,"Real Estate, Event Planning & Services, Hotels & Travel, Travel Services, Hotels, Home Services, Apartments",Nashville,36.142476,-86.764947,4.5,NV
2-SB-GoaYiCEUTBfCTm3qA,Bluestem Distillery,"Distilleries, Medical Supplies, Food, Shopping, Hotels & Travel, Tours",Bethalto,38.898779,-90.005593,5.0,CA
GcfDBjxMEndG07JTEfwBOg,Red Roof Inn St Louis - Florissant,"Event Planning & Services, Hotels, Hotels & Travel",Florissant,38.7756619279,-90.3321604684,1.0,AZ
VEaDcOkXXW_XyiEkrRrKBQ,Tuxedo Park STL Bed & Breakfast Inn,"Hotels & Travel, Bed & Breakfast",Webster Groves,38.601424,-90.341984,5.0,AZ
zl1B2sMH7YGkTNILg6yl2A,Ramada by Wyndham Edmonton Yellowhead NW,"Event Planning & Services, Hotels & Travel, Hotels",Edmonton,53.5822919,-113.5792209,1.0,NV
vOTMHgrhjnKEn2Sy_oKExQ,Playtime Learning Academy,"Education, Recreation Centers, Child Care & Day Care, Local Services, Preschools, Campgrounds, Active Life, Hotels & Travel",Tampa,28.0849763,-82.5258032,5.0,CA
SPuhEfRzsEDEmy9F5Z6J7w,Sun Country Airlines,"Hotels & Travel, Transportation, Airlines, Airports",Tampa,27.9807435,-82.5340121,1.0,NV
n_cNBfPQWuN14bbYEKvVpw,Germantown Cab,"Taxis, Hotels & Travel, Transportation",Norristown,40.1241218,-75.3634797,1.0,CA
DHLSp2l29EP0-js06Ix6pw,Uzhaul Transportation,"Automotive, Transportation, Hotels & Travel, Vehicle Shipping",Philadelphia PA,40.118519,-75.036863,5.0,NV
ruXD0lB3rq4FMvnQL7iqLw,Tampa Bay Watch Discovery Center,"Museums, Community Service/Non-Profit, Local Services, Arts & Entertainment, Aquariums, Hotels & Travel, Active Life, Boat Tours, Tours",St. Petersburg,27.7735935,-82.6315285,4.0,CA
mD8ar7fOXBzUq8HO08vA5w,Residence Inn Indianapolis South/ Greenwood,"Event Planning & Services, Venues & Event Spaces, Hotels, Hotels & Travel",Indianapolis,39.638871,-86.078875,3.0,AZ
_6s7vdfm8qMfD8sUpQzIbQ,Gulf Way Inn,"Hotels & Travel, Event Planning & Services, Hotels",Clearwater,27.960459,-82.742836,1.5,NV
8DdYtA9Q85UGNRa3Ph0y9w,C Ponies Beach Horseback Rides,"Active Life, Party Equipment Rentals, Beaches, Horseback Riding, Surfing, Event Planning & Services, Hotels & Travel, Vacation Rentals",St Petersburg,27.6552851573,-82.6752600074,5.0,CA
tJ7jlqTmNV03qMgoUCwfyQ,Touchdown RV Rentals and Sales,"Automotive, RV Dealers, Hotels & Travel, RV Repair, RV Rental",Zionsville,39.942162,-86.244018,4.5,NV
YcsnaP8O-4g-jAuxRAzP2A,Pineapple Pedicabs,"Active Life, Transportation, Bike tours, Hotels & Travel, Art Tours, Parks, Tours, Food, Breweries, Pedicabs, Brewpubs",Reno,39.4835647,-119.7310213,5.0,AZ
kta13NBaVJ8F9tfJYhdU-g,AAA St. Petersburg,"Hotels & Travel, Insurance, Travel Services, Travel Agents, Financial Services",Saint Petersburg,27.7862387,-82.7296643,1.0,CA
e11up5A7bSdtcaGlxMwKQw,Enterprise Rent-A-Car,"Hotels & Travel, Car Rental",Lumberton,39.9825115576,-74.7944608033,3.0,NV
QxJbExGfnnbx3ua_PQHlTQ,Diamond Transportation,"Bus Tours, Airport Shuttles, Tours, Transportation, Limos, Hotels & Travel",Tucson,32.3318817,-110.9783029,5.0,NV
jKeMXXpyeoez1mbGgDijSA,Motel 6 - Pottstown Pa,"Event Planning & Services, Hotels & Travel, Hotels",Pottstown,40.2564179,-75.661689,2.5,NV
Xd-MBTqvspCn0wTRTQPqTA,Tesla Supercharger,"Transportation, Travel Services, Automotive, Gas Stations, EV Charging Stations, Hotels & Travel",Newark,39.6635416525,-75.6902045376,5.0,AZ
3QRoFRO1fcK3RqrihQPqlw,Reisen Arizona Day Tours,"Tours, Hotels & Travel",Tucson,32.2540901261,-110.8741699532,4.5,CA
zCx58RaL-vhABAfjzBektg,Music City Luggage Lockers,"Luggage Storage, Shopping, Travel Services, Luggage, Hotels & Travel, Local Services, Self Storage",Nashville,36.1642643,-86.7812831,5.0,NV
OOlnM8jfJEBmSvapU9tP6A,Sage Hill Campground,"Hotels & Travel, Campgrounds",Santa Barbara,34.5470669517,-119.7923433841,4.5,NV
ofxsDsVaj6Nr3aXfbfKMww,Commodore Beach Club,"Hotels & Travel, Event Planning & Services, Hotels, Resorts",Madeira Beach,27.7913748,-82.7896712,3.5,AZ
bZdSHyUzEGgZLHeyWWgT8w,Hey Taxi,"Transportation, Hotels & Travel, Taxis",Arnold,38.4104755,-90.389894,2.0,NV
HckUIWGvrLWRmuX7iEZWUQ,Whispers Boutique Resort - Beach Vacation Condominiums,"Hotels & Travel, Vacation Rentals",Treasure Island,27.769947,-82.765478,1.5,CA
uMFLcRoLuBopKlP--2ltBA,Airport Cab Service,"Town Car Service, Airport Shuttles, Transportation, Hotels & Travel, Taxis",Saint Louis,38.631523,-90.2947571,3.5,AZ
1wvYBjX6radqmb_k0Fv_Ug,Palihouse Santa Barbara,"Hotels & Travel, Event Planning & Services, Cafes, Restaurants, Hotels",Santa Barbara,34.4239925,-119.6979304,4.0,NV
CtUUI1uIfsaJ4CzGfArzgw,Thrifty Car Rental,"Car Rental, Hotels & Travel",NASHVILLE AP,36.133613,-86.667282,1.0,AZ
yxuzVTQYqikKQO-odJToWw,avid hotel Nashville Airport,"Hotels, Hotels & Travel, Event Planning & Services",Nashville,36.1449603,-86.6752448,3.0,CA
QS0J5UleOpnrpgYY86B7ag,Fort De Soto Park Campground,"Hotels & Travel, RV Parks, Campgrounds",Saint Petersburg,27.645988,-82.717015,4.5,AZ
XkofFhXCXh6OUpWoG_ydWA,Budget Rental Cars,"Car Rental, Hotels & Travel",Saint Louis,38.6348961,-90.2210235,1.5,NV
MuTQhS1X7eOg6cNqrSVrCQ,Brinton Hotel & Suites,"Event Planning & Services, Hotels & Travel, Hotels",West Chester,39.8910589,-75.5560925,2.5,CA
xrc3Z86FD0iaA1hUU4Mfxg,Charter Finders,"Event Planning & Services, Snorkeling, Boat Tours, Hotels & Travel, Active Life, Boating, Boat Charters, Tours",Madeira Beach,27.8025713,-82.8005685,5.0,NV
TyumpOO_KSo1QzMGtj5_5A,Pedego Electric Bikes Nashville,"Bike tours, Bikes, Bike Repair/Maintenance, Shopping, Local Services, Active Life, Bike Rentals, Hotels & Travel, Sporting Goods, Tours",Nashville,36.171451493,-86.7651390671,5.0,NV
xywaDaIL8_udyftSvgPmAQ,Comfort Inn & Suites Glen Mills - Philadelphia,"Wine Bars, Cafes, Bars, Pizza, Event Planning & Services, Nightlife, Sandwiches, Hotels & Travel, Restaurants, Asian Fusion, Bistros, American (Traditional), Hotels",Glen Mills,39.8802467668,-75.5448828135,2.0,AZ
OZXc4Hzv4YhCy4cqZfDUMQ,Exceed Limo,"Transportation, Hotels & Travel, Limos, Airport Shuttles, Buses, Event Planning & Services, Party Bus Rentals",Saint Louis,38.4948766,-90.3842527,2.5,AZ
TVk8k0RgOFeXG4u41Bxdfg,Hilton Garden Inn Gallatin,"Venues & Event Spaces, Hotels & Travel, Event Planning & Services, Hotels",Gallatin,36.3733727385,-86.4821281442,3.0,AZ
DFU5vvLghGmh9MQ9uiiHkw,Bayshore Limo,"Tours, Limos, Transportation, Hotels & Travel, Airport Shuttles",Tampa,27.9220856,-82.5098841,5.0,NV
_KcupJ16B-oFAkKbA9r0ng,The Super Inn,"Hotels & Travel, Hotels, Event Planning & Services",Tucson,32.1810155809,-110.9552931629,1.0,AZ
HKb086TYGRKbkw0DNq10kg,Enterprise Rent-A-Car,"Hotels & Travel, Car Rental",Darby,39.9186526527,-75.2588390261,1.5,NV
jpi_v4T1LinzOVtng7OOwg,SkyConnect Rental Car Center,"Parking, Automotive, Trains, Hotels & Travel, Transportation, Car Rental",Tampa,27.9619684746,-82.5359668583,3.0,AZ
RZ1gi_Xa93bbx1y1tWIxMQ,Courtyard Marriott,"Hotels, Hotels & Travel, Event Planning & Services",Indianapolis,39.7249737,-86.2610914,2.0,CA
P1JFDS29rnISEcDx4DopUA,Rodeway Inn,"Event Planning & Services, Hotels, Hotels & Travel",Hammonton,39.66115,-74.878232,2.5,AZ
3fy9gov8g8eBRpPJ_vPP7w,Horseshoe Motel,"Hotels, Hotels & Travel, Event Planning & Services, Tours",Reno,39.5315127,-119.8116052,1.5,CA
uwPw6d4WCX46fVizFmFSnA,Korman Residential at Cherrywood,"Real Estate, Hotels, Apartments, Home Services, Event Planning & Services, Hotels & Travel",Clementon,39.800558,-75.038318,2.0,CA
SAZLcxlWX8D7RIAvDR1kpA,Gulf Winds Resort,"Event Planning & Services, Hotels, Resorts, Hotels & Travel, Condominiums, Home Services, Real Estate",St. Pete Beach,27.7368985,-82.7508436,3.0,AZ
9l0hPMqifB6v0lXv0N9TCA,Hampton Inn O'Fallon,"Event Planning & Services, Hotels, Hotels & Travel",O'Fallon,38.5809376,-89.9307174,4.5,AZ
4fWAbCAs8SJxD3-9zobvrg,MA Fitness - Pinellas Park,"Hotels & Travel, Boot Camps, Kickboxing, Tours, Martial Arts, Active Life, Boxing, Fitness & Instruction",Pinellas Park,27.8604421,-82.728743,4.5,AZ
Gh3aHBukmf-VCIlgs9wtuQ,Rincon Country West RV Resort,"Active Life, Vacation Rentals, Recreation Centers, RV Rental, RV Parks, Hotels, Campgrounds, Event Planning & Services, Resorts, Hotels & Travel",Tucson,32.169195,-111.005158,4.5,AZ
nazEG-Y2LF4nL4bIIz7DKg,Clearwater Travel Resort,"Hotels & Travel, RV Parks, Campgrounds",Clearwater,27.962428,-82.714922,3.5,AZ
E9Q-LcNMQ3j7wYVNgA42sw,Four Seasons Hotel - New Orleans,"Event Planning & Services, Hotels & Travel, Hotels",New Orleans,29.9489442,-90.0637815,4.0,NV
w6VZGMfw81rNGp3VHPUZRA,Hilton Harth,"Southern, Event Planning & Services, Comfort Food, Restaurants, Hotels & Travel, Hotels, Breakfast & Brunch",Franklin,35.9478094,-86.8100302,4.0,AZ
T-DQVBTzlfp3aZ9Xw0wmzA,Alaska Airlines,"Hotels & Travel, Transportation, Airlines",Kenner,29.9860303,-90.2577609,3.5,NV
aE65ZmPehl9VsFtqkxU6yQ,Enterprise Rent-A-Car,"Car Rental, Hotels & Travel",Smyrna,35.9848388007,-86.5205593407,3.5,NV
HBeYAV1Q0XKj2M3hsrAZYg,Hampton Inn & Suites Philadelphia/Media,"Hotels, Event Planning & Services, Hotels & Travel",Media,39.913802,-75.3790875,4.0,CA
VamhcVbwvnocRLgJ1UTErA,King Of Prussia Travel Plaza,"Travel Services, Hotels & Travel",King of Prussia,40.0899493,-75.3710496,3.0,AZ
wCbn4If5lCDRj5UhrFURCw,Easy E's Car Service,"Professional Services, Transportation, Limos, Hotels & Travel, Airport Shuttles, Taxis",Seminole,27.852179,-82.830982,4.0,AZ
7ivkMIIRMbLYOcGPvo1SCg,Jason's Vacation Rentals,"Hotels & Travel, Vacation Rentals",Clearwater,27.9602233,-82.7214369,5.0,NV
Gw3HYk6eS9KrycleuXv-AA,Lufthansa,"Transportation, Airlines, Hotels & Travel",Philadelphia,39.8951764,-75.2279678,1.5,NV
EX9q3_XxAcvUwpOuD9nkTw,Nashville RV,"RV Rental, RV Dealers, Hotels & Travel, Automotive, RV Repair",Franklin,35.864139,-86.830277,3.0,CA
8KFOm7c_b6CpOUk2wC60Qw,Americas Best Value Inn Franklin Spring Hill,"Event Planning & Services, Hotels & Travel, Hotels, Bed & Breakfast",Franklin,35.9100568,-86.8231835,1.5,AZ
GqA3rUSGsj5p_YlcZDdQ-A,Golden Limo - Santa Barbara,"Transportation, Limos, Airport Shuttles, Event Planning & Services, Party Bus Rentals, Hotels & Travel, Tours, Taxis, Wine Tours",Santa Barbara,34.4305905,-119.7970882,4.5,AZ
hlubyxgPyNJwo-C-Ype3QQ,One11 Hotel,"Hotels, Hotels & Travel, Event Planning & Services",New Orleans,29.9519718,-90.064805,4.0,CA
I7u4ISFzPXw3gySVf8up1w,Showcase Limousine & Executive Transportation,"Wine Tours, Tours, Event Planning & Services, Party & Event Planning, Hotels & Travel, Transportation, Party Bus Rentals, Airport Shuttles, Limos",Boise,43.624629,-116.245622,4.0,NV
LGASThK7vu2gBnAKWZrnWQ,Enterprise Rent-A-Car,"Hotels & Travel, Car Rental",Tucson,32.2072978175,-110.8797841557,2.5,AZ
oO4MGgC0DhU9x9Ws6NnK7w,Coastal Kayak Charters,"Rafting/Kayaking, Boating, Active Life, Boat Tours, Hotels & Travel, Tours",St Pete Beach,27.6961271,-82.7355992,5.0,AZ
h_n1ud_xJSpskAyBwMK4jg,ZESCO,"Professional Services, Restaurant Supplies, Kitchen & Bath, Nightlife, Appliances, Kitchen Supplies, Food, Hotels & Travel, Tableware, Restaurants, Shopping, Home & Garden, Wholesalers",Indianapolis,39.7767547,-86.1618625,3.5,CA
Fi-hYn3RPG879vy2bs8BIQ,Motel 6,"Event Planning & Services, Hotels & Travel, Hotels",Indianapolis,39.7052940568,-86.081005795,2.0,NV
sEsszzC0t-j6jAm5l1DdJQ,Alamo Rent A Car,"Hotels & Travel, Car Rental",Boise,43.568883,-116.2219129,4.0,AZ
8MzrfxhBoNYm9DaPZcaNBA,Wesley Financial Group,"Financial Services, Financial Advising, Hotels & Travel, Vacation Rentals",Nashville,35.9537347,-86.8079031,2.5,NV
6K-7U8p-yN7vC2xQGGhzpA,Hotel Indigo St. Louis,"Event Planning & Services, Hotels & Travel, Hotels",St. Louis,38.6279429,-90.18932,4.5,AZ
e-VIqX1eGbWqpiGw83yEQg,Bayside Inn & Marina,"Hotels & Travel, Hotels, Event Planning & Services",Treasure Island,27.7735407174,-82.7729591355,2.0,NV
vAcMVX79KOQdzBVs2CsAyA,Southern Chauffeur Services,"Transportation, Hotels & Travel, Taxis, Town Car Service, Limos, Airport Shuttles",New Orleans,29.9450835,-90.1261013,5.0,AZ
NXz2Nu0T-pq3t3-gsLbLug,Hilton Garden Inn Tampa-Wesley Chapel,"Hotels, Hotels & Travel, Event Planning & Services",Wesley Chapel,28.1859491,-82.3743994,3.5,AZ
lYev6cFA_1_jcwrCnjn-DA,Avis Rent A Car,"Hotels & Travel, Car Rental",Nashville,36.1773619,-86.7750409,3.0,AZ
2qII6l9n7q2hTIW3mv1Grg,Days Inn by Wyndham Franklin Nashville,"Hotels & Travel, Event Planning & Services, Hotels",Franklin,35.911207,-86.8217798,1.5,AZ
8jn7GRkBToO4ZJ9Mj0gWFw,Fairfield Inn & Suites by Marriott Edmonton North,"Hotels, Venues & Event Spaces, Hotels & Travel, Event Planning & Services",Edmonton,53.6017562437,-113.4927713871,4.0,NV
o_83TbselymXes193PfYsw,Resort Rentals,"Hotels & Travel, Vacation Rentals",St. Pete Beach,27.746664,-82.7534466182,2.0,AZ
6PV9tRRUFA0XXqPuP0ExrA,Rodeway Inn,"Event Planning & Services, Hotels, Hotels & Travel",New Port Richey,28.257326,-82.7270009,1.0,AZ
N2i1U4Z6GHEw9V02N2u6JA,Hollander Hotel,"Event Planning & Services, Hotels & Travel, Hotels",St. Petersburg,27.7766681,-82.6390994,4.5,NV
Q5-CkgsvtlRF5GphtoBFRQ,Live Casino Hotel,"Event Planning & Services, Hotels, Hotels & Travel, Burgers, American (Traditional), Restaurants",Philadelphia,39.9091912,-75.1646617,2.5,AZ
w6mVRLGbZ-_ULZi4xerxWA,Big Red Balloon Sightseeing Adventures,"Hot Air Balloons, Professional Services, Advertising, Hotels & Travel, Aerial Tours, Skydiving, Tours, Active Life",Tampa,28.0684157,-82.5564559,4.0,AZ
5MiC5lBDgN9FJB_i5CIxgw,I 75 Southbound Mile 238 Rest Area,"Public Services & Government, Event Planning & Services, Hotels, Hotels & Travel, Landmarks & Historical Buildings, Rest Stops",Ruskin,27.686228,-82.42131,3.5,AZ
UTrULQDWIu7wq9wgrD03Gg,TECO Line Streetcar - Whiting Station,"Train Stations, Hotels & Travel",Tampa,27.9453294023,-82.4567561969,3.5,NV
zcWBWY9nuLwiHEvPXY8leA,Residence Inn by Marriott St. Petersburg Tierra Verde,"Venues & Event Spaces, Hotels & Travel, Hotels, Event Planning & Services",Tierra Verde,27.6899097,-82.7208551,2.5,AZ
YAZLV0zhw0tfg2Cjm8ybqw,AAA Warminster Car Care Insurance Travel Center,"Insurance, Financial Services, Hotels & Travel, Auto Repair, Travel Services, Automotive",Warminster,40.2080750292,-75.1013286803,2.0,CA
-v5f5UElbdAfqUSnN35lNA,Enterprise Rent-A-Car,"Car Rental, Hotels & Travel",Wilmington,39.7491955059,-75.5798998475,2.5,CA
k2OQTB-VeR9PadTZrwZH7A,Wingate By Wyndham Edmonton,"Hotels & Travel, Event Planning & Services, Hotels",Edmonton,53.537622,-113.636256,3.5,AZ
p02sZwVxCl9wf_fdhiZOsQ,Hampton Inn & Suites Indianapolis-Keystone,"Hotels, Hotels & Travel, Event Planning & Services",Indianapolis,39.9173018099,-86.1070091,3.5,AZ
AViEkPTdQR1CV3Jix3Eqzg,Pima County Fairgrounds RV Park,"Hotels & Travel, RV Parks",Tucson,32.0459151069,-110.7829692063,3.5,AZ
_E0WPHfJEYmwOUCAj-Jq1A,Western Village Inn and Casino,"Casinos, Hotels, Arts & Entertainment, American (New), Restaurants, Event Planning & Services, Hotels & Travel",Sparks,39.5344459,-119.7344361,3.5,CA
GjQPosKRsjgy6YOClQOUlA,ZooTampa at Lowry Park,"Zoos, Tours, Arts & Entertainment, Hotels & Travel, Active Life",Tampa,28.0134789526,-82.4679864808,4.0,AZ
Q_RiHdDrdtWFiVRxO3nOoA,Comfort Suites,"Event Planning & Services, Hotels, Hotels & Travel",Fairview Heights,38.601519,-89.994293,2.5,CA
sZHLbLnw1vwHF1xDzuV1iw,Foley Food and Wine Society Tasting Room,"Wine Tasting Room, Tasting Classes, Bars, Wineries, Wine Bars, Tours, Food, Education, Wine Tasting Classes, Restaurants, Hotels & Travel, Nightlife, Barbeque, Wine Tours, Arts & Entertainment",Santa Barbara,34.4132794,-119.6898862,4.5,NV
NzgoEL9V6btPH9nt6VAu7A,Atlantic Aviation,"Airports, Hotels & Travel",Reno,39.5027653,-119.7632113,3.0,AZ
OGVTvqYz4yOFLpbCfU5c3g,Desert Rose Inn,Hotels & Travel,Reno,39.5287831,-119.8228991,3.0,NV
PnOeyDV881gY-f9RPYw4kg,Dayton Valley Turf,"Landscaping, Pets, Home & Garden, Hotels & Travel, Commercial Truck Dealers, Shopping, Pet Stores, Home Services, Automotive, Transportation, Nurseries & Gardening",Reno,39.5259922,-119.7887912,4.5,AZ
QtF-RjrIfo5D068ctPqdzg,Hampton Inn Springfield,"Hotels, Event Planning & Services, Hotels & Travel",Springfield,36.4883809322,-86.8786436319,3.5,NV
v66XurK-MUaXbIdVIXDBpg,Beach Place Condominiums,"Hotels, Event Planning & Services, Hotels & Travel",Madeira Beach,27.7844037,-82.7839649,2.5,AZ
fb8747CUaG3RrTBIAyVi3Q,Ceremonies By Nan,"Wedding Planning, Officiants, Local Services, Event Planning & Services, Fitness & Instruction, Active Life, Hotels & Travel, Trainers, Health Retreats, Venues & Event Spaces, Wedding Chapels, Notaries",Tampa,27.9131544,-82.5056738,4.5,AZ
RR0qHhccpbyMwd5FMwR61Q,Motel 6,"Hotels & Travel, Event Planning & Services, Hotels",Indianapolis,39.6621094,-86.0932968,3.0,AZ
ykaDxoDnkx3r9QzNNq5IBw,Extended Stay America - Indianapolis - Castleton,"Event Planning & Services, Home Services, Apartments, Hotels & Travel, Real Estate, Hotels",Indianapolis,39.8990621,-86.0469854,1.5,NV
AEzii3Rc9PIf3UeVNNX0TQ,Enterprise Rent-A-Car,"Car Rental, Hotels & Travel",Saint Louis,38.6725811,-90.4462901,3.0,NV
LrZRyMmDbv065ZU4Czfgaw,Enterprise Rent-A-Car,"Hotels & Travel, Car Rental",Upper Darby,39.9580174756,-75.2669919301,2.5,NV
X0WzS9G-SoCMqaTseOresQ,Desert Trails RV Park,"RV Parks, Hotels & Travel, Campgrounds",Tucson,32.179284,-111.1484367,4.0,NV
MDnBqOP3OIFvP5XA_V1Ckw,Nelson RV,"Auto Repair, Hotels & Travel, RV Dealers, Automotive, RV Rental",Tucson,32.2805338,-110.9945467,5.0,AZ
c9b_f47D-QdmfOTFWUGSgA,Days Inn by Wyndham Runnemede Philadelphia Area,"Event Planning & Services, Hotels & Travel, Hotels",Runnemede,39.8577410702,-75.0713898987,2.5,NV
Qf5JoZsctzSKmsORmNrAwg,Kimpton Hotel Fontenot,"Hotels & Travel, Hotels, Event Planning & Services",New Orleans,29.94855,-90.0673229,4.5,NV
rlqCmq45_GZWEuK-e7-3CA,Live! by Loews Hotel,Hotels & Travel,St. Louis,38.624487,-90.193565,4.0,AZ
9ynpb03Qcnhnnee7GWKtAA,Palmer House Bed and Breakfast,"Bed & Breakfast, Hotels & Travel, Hotels, Event Planning & Services",Lithia,27.8688461,-82.1912034,5.0,AZ
psOmgqd46njUCWJXK2BxZw,Big Time Limo,"Party Bus Rentals, Limos, Transportation, Taxis, Event Planning & Services, Hotels & Travel, Airport Shuttles, Buses",Seminole,27.8507569038,-82.7629609912,5.0,NV
4QNDCWo9SexRY5QWoO7_Ug,My Southern Comfort,"Hotels & Travel, Vacation Rentals",New Orleans,29.9464355,-90.0693117,2.5,AZ
r9Z4qa7SZfMcl1fvmBfCfw,Hampton Inn & Suites Tucson Tech Park,"Hotels & Travel, Hotels, Event Planning & Services",Tucson,32.086856,-110.8030197288,4.5,AZ
YQP1MseLyRjPOQ66pdi2uw,Clarion Inn Levittown - Philadelphia Langhorne,"Hotels, Event Planning & Services, Hotels & Travel",Levittown,40.1220644463,-74.842993497,1.0,CA
wB8DrTjkI5z8WDeFOBNfog,Plumlee Gulf Beach Realty,"Vacation Rentals, Hotels & Travel, Real Estate Services, Real Estate Agents, Home Services, Hotels, Real Estate, Vacation Rental Agents, Event Planning & Services, Resorts",Indian Rocks Beach,27.8838708,-82.8494379,3.0,AZ
YhY4y8RvdxLaDoG2MgQwcQ,Carriage House of New Hope,"Hotels & Travel, Hotels, Event Planning & Services, Bed & Breakfast, Vacation Rentals, Guest Houses",New Hope,40.3618543,-74.9500691,4.5,CA
IRmwSso4FSZ-G2TOuiRsPw,Keith's Kars,"RV Dealers, Automotive, Trailer Dealers, RV Rental, Used Car Dealers, Car Dealers, Hotels & Travel",Reno,39.4442553,-119.7728002,3.5,CA
EYra7eaplsf9XVdOghcfwQ,Best Western Plus Pontoon Beach,"Event Planning & Services, Hotels, Hotels & Travel",Pontoon Beach,38.7459511,-90.0731275,3.0,CA
OeOdt-96KEow2S54BZ7SDA,Belleair Beach Club,"Hotels & Travel, Hotels, Event Planning & Services",Belleair Beach,27.9333766,-82.8413013,3.5,NV
EHWWQjzRwSBceWSZXtc2VA,StrEATS of Philly Food Tours,"Tours, Event Planning & Services, Farmers Market, Hotels & Travel, Food, Personal Chefs, Food Tours, Walking Tours",Philadelphia,39.9523167,-75.1664857,5.0,AZ
heX477t3cTgRiW54PkC8Vg,RV Select,"Transportation, Automotive, RV Dealers, Hotels & Travel, Truck Rental, Trailer Dealers",Brandon,27.9382154768,-82.2790766669,4.5,AZ
1XxThQusaUyqvVJtKSf5Hw,Enterprise Rent-A-Car,"Car Rental, Hotels & Travel",Nashville,36.2063009025,-86.7361972779,3.0,NV
NxNDizuZvqSfQU2GNRmWWg,Hotel Maison De Ville,"Event Planning & Services, Hotels, Hotels & Travel",New Orleans,29.9576794,-90.0660709,3.5,AZ
xTcttgI_Mbtwpzavj4lJ3Q,TownePlace Suites Tampa North/I-75 Fletcher,"Event Planning & Services, Hotels & Travel, Hotels",Tampa,28.0675319,-82.3719047,2.5,AZ
3w1LYVy04TskbDOWTg5mqg,Budget Rent A Car,"Hotels & Travel, Car Rental",Largo,27.894556,-82.7322908,2.0,AZ
Zprp-p1zmyL3-DRM3fG92A,Harbour House Inn,"Hotels & Travel, Vacation Rentals, Event Planning & Services, Hotels",Santa Barbara,34.4101551,-119.6935351,5.0,NV
wPuoQJPbrEQyBt9K73JiQQ,Hillsborough Area Regional Transit,"Hotels & Travel, Public Transportation, Transportation",Tampa,27.9701763931,-82.4098824255,2.5,CA
PEoe-xRD9EG-gSbJeEA91w,Magazine Street,"Personal Shopping, Travel Services, Travel Agents, Local Flavor, Shopping, Hotels & Travel, Restaurants",New Orleans,29.9219677,-90.1073935,4.0,CA
9PXJkRLVWd6IMPfBzdJp2Q,"El Conquistador Tucson, A Hilton Resort","American (New), Fitness & Instruction, Resorts, Day Spas, Hotels, Restaurants, Steakhouses, Hotels & Travel, Active Life, Golf, Event Planning & Services, Tennis, Beauty & Spas, Horseback Riding",Tucson,32.386118,-110.9566609085,3.0,AZ
sitve7-2mPUQQ2bV8jLCRg,New Orleans School of Cooking,"Hotels & Travel, Cooking Schools, Restaurants, Tours, Specialty Schools, Education",New Orleans,29.9553597,-90.0649145,4.5,NV
CidChbQmk3XyCqgUhFZO-A,Enterprise Rent-A-Car,"Hotels & Travel, Car Rental",Metairie,30.004756,-90.189188,4.5,AZ
Uou35pjFd2O3xbArdkQKOw,OYO Hotel St. Louis Downtown MO,"Event Planning & Services, Hotels & Travel, Hotels",St. Louis,38.6242128,-90.2022684,2.0,NV
J7JyW-AWq-rCmJcqCu1WCQ,Ghost City Tours Nashville,"Historical Tours, Hotels & Travel, Walking Tours, Beer Tours, Tours",Nashville,36.1664702,-86.7837366,4.0,CA
2sOi3OvLXCDcdZNeq004Hw,Hertz Rent A Car,"Hotels & Travel, Car Rental",Boise,43.567416,-116.2064515,2.0,NV
FRKwXrjKu5qveu-_-DlxBw,St. Louis Paranormal Research Society,"Historical Tours, Professional Services, Tours, Hotels & Travel, Restaurants",St. Louis,38.592119,-90.218384,5.0,CA
pTIzUfVKjSDj0JKhWSF1Eg,Tampa Bay Aviation,"Hotels & Travel, Tours, Educational Services, Transportation, Private Jet Charter, Education, Flight Instruction, Specialty Schools, Aerial Tours",Clearwater,27.9753561,-82.7564159,4.5,AZ
eBz80AQbtpXqDPe1fIelMg,Eastern State Penitentiary Halloween Nights,"Arts & Entertainment, Tours, Haunted Houses, Hotels & Travel, Historical Tours",Philadelphia,39.9683684,-75.1726552,2.0,AZ
kLY1ZzhgvdAZTZi2wR2Ifg,Enterprise Rent-A-Car,"Hotels & Travel, Car Rental",Boise,43.6209814768,-116.2234442979,4.0,AZ
d_AEJ6ekjX79tL5RZtwZ_g,ROOST Apartment Hotel,"Event Planning & Services, Hotels, Hotels & Travel",Philadelphia,39.9505683,-75.1657016,4.5,AZ
efCZcYNZgYFDH-2oA8rtFA,Airport Inn,"Event Planning & Services, Hotels, Hotels & Travel",Boise,43.5698391,-116.2140978,2.0,AZ
O3R-RUmazTNfMEczWvzLaA,Frenchy's Oasis Motel,"Hotels, Event Planning & Services, Hotels & Travel",Clearwater,27.9821108,-82.8277817,4.0,AZ
HeItGaMxWK_9PHlVvuBjIg,Hertz Rent A Car,"Hotels & Travel, Car Rental",Wilmington,39.736969,-75.55108,2.0,AZ
hAKPqO772vi8UgezXqgywA,Staybridge Suites Wilmington-Newark,"Event Planning & Services, Hotels, Hotels & Travel, Venues & Event Spaces",Newark,39.66857,-75.67265,3.5,NV
IYmnc4LXB6QZrVuGmETM2w,Nashville North KOA,"RV Parks, Local Services, Campgrounds, Active Life, Propane, Venues & Event Spaces, Hotels & Travel, Hiking, Event Planning & Services",Goodlettsville,36.3729656,-86.7094986,4.0,CA
CjjBPNI5gVuVE972ibVAQA,Quality Inn,"Hotels, Hotels & Travel, Event Planning & Services",Franklin,35.91593,-86.827008,2.5,NV
uiZYkZbLxI4PwwySBO4Fnw,Enterprise Rent-A-Car,"Hotels & Travel, Car Rental",Warminster,40.2042145128,-75.096089825,3.5,CA
wwhfuFiuDxUDYuJYVOpz-Q,Americas Best Value Inn St. Louis South,"Hotels, Event Planning & Services, Hotels & Travel",St. Louis,38.5101657832,-90.3378242254,2.0,CA
8hpVuqZlbgPJsg7wVzt9Rw,Big Drag Bus,"Event Planning & Services, Party Bus Rentals, Hotels & Travel, Tours, Bus Tours",Nashville,36.1567674,-86.793353,5.0,NV
F93UML-LSUMub3j_gR5xbw,Comfort Suites Ne Indianapolis Fishers,"Hotels, Event Planning & Services, Hotels & Travel",Indianapolis,39.9289861,-86.031803,2.0,NV
2FOo0-3MChznTIo79vW8zg,Courtyard Marriott,"Hotels, Hotels & Travel, Event Planning & Services",Indianapolis,39.6639246,-86.0901044,2.5,CA
N3ITza1b-lVVXqpn32X-fA,Comfort Inn Indianapolis North - Carmel,"Hotels & Travel, Event Planning & Services, Hotels",Indianapolis,39.934686,-86.156563,2.5,NV
9yZwVEhw_BQXo9t2zz1rRQ,Hill Cadillac,"Car Dealers, Automotive, Auto Repair, Auto Parts & Supplies, Tires, Car Rental, Hotels & Travel",Newtown Square,39.9846055,-75.4165078,3.0,NV
OuDjcMJbk-VLWqJJwzpE2g,Quality Inn & Suites,"Event Planning & Services, Hotels & Travel, Hotels",Meridian,43.5910833,-116.3950848,1.5,AZ
WKp0r3Psm6vgVdyR3cDblg,TD Ballpark,"Hotels & Travel, Active Life, Arts & Entertainment, Sports Clubs, Stadiums & Arenas",Dunedin,28.003594,-82.7865490943,3.5,CA
PxYZojjBpat4-mK1vqCDbA,Payless Car Rental Airport,"Hotels & Travel, Car Rental",Reno,39.5058565,-119.774971,2.0,NV
OZ0WENoroBhh-D9CAjDwrg,The Frenchmen Orleans at 519,"Hotels & Travel, Hotels, Event Planning & Services, Resorts, Vacation Rentals",New Orleans,29.9631102,-90.0573802,3.5,AZ
v2M2ENlB1cqgWd7-IWzgbw,Enterprise Rent-A-Car,"Hotels & Travel, Car Rental",Sparks,39.5434718,-119.7173771,4.0,AZ
boN9yoVPElsnG20bBFZNDg,Super 8 by Wyndham Antioch/Nashville South East,"Hotels & Travel, Event Planning & Services, Hotels",Antioch,36.04552,-86.6636662,1.5,NV
K82QZximEMOVnrb9wa2BjA,South Beach Condo Hotel,"Real Estate, Event Planning & Services, Hotels, Condominiums, Home Services, Hotels & Travel",Treasure Island,27.7729684,-82.7737742,3.5,NV
2vAYStPvqIdrsM7ZE9X-1Q,Bow Tie Tours,"Historical Tours, Hotels & Travel, Tours",Philadelphia,39.9506155049,-75.1503472803,4.5,NV
NdKQwh2X5ykq0SNlzYDTyA,Hawthorn Suites By Wyndham Indianapolis North,"Event Planning & Services, Hotels & Travel, Hotels",Indianapolis,39.9127053,-86.2221623,2.0,NV
UxuFEVuGHl2yM8gMXi0JDw,United Airlines,"Hotels & Travel, Transportation, Airlines",Tucson,32.1202544,-110.937308,1.5,AZ
qzUI3vf5ni-y7hcHxchs-w,Enterprise Rent-A-Car,"Hotels & Travel, Car Rental",Tucson,32.2072092237,-110.8414882421,4.0,CA
jVtoisBOkIE0xCEkrGaA3w,Holiday Inn Express & Suites - West Chester,"Event Planning & Services, Hotels & Travel, Hotels, Venues & Event Spaces",West Chester,39.906078,-75.567717,2.5,NV
HFufFzO41giTeglFJ16Hqw,Enterprise Rent-A-Car,"Car Rental, Hotels & Travel",Pinellas Park,27.8386307547,-82.7447640994,4.5,AZ
SGWDENzN9oaPhwWizec30Q,Extended Stay America - Indianapolis - Airport,"Hotels, Event Planning & Services, Hotels & Travel",Indianapolis,39.7296095,-86.2535096,1.5,AZ
ZNdy7JaPmZpIYprPU-2wnw,Super 8 by Wyndham Clearwater/St. Petersburg Airport,"Hotels, Hotels & Travel, Event Planning & Services",Clearwater,27.8923076,-82.6803873,2.0,CA
U2i98o-yht9Zr20NXLA1oA,Colonial Inn,"Hotels, Nightlife, Lounges, Event Planning & Services, Karaoke, Hotels & Travel, Dive Bars, Restaurants, American (Traditional), Bars",Indianapolis,39.702262,-86.1395891,4.0,AZ
Z9ra0PkKNznX3SjKvHtoDg,Aloft Hotels - Cortex,"Hotels & Travel, Hotels, Event Planning & Services",St. Louis,38.6354074908,-90.2518936247,3.0,CA
idGEh65tQfwFF-BMgInL_g,Page Terrace Beachfront Hotel,"Event Planning & Services, Hotels, Hotels & Travel",Treasure Island,27.7672245,-82.7690472,4.0,CA
GvgLd-yCE50BTyaW5yKwwQ,Holiday Inn Express & Suites Largo-Clearwater,"Hotels, Hotels & Travel, Venues & Event Spaces, Event Planning & Services",Largo,27.913642004,-82.7872769793,3.0,AZ
Br7DHxx0bGGmcF6AMXHj7A,Fox Rent A Car,"Hotels & Travel, Car Rental",Tampa,27.9641625214,-82.5352855772,2.0,AZ
WH_DZNs-vB0sx3K5-WOvDg,Free Beach Ride,"Advertising, Professional Services, Hotels & Travel, Transportation, Public Transportation",Saint Pete Beach,27.7233519,-82.7399189,3.0,CA
4usFP9GZkIhFIKnM4XFquQ,Enterprise Rent-A-Car,"Hotels & Travel, Car Rental",Franklin,35.8986213346,-86.8768757609,3.5,NV
_uHF2ObRlgB2j7fTXCTmbw,Contempra Inn,"Hotels, Event Planning & Services, Hotels & Travel",Kenner,30.0082944,-90.2396017,2.0,CA
5WtxwcDlwn6mn7Jq7PxXeA,Sunshine Jet Ski Rental,"Jet Skis, Boating, Ski Resorts, Active Life, Hotels & Travel",St. Petersburg,27.7346248,-82.6321376,4.5,NV
F6h2gUe8UnBnra-vwubjHQ,Candlewood Suites Indianapolis East,"Event Planning & Services, Party & Event Planning, Venues & Event Spaces, Hotels & Travel, Hotels",Indianapolis,39.797384,-86.044266,3.5,AZ
DuzZ68TZWlQ3mALJZ0ASVQ,Avis Rent A Car,"Hotels & Travel, Car Rental",Santa Barbara,34.42059,-119.692215,3.5,NV
dKQVTydAiEYq8pIEGrCBhg,Comfort Inn Airport,"Hotels, Event Planning & Services, Hotels & Travel",Plainfield,39.674086,-86.36866,1.5,NV
7F4G6k_v3rB6kgGi_azx7A,Holiday Inn Express & Suites Tampa Northwest-Oldsmar,"Hotels & Travel, Event Planning & Services, Hotels, Venues & Event Spaces",Oldsmar,28.0356405,-82.6578335,4.0,NV
JL9BqMNHZmxa9omybAk4jA,Coastal Hideaways,"Home Services, Vacation Rentals, Event Planning & Services, Real Estate Services, Hotels, Hotels & Travel, Real Estate, Vacation Rental Agents",Santa Barbara,34.4205752,-119.6441788,2.5,NV
nOFRxz2DpvFk1qysMghcAQ,Econo Lodge,"Event Planning & Services, Hotels & Travel, Hotels",Mount Laurel,39.929169,-74.962671,2.0,AZ
t0R0LrZhC1__U4dTLNX9gA,TA,"Food, Convenience Stores, Automotive, Restaurants, American (New), Body Shops, Gas Stations, Rest Stops, Hotels & Travel, Event Planning & Services, Hotels, Auto Repair",Boise,43.5654416109,-116.1992229742,3.5,NV
wSBOPm5hzdhvRsgIHxraJw,Avis,"RV Rental, Hotels & Travel, Car Rental",Philadelphia,39.955738,-75.182648,1.5,AZ
KFdE11J3QtWXAjgDAcfc2g,TownePlace Suites by Marriott Tucson,"Event Planning & Services, Hotels, Real Estate, Hotels & Travel, Apartments, Home Services",Tucson,32.3154040781,-110.9752819188,3.5,NV
zQdb_niCLtY8ut68FlVsPg,TownePlace Suites New Orleans,"Hotels & Travel, Hotels, Event Planning & Services",Harvey,29.878375,-90.052468,3.0,NV
-VGUpTEsCUE9gJk50gbU6w,JetBlue,"Airports, Food, Transportation, Shopping, Hotels & Travel, Airlines",Philadelphia,39.876019,-75.242969,3.5,CA
7hzOeTR46RxhOwZezsZ4Lg,Bottleworks District,"Barbers, Public Markets, Beauty & Spas, Food Stands, Shopping, Restaurants, Hotels, Event Planning & Services, Hotels & Travel",Indianapolis,39.779009,-86.1442748,4.5,AZ
jDds2solrdvoyK7sB97Eog,Fairfield Inn & Suites Philadelphia Downtown/Center City,"Hotels & Travel, Venues & Event Spaces, Hotels, Event Planning & Services",Philadelphia,39.9468905,-75.1623589,3.5,NV
lBbgr4T-xqyx5cT5IT864Q,Lions Park,"Hotels, Hotels & Travel, Event Planning & Services, Active Life, Venues & Event Spaces, Parks, Wedding Planning",Carpinteria,34.4020369497,-119.4902873186,5.0,AZ
FHpqEMjK0qe0b7YsR9IHqQ,Best Western Wesley Chapel,"Hotels & Travel, Event Planning & Services, Hotels",Wesley Chapel,28.2391329584,-82.3580397964,2.5,NV
XF2Sm0Jz7VYrZe-ZN-Djgg,Shamrock RV Park,"Hotels & Travel, Sporting Goods, Hotels, Shopping, Event Planning & Services, Campgrounds, Outdoor Gear, RV Parks",Reno,39.56919,-119.821898,4.0,CA
Xjwe3p6EnYY5Ic7gcmU0Bg,Audubon Cottages,"Guest Houses, Hotels & Travel",New Orleans,29.9579783,-90.06778919999998,5.0,NV
rXI4pNRmoh5gkGzoZB3o1Q,Hampton Inn & Suites Harvey/New Orleans West Bank,"Hotels, Hotels & Travel, Event Planning & Services",Harvey,29.8897534439,-90.0587804024,4.0,NV
xEOMVwCzxjcmwIoxQ3sCBg,"The Karol Hotel, a Tribute Portfolio Hotel","Hotels & Travel, Venues & Event Spaces, Hotels, Event Planning & Services",Clearwater,27.894597,-82.6698246442,4.5,NV
OkPxSX0hmLjP3F5y2YB85A,Red Roof Inn Indianapolis North - College Park,"Hotels & Travel, Event Planning & Services, Hotels",Indianapolis,39.9245071966,-86.2251103487,2.0,NV
pL01PI9rgVKVAyE_DnJRog,Hertz Rent A Car,"Car Rental, Hotels & Travel",Clayton,38.646951,-90.336969,1.5,AZ
N8RsUUeQocYT55Z7YukkGw,Schooner Hotel,"Event Planning & Services, Hotels & Travel, Hotels",Madeira Beach,27.7978568,-82.7977983,3.5,AZ
lRXlP818rz354pRIQ6m-9A,Enterprise Rent-A-Car,"Car Rental, Hotels & Travel",Bala Cynwyd,39.9999414877,-75.2298759151,3.5,AZ
2FxY4-NVp2ZwXCf4UTtv3w,United Airlines,"Hotels & Travel, Transportation, Airlines",Indianapolis,39.714918,-86.298214,1.5,AZ
1KLs3yA1gIq0Jek-iyPXlA,Comfort Suites St Charles-St Louis,"Hotels & Travel, Event Planning & Services, Hotels",Saint Charles,38.769138,-90.491588,2.5,CA
yZa-Bm51dqmo8720zzcHdw,Clarion Hotel & Conference Center,"Event Planning & Services, Hotels, Venues & Event Spaces, Hotels & Travel",Exton,40.0566238,-75.649448,1.5,NV
Y93ll_YiW-dNgR0UVzkdLg,Fairfield Inn & Suites Philadelphia Horsham,"Event Planning & Services, Hotels, Hotels & Travel",Willow Grove,40.160656448,-75.1328025853,4.0,NV
_980W4Bu_9ZrtnIbdZMDuA,Integrity Limousine Services,"Event Planning & Services, Transportation, Bus Tours, Limos, Airports, Airport Shuttles, Hotels & Travel, Party Bus Rentals, Tours, Buses",Zionsville,39.9420101397,-86.2438922172,4.0,AZ
CACvbdt4D9rvCw-F1WvarQ,Red Roof Inn Tampa Bay - St Petersburg,"Hotels, Hotels & Travel, Event Planning & Services",St Petersburg,27.81744,-82.67945,2.0,CA
vfOFJnfAmjc7_geqA2xUQg,Holiday Inn Express & Suites Trinity,"Hotels & Travel, Venues & Event Spaces, Hotels, Event Planning & Services",Trinity,28.1895223,-82.6283808,4.5,NV
ZzVMHQMLlL5M9D4HdczyiQ,La Quinta by Wyndham Tampa Bay Area-Tampa South,"Hotels, Hotels & Travel, Event Planning & Services",Tampa,27.892992,-82.523627,3.0,CA
-R3kduqdMdxs1EBL-fumIA,Homewood Suites by Hilton Philadelphia-Valley Forge,"Event Planning & Services, Hotels & Travel, Hotels",Audubon,40.1276881033,-75.4072677224,3.5,NV
CVoTqTnHntspcgrZZy4-Gg,Extended Stay America - Philadelphia - Bensalem,"Real Estate, Apartments, Home Services, Event Planning & Services, Hotels & Travel, Hotels",Bensalem,40.1147665,-74.9617878,2.0,AZ
4rZwsOtEdynIiyx40IQGAw,Local Tastes of Nashville,"Hotels & Travel, Tours, Food Tours, Event Planning & Services, Historical Tours, Team Building Activities, Walking Tours",Nashville,36.1626638,-86.7816016,5.0,NV
WpfXYtBebEcTA_8O8kyD9g,Holiday Inn Express Frazer-Malvern,"Hotels & Travel, Event Planning & Services, Hotels, Venues & Event Spaces",Frazer,40.044512,-75.522781,3.0,AZ
iIBWemwS12H9q7QyCU-ziw,Fusion Resort,"Resorts, Event Planning & Services, Hotels, Tapas Bars, Hotels & Travel, Restaurants",Treasure Island,27.7710703099,-82.7649728785,3.0,AZ
h5x0qz_LFmKRh5-0LJ1G0Q,Big Willie's Nashville,"Active Life, Yoga, Tours, Fitness & Instruction, Hotels & Travel, Paddleboarding, Arts & Entertainment, Rafting/Kayaking",Nashville,36.1629414,-86.7714679,4.5,AZ
m8w3D-iivWLznMpT2-b9nw,Delta Airlines,"Transportation, Hotels & Travel, Airlines, Airports",Boise,43.569166,-116.222578,2.5,NV
Kyr2D8DqnzlJubnNp8poSw,Holiday Inn Express & Suites Spring Hill,"Hotels, Venues & Event Spaces, Hotels & Travel, Event Planning & Services",Spring Hill,28.4835071,-82.6054099,2.5,CA
ZAwlsg4bYXvpZKrZJJfudQ,La Quinta by Wyndham Philadelphia Airport,"Hotels & Travel, Hotels, Event Planning & Services",Essington,39.8676759,-75.3075033,2.0,AZ
pr72slJjexbm8zpQjPfVeg,Extended Stay America - Tampa - Airport - N. Westshore Blvd.,"Hotels, Event Planning & Services, Hotels & Travel",Tampa,27.9580278,-82.5226034,1.0,AZ
Zmk20z_1eDI5YBMZK7fIzQ,Faunbrook Bed & Breakfast,"Venues & Event Spaces, Event Planning & Services, Hotels, Hotels & Travel, Bed & Breakfast",West Chester,39.945475,-75.607644,5.0,AZ
H6bYoXxNTwtPnYKTydPrVw,Bob Evans,"Breakfast & Brunch, American (Traditional), Comfort Food, Bed & Breakfast, Hotels & Travel, Salad, Restaurants",Brownsburg,39.858085,-86.3934078813,3.0,AZ
0FMOvA2Noq-gieWfnXB7aQ,Live! Casino & Hotel Philadelphia,"Event Planning & Services, Arts & Entertainment, Hotels & Travel, Casinos, Hotels",Philadelphia,39.9091912,-75.1646617,2.5,CA
gGyPa2upZ33_cZxryI1hZg,Residence Inn Reno Sparks,"Hotels, Hotels & Travel, Event Planning & Services",Sparks,39.533397,-119.723918,4.0,NV
HydfAVW7DjUDLz1dqOBKpA,Cambria Hotel St Petersburg-Madeira Beach Marina,"Hotels, Event Planning & Services, Hotels & Travel",Madeira Beach,27.8023692,-82.8017913,4.0,AZ
MgAaivwlfBqKkH7rNYp2Tg,Holiday Inn Express & Suites Mt. Juliet-Nashville Area,"Women's Clothing, Venues & Event Spaces, Event Planning & Services, Fashion, Shopping, Hotels & Travel, Hotels",Mount Juliet,36.1631088,-86.5144107,3.5,AZ
RE5sfXu9N05KiAxv_2dR2A,Hertz Rent A Car,"Car Rental, Hotels & Travel",TAMPA,27.9488735,-82.3546404466,2.5,NV
oZxSL3PFX15Lzr8cjszmgQ,AKA University City,"Real Estate, Apartments, Home Services, Venues & Event Spaces, Hotels, Event Planning & Services, Hotels & Travel",Philadelphia,39.951936,-75.183911,4.0,NV
rhqyJ9sN-lb2JblkVFe13A,Alberta Motor Association,"Transportation, Hotels & Travel",Edmonton,53.5615871,-113.5091931,2.0,CA
i_Dq9LGH_2F0-CQx7ItbmQ,Residence Inn St. Louis Airport/Earth City,"Event Planning & Services, Hotels, Hotels & Travel",Earth City,38.7614326,-90.454006,3.0,CA
DSvMrohhj7ODSOJOWQkmMw,AAA Tucson Marana Auto Repair Center,"Automotive, Travel Services, Tours, Roadside Assistance, Hotels & Travel, Financial Services, Auto Repair, Insurance, Towing",Tucson,32.3226787,-111.0430721,3.5,NV
BQl4yzquxpRxaNCsHyCWnQ,Enterprise Rent-A-Car,"Hotels & Travel, Car Rental",Lansdale,40.257654,-75.267142,3.5,NV
nqcHzJh6zNME3FkrtaFdaw,Pedata RV Center,"Automotive, Hotels & Travel, RV Rental, Car Dealers, RV Dealers",Tucson,32.162788,-110.921309,3.0,NV
ap-SkQRLsBQBsvAlAhK5uA,Fairfield Inn & Suites Tampa Brandon,"Hotels & Travel, Hotels, Event Planning & Services",Tampa,27.9417008078,-82.3345257063,2.5,CA
CpmxcFYs8ukYdeXg0SgtmQ,Enterprise Rent-A-Car,"Hotels & Travel, Car Rental",Santa Barbara,34.425093,-119.836519,3.5,AZ
51-PH6PWSiWdri7Fudv0aA,Tru by Hilton St. Charles St. Louis,"Event Planning & Services, Hotels, Hotels & Travel",St. Charles,38.764513,-90.4951109,4.0,AZ
SG9XqFtfX1jRolp9og5kBQ,La Quinta by Wyndham Tampa North I-75,"Event Planning & Services, Hotels, Hotels & Travel",Tampa,28.1237,-82.370914,3.5,CA
E6G59qYgnP4p8QmWz-fjWg,Holiday Inn Express Tampa-Brandon,"Event Planning & Services, Hotels, Hotels & Travel, Venues & Event Spaces",Brandon,27.9464464,-82.3266552,4.0,NV
OUECb_njmGutp0mVLZ6krw,Holiday Inn Express & Suites Clearwater North/Dunedin,"Hotels & Travel, Event Planning & Services, Hotels, Venues & Event Spaces",Dunedin,28.0152924,-82.7891284,4.0,NV
wecz33jg-MTSP3VaxEXCEQ,Bob Evans,"Comfort Food, American (Traditional), Restaurants, Breakfast & Brunch, Hotels & Travel, Salad, Bed & Breakfast",St Charles,38.7836484672,-90.5320972949,3.0,NV
sFyHYq3K8P0wOPQEFu3hXA,Enterprise Rent-A-Car,"Car Rental, Hotels & Travel",Tucson,32.1311559,-110.9341519,3.5,NV
8EDoUwLKIwyD_Jz6LnaWXQ,Drury Inn & Suites - Fairview Heights,"Hotels & Travel, Bed & Breakfast, Event Planning & Services, Hotels",Fairview Heights,38.6012385,-89.9866406,4.0,AZ
TxSsc8jCM5Kb-beInkUBeA,Hampton Inn Indianapolis-South,"Event Planning & Services, Hotels & Travel, Hotels",Indianapolis,39.663987,-86.093747,3.5,AZ
FMDe0D6IYvOI7d-Bi9Tvvg,SureStay Plus Hotel By Best Western Brandywine Valley,"Event Planning & Services, Hotels, Hotels & Travel",Wilmington,39.7869869681,-75.5448376,2.5,CA
ujjjOQ_MHgvD6Y-fGkAQ4Q,Courtyard by Marriott Philadelphia Valley Forge/King of Prussia,"Event Planning & Services, Venues & Event Spaces, Hotels & Travel, Hotels",Wayne,40.0819078,-75.4104815,3.5,AZ
wCXw6gQQTvwXU998c6ATGA,Fairfield Inn by Marriott,"Event Planning & Services, Hotels & Travel, Hotels",Saint Charles,38.769006,-90.4993902,2.5,AZ
hFdu-y8ZRLh1TiHc7cNmvQ,Enterprise Rent-A-Car,"Hotels & Travel, Car Rental",Largo,27.9169184409,-82.7555862155,3.0,NV
Fnr1VWkzAX7cXmEgInrCXg,The Upper Quarter,"Local Flavor, Hotels & Travel, Nightlife, Bars",New Orleans,29.9567053,-90.0703258,4.5,NV
CSXJOcMhHBn1vVNXvlTsNQ,Air Ventures Balloon Rides,"Hot Air Balloons, Hotels & Travel, Tours, Hotels, Event Planning & Services, Active Life",Glenmoore,40.042754,-75.48376,4.0,AZ
Vfpnf7pX17UAGZG4Y50Jjw,Arts District Bike Rental & Tours,"Transportation, Hotels & Travel, Tours, Bike Rentals, Active Life, Bike tours",New Orleans,29.9409752559,-90.0723123418,4.5,AZ
tIrYpQ8I6gh1FhhqYU-Ttg,Holiday Inn,"Hotels & Travel, Hotels, Event Planning & Services, Venues & Event Spaces",St. Louis,38.7603364922,-90.4591113265,3.0,NV
v0bxe65xGR2s2j9S8knxFw,Holiday Inn Express Indianapolis - Southeast,"Event Planning & Services, Hotels & Travel, Venues & Event Spaces, Hotels",Indianapolis,39.7028287,-86.0777106,3.0,NV
GN-WDmkkun7ItJxhuSsXDQ,Red Lion Inn & Suites Boise Airport,"Hotels, Event Planning & Services, Hotels & Travel",Boise,43.5663278145,-116.1992121448,2.5,CA
9T1Q8zqIcPq_YUauihM09w,La Quinta by Wyndham Mt. Laurel - Philadelphia,"Hotels, Hotels & Travel, Event Planning & Services",Mount Laurel,39.9263307602,-74.9565026954,3.5,AZ
d3fcuTE1Cu-AIXUSP1Ydsw,Enterprise Rent-A-Car,"Car Rental, Hotels & Travel",Cherry Hill,39.9317615323,-75.0311202854,3.0,NV
TDXzJrOJTdja-3SIWZu6FQ,Santa Barbara Harbor,"Event Planning & Services, Tours, Hotels, Hotels & Travel",Santa Barbara,34.4038391113,-119.6931381226,4.5,AZ
9D3mvHmxQouaOcizFKg1dg,Courtyard by Marriott Edmonton West,"Hotels & Travel, Wedding Planning, Hotels, Event Planning & Services",Edmonton,53.5381843521,-113.6390389578,4.5,NV
Iu7QerAvVSGN3Y1CcCm64g,AAA Willow Grove Car Care Insurance Travel Center,"Gas Stations, Automotive, Hotels & Travel, Insurance, Car Wash, Travel Services, Financial Services, Auto Repair, Auto Loan Providers, Registration Services",Willow Grove,40.1429609,-75.1206812,2.5,CA
NlWtg6MMmu_pc2pPPnU-fw,Enterprise Rent-A-Car,"Car Rental, Hotels & Travel",Tucson,32.3310352,-111.0468383,2.5,AZ
JWPaKrwH0vyDliVjIfi8jA,GLH Hotel,"Hotels, Hotels & Travel, Event Planning & Services",Tucson,32.249709,-110.9935476,1.5,AZ
KLPdrKh6CZHslbZ-0ZKVdQ,Coast to Coast Auto Transport,"Automotive, Hotels & Travel, Vehicle Shipping, Transportation, Motorcycle Dealers",Kuna,43.5107491875,-116.3729774,4.0,CA
nyRBU9cCccVHil2qUZfAOg,Fairfield Inn & Suites Tampa Fairgrounds/Casino,"Event Planning & Services, Hotels & Travel, Hotels",Tampa,27.9807309,-82.3830153,3.0,CA
4Zqjjb_nsqbfoBVHuvLYnA,Varsity Club - Tucson,"Hotels & Travel, Hotels, Event Planning & Services",Tucson,32.2366532,-110.9103814,4.0,AZ
KzkxnAAqg-zc-EvEu5lAzw,Kozuba & Sons Distillery,"Event Planning & Services, Tours, Hotels & Travel, Wine Tours, Venues & Event Spaces, Distilleries, Food",Saint Petersburg,27.7662760836,-82.6597920433,4.5,NV
-ns9xUr8x2_MPONXobT7zg,St. Philip French Quarter Apts,"Vacation Rentals, Hotels & Travel, Apartments, Real Estate, Guest Houses, Home Services",New Orleans,29.959915,-90.062077,4.5,CA
-_URFnpoO-6C-cbtPoiqpA,Easirent Car Rental,"Hotels & Travel, Car Rental",Tampa,27.952024,-82.5311575,2.0,AZ
ZLjUCF2UaML7S5pSmn5BKg,Canopy by Hilton Philadelphia Center City,"American (New), Hotels & Travel, Restaurants, Event Planning & Services, Venues & Event Spaces, Hotels",Philadelphia,39.9509385644,-75.1599574301,4.5,CA
ScnvSvOAXUkz6ehSDFmtrQ,Tow Pro,"Transportation, Automotive, Parking, Hotels & Travel, Towing, Movers, Home Services",Nashville,36.2040096581,-86.8305633066,2.5,AZ
r2sRlGPhREj3W3hikmST4A,La Quinta Inn by Wyndham Clearwater Central,"Event Planning & Services, Hotels & Travel, Hotels",Clearwater,27.966329,-82.7312029,3.0,AZ
4E8Ns9fGoetEhaqlNkcq9A,Treasure Island Boat Rentals,"Hotels & Travel, Tours, Boat Tours, Boating, Active Life",Treasure Island,27.7710891,-82.7708552,3.5,CA
hl0cZiAS3aEQGT4fzcISnA,Quality Inn,"Hotels & Travel, Hotels, Event Planning & Services",Newark,39.6864715769,-75.6522936356,2.0,CA
ZL0Iyn8hlTHDz70-IPFBAQ,Burgundy Bar at The Saint Hotel,"Nightlife, Hotels, Lounges, Bars, Hotels & Travel, Event Planning & Services",New Orleans,29.9551783606,-90.0714756975,3.5,CA
-uGgx0N5EXmu1U2_wiQVOw,Hertz Rent A Car,"Hotels & Travel, Car Rental",Boise,43.5710257,-116.2187939,3.0,NV
NwtwB2I1XX6uxtW6N9pJcQ,Best Western Plus Sunrise Inn,"Hotels & Travel, Event Planning & Services, Hotels",Nashville,36.133529,-86.7240805,2.5,AZ
PZK8lGkyS1K1_26wlzcxng,River House at Odette's,"Event Planning & Services, Hotels & Travel, Hotels",New Hope,40.3556673,-74.9483225,3.0,NV
d3oWR40qS6CCTFXce3yQqw,Hertz Rent A Car,"Car Rental, Hotels & Travel",Santa Barbara,34.424414,-119.8362002,3.0,AZ
YrPz8_bI9xl1jzzrf7hsxw,La Quinta Inn by Wyndham Tampa Bay Pinellas Park Clearwater,"Hotels & Travel, Event Planning & Services, Hotels",Pinellas Park,27.840399,-82.68515,1.5,AZ
Fw-3BqcbyLtemOlwLt265g,Courtyard Tampa North/I-75 Fletcher,"Event Planning & Services, Venues & Event Spaces, Hotels & Travel, Hotels",Tampa,28.0698644074,-82.3609437,2.5,NV
GxjZBGvGEU07tENm3ikygw,Amtrak Train Station,"Hotels & Travel, Train Stations, Transportation, Public Transportation",Wilmington,39.7370042229,-75.5509330978,3.5,NV
KRtUort3aT6oq6pDout0yA,Enterprise Rent-A-Car,"Car Rental, Hotels & Travel",Palm Harbor,28.0510474675,-82.7392950654,4.0,NV
TUbd7pgnXELikI6xEdm5Aw,Peppermill Poker Room,"Venues & Event Spaces, Event Planning & Services, Nightlife, Hotels & Travel, Hotels, Casinos, Arts & Entertainment",Reno,39.4972231,-119.8010219,4.5,AZ
ILCgMRAQP4Or5HVW4Qx9Xw,Holiday Inn Express & Suites Indianapolis Downtown City Centre,"Event Planning & Services, Hotels & Travel, Hotels, Venues & Event Spaces",Indianapolis,39.7612159,-86.1659165,3.0,AZ
n94poEA0Tnsm7H3-o5KRgQ,Hotel Broad Ripple,"Hotels, Event Planning & Services, Hotels & Travel, Bed & Breakfast",Indianapolis,39.8741768,-86.1416511,4.5,AZ
bjA-MBtEdiOtiBntcRw45A,Jackalope Brewing Company - The Ranch,"Beer Tours, Hotels & Travel, Tours, Food, Beer Gardens, Beer Bar, Nightlife, Bars, Breweries",Nashville,36.142608,-86.767013,4.5,AZ
7sgXMHbn10ddGsww84GGEg,Magic Carpet Glide Segway Tours,"Tours, Local Flavor, Hotels & Travel",Tampa,27.9337540168,-82.4510192871,4.5,CA
djJEgAHvnopw4AAWdISO6A,Hampton Inn Boise - Airport,"Hotels & Travel, Event Planning & Services, Hotels",Boise,43.5725949819,-116.217488,3.5,NV
2-XK9zDgSKqOwSyyMwgjzA,Alamo Rent A Car,"Car Rental, Hotels & Travel",Clearwater,27.9066971,-82.6925374,3.5,NV
gzZyy9_2IN1iz-qUQkmk5g,Carquest Auto Parts - Larrys Auto Parts,"Hotels & Travel, Hardware Stores, Home & Garden, Auto Repair, Shopping, Automotive, RV Rental, Auto Parts & Supplies",Goleta,34.4357052227,-119.8280190008,5.0,CA
InS2FvXYgG1cm4CRWlWzYw,Spinners Rooftop Grille,"Hotels & Travel, Lounges, Nightlife, Event Planning & Services, Hotels, Bars, Steakhouses, Restaurants, Seafood",St. Pete Beach,27.7260128125,-82.7428213393,3.5,AZ
lkKc4g6n0Wl7m9MX-SzuEg,Residence Inn by Marriott,"Event Planning & Services, Hotels & Travel, Hotels",Cherry Hill,39.9093244,-74.9802145,2.5,AZ
RknE2UNV0VHAvCAf28nTgg,Magnuson Hotel and Marina New Port Richey,"Hotels & Travel, Event Planning & Services, Hotels",New Port Richey,28.2320936908,-82.7307781528,1.5,NV
wnRTrYosEp2ON4IK06X49Q,Allegiant Air,"Airlines, Transportation, Hotels & Travel",Indianapolis,39.714637,-86.297877,2.0,AZ
7MA_W6A7TKRustB9oTFpvQ,Tahitian Resort Motel,"Hotels, Event Planning & Services, Resorts, Hotels & Travel, Apartments, Home Services, Real Estate",Treasure Island,27.772997,-82.7720439,3.0,AZ
q6SMfwL4lOrVF5vAJLEqWA,Sixt Rent A Car,"Car Rental, Hotels & Travel",Indianapolis,39.7140094,-86.2988733,2.0,AZ
gfeD8JNeWL7UsDxlckxr3A,Tru by Hilton Meridian Boise West,"Event Planning & Services, Hotels & Travel, Hotels",Meridian,43.5923256433,-116.3554017701,3.5,AZ
8rhUPc37gyqqeCnmRbZx-Q,Motel 6,"Hotels & Travel, Event Planning & Services, Hotels",Boise,43.5688032,-116.210328,2.0,CA
18zXpz-yBCLHDH3de3_reg,Courtyard by Marriott St. Louis Downtown/Convention Center,"Event Planning & Services, Hotels & Travel, Hotels, Venues & Event Spaces",St. Louis,38.6311557839,-90.1924051996,3.5,NV
ijIR4FJmwNJDWgzE1s9LPw,Victorian Inn,"Real Estate, Apartments, Hotels & Travel, Hotels, Event Planning & Services, Bed & Breakfast, Home Services",Sparks,39.5349511181,-119.7631250423,2.5,AZ
I_phSMawWARB3rTDP5_wiA,Lyft,"Taxis, Automotive, Hotels & Travel, Transportation, Car Share Services",Tampa,27.9469593,-82.4595308,2.0,AZ
53xfgQSToy6YtpX3UzqojQ,Red Roof Inn Tampa Fairgrounds - Casino,"Event Planning & Services, Hotels & Travel, Hotels",Tampa,27.9924943,-82.3570108,2.0,AZ
ly-9ojez5YXWEEU2p7iASQ,Coconut Cove All-Suite Hotel,"Hotels, Event Planning & Services, Hotels & Travel, Venues & Event Spaces",Clearwater Beach,27.9666961,-82.8243202,2.5,NV
AGtZA_0tR0erViKGTCGtQg,Celebration Cruises,"Boating, Bars, Hotels & Travel, Boat Charters, Whale Watching Tours, Tours, Event Planning & Services, Nightlife, Active Life",Santa Barbara,34.4086834,-119.6850043,4.5,CA
ZzpPd25Mh9An0BMOrF3zcw,Nemours Estate,"Landmarks & Historical Buildings, Hotels & Travel, Tours, Local Flavor, Public Services & Government",Wilmington,39.7799801313,-75.5586846461,4.5,AZ
12O9klMLB5u51EudyWOGJw,Hyatt House Nashville at Vanderbilt,"Hotels, Hotels & Travel, Event Planning & Services",Nashville,36.1515866,-86.8025359,4.5,NV
n987t0rdBmhRbY9gYXCAjA,Red Roof Inn Mt Laurel,"Hotels & Travel, Hotels, Event Planning & Services",Mt Laurel,39.9307545838,-74.9612280692,1.5,AZ
G1M1OJmxp5dPY3rRYpl5WQ,Bob Evans,"Bed & Breakfast, American (Traditional), Comfort Food, Breakfast & Brunch, Salad, Restaurants, Hotels & Travel",Newark,39.6696273763,-75.6703828275,2.5,AZ
kMHZgooGdHN9099Ya0X4vA,La Quinta Inn by Wyndham Indianapolis East-Post Drive,"Hotels, Hotels & Travel, Event Planning & Services",Indianapolis,39.80203,-86.010737,2.0,CA
rViAhfKLKmwbhTKROM9m0w,Casino Del Sol,"Arts & Entertainment, Hotels & Travel, Casinos, Diners, Restaurants, Mexican, Resorts",Tucson,32.1311278367,-111.0866194535,3.0,NV
mxUKOHe6U5bRYVN7Q_JNxQ,Bottleworks Hotel,"Hotels & Travel, Hotels, Event Planning & Services, Venues & Event Spaces",Indianapolis,39.778608114,-86.1440095,5.0,NV
9aImekqGnpxl1HIhzBrd7Q,Suncoast Watersports,"Active Life, Jet Skis, Hotels & Travel, Tours, Boating, Boat Tours, Parasailing, Snorkeling, Event Planning & Services, Rafting/Kayaking, Boat Charters",Saint Pete Beach,27.7270163969,-82.7431447411,4.5,CA
PNRi6tvJN989IuGqpydE4A,Bon-Aire Resort,"Event Planning & Services, Hotels, Hotels & Travel",St. Pete Beach,27.7183642,-82.7396347,4.5,NV
bk5ZKusfuzlar9z9JbHlIA,Fairfield Inn & Suites by Marriott Indianapolis Downtown,"Hotels & Travel, Hotels, Event Planning & Services",Indianapolis,39.766799,-86.1682613,3.5,CA
tPu6ZX94n260wQprRVohvA,Homewood Suites by Hilton Philadelphia-City Avenue,"Hotels, Hotels & Travel, Event Planning & Services",Philadelphia,40.0040060418,-75.217685797,3.0,NV
su6eqhafkXNxBDHDAH5_SQ,Clarion Inn & Suites New Hope-Lambertville,"Hotels & Travel, Hotels, Event Planning & Services",New Hope,40.3564238,-74.9840265,2.5,CA
N-WnC5uIiPZAlojSaE-swA,Delta Airlines,"Hotels & Travel, Airlines, Airports, Transportation",Kenner,29.9861166404,-90.2589789396,2.5,AZ
OutI6KR_Y4lFln9KpSBEOw,Staybridge Suites St. Petersburg Downtown,"Venues & Event Spaces, Hotels & Travel, Event Planning & Services, Hotels",St. Petersburg,27.7654175563,-82.6476321669,4.0,AZ
0hVf3a0oq8ckB8JIDwSgig,Days Inn by Wyndham Philadelphia Convention Center,"Hotels, Event Planning & Services, Hotels & Travel",Philadelphia,39.956112,-75.1602156,2.0,AZ
lQ4BAN6C6rTCQPrl-DAPJQ,Budget Rent A Car,"Hotels & Travel, Car Rental",Tucson,32.1145099659,-110.9392269328,1.5,NV
wIRrMytWVZXBB6Lp9_MZIg,Hilton Garden Inn Philadelphia/Ft. Washington,"Hotels, Event Planning & Services, Hotels & Travel",Fort Washington,40.1323895533,-75.2045568824,3.5,AZ
7F3bpQjZtUVNEPOxMkG-gA,Residence Inn Tampa Downtown,"Hotels & Travel, Event Planning & Services, Hotels, Venues & Event Spaces",Tampa,27.9514877,-82.46109,3.5,NV
6El5MwWTavUWeLOvtdbmhQ,The Nestle Inn,"Event Planning & Services, Hotels, Hotels & Travel, Bed & Breakfast",Indianapolis,39.7764078,-86.148327,4.5,AZ
5RE9RlThDCY_SoGSJZRE2w,Thrifty Car Rental,"Hotels & Travel, Car Rental",NEW ORLEANS AP,29.9854365484,-90.2570553331,1.5,CA
YAZnkCcNADl-yn6XsOHsRA,TownePlace Suites by Marriott Nashville,"Hotels & Travel, Hotels, Event Planning & Services",Nashville,36.1505565168,-86.6692100465,3.5,AZ
tnPaOSLr3cfpWcW7dSnDiQ,Hyatt Place Indianapolis/Keystone,"Hotels, Event Planning & Services, Hotels & Travel, Venues & Event Spaces",Indianapolis,39.919734,-86.1095292,3.0,NV
UjOq8dBVNv9weHrVDqm3kQ,Hotel Milo Santa Barbara,"Hotels, Event Planning & Services, Hotels & Travel",Santa Barbara,34.4104385376,-119.6920394897,3.0,CA
zZBAyyqFODcCdZc3fqgyzA,"Blake Hotel New Orleans, BW Premier Collection","Event Planning & Services, Hotels, Hotels & Travel",New Orleans,29.949184,-90.0705693833,2.5,AZ
edZOMuuz6TKNGnsE3ms1QA,Septa,"Train Stations, Hotels & Travel, Public Transportation, Transportation",Philadelphia,40.0040298,-75.165723,1.5,AZ
Rnh7bmBw4BqtWR2yybWtEA,Springfield Ford Lincoln,"Auto Parts & Supplies, Body Shops, Car Dealers, Hotels & Travel, Auto Repair, Automotive, Car Rental",Springfield,39.9245404051,-75.3138780331,3.5,NV
JODu4xqBU80zZ9mKKWrbYg,The 404 Kitchen,"Event Planning & Services, Restaurants, Hotels & Travel, Food, Nightlife, American (New), Desserts, Whiskey Bars, Hotels, Modern European, Bars",Nashville,36.151791,-86.7847415,3.5,NV
4ZIkzr-gHYN_bvBNo7qPdw,Camping World of Tampa,"RV Rental, Hotels & Travel, Auto Repair, RV Repair, Insurance, RV Dealers, Automotive, Financial Services, Auto Parts & Supplies",Dover,28.024599,-82.242719,2.0,AZ
ScR8EViAFzYUyccKQuYaqw,Courtyard Tucson Williams Centre,"Hotels & Travel, Hotels, Venues & Event Spaces, Event Planning & Services",Tuscon,32.219979,-110.878932,4.0,NV
rhlfk44YVcOLZ-T0Vbat4g,Gateway Arch & Old Courthouse,"Landmarks & Historical Buildings, Public Services & Government, Museums, Tours, Hotels & Travel, Active Life, Parks, Arts & Entertainment",Saint Louis,38.624901,-90.186317,4.0,NV
vnMkK4xE-jVO1SOeyYUR7A,Grand Bay Driving Range,"American (New), Event Planning & Services, Active Life, Hotels, Hotels & Travel, Restaurants, Golf",Reno,39.5226082,-119.7801007,3.5,NV
OI2K7ao8evC5t43Pt3T4Hg,Tri County Toyota,"Car Rental, Auto Parts & Supplies, Smog Check Stations, Auto Repair, Car Dealers, Financial Services, Automotive, Hotels & Travel",Royersford,40.2209123,-75.5454332,2.0,AZ
oha2U5XJzc6IQdenpsxN1Q,Tarpon Springs Aquarium and Animal Sanctuary,"Tours, Hotels & Travel, Active Life, Zoos, Aquariums, Amusement Parks",Tarpon Springs,28.1683851163,-82.7544218117,3.5,NV
Ib2wL00bk4CtumBmLyfiHg,Dolphin Racer Speedboat,"Active Life, Hotels & Travel, Tours, Local Flavor",South Pasadena,27.7481994629,-82.7451705933,5.0,AZ
qQ7FHvkGEMqoPKKXPk4gjA,La Quinta by Wyndham NW Tucson Marana,"Hotels & Travel, Hotels, Event Planning & Services",Tucson,32.3585874,-111.093308,2.5,AZ
uQWhejZCTCeJheRXOAU8ig,Red Hawk Golf and Resort,"Hotels & Travel, Event Planning & Services, Resorts, Hotels, Country Clubs, Sports Clubs, Active Life, Arts & Entertainment, Golf",Sparks,39.6131689311,-119.6877720353,3.5,CA
IgFxKVu_yHlCJsQkTYPPeQ,JAMNOLA,"Art Museums, Museums, Arts & Entertainment, Hotels & Travel, Tours, Art Tours",New Orleans,29.96396,-90.0490678,4.5,NV
Sir9FHQVMOugs-4L0fusRw,Hilton Brentwood/Nashville Suites,"Venues & Event Spaces, Event Planning & Services, Hotels, Hotels & Travel",Brentwood,36.0326309,-86.7808761,3.5,AZ
uVg0HssgFzvRU1xd_h6V6w,Fairlane Hotel,"Hotels, Hotels & Travel, Event Planning & Services",Nashville,36.1648001,-86.7799287,4.5,AZ
lJzfEleeQ1uYnYQp37LD9Q,Dollar Car Rental,"Car Rental, Hotels & Travel",Nashville,36.1153052298,-86.6708143318,2.5,NV
7fH8SmEBinkv2AI7B8dOWA,The Palm - Nashville,"Restaurants, Event Planning & Services, Seafood, Hotels & Travel, American (New), Steakhouses, Hotels",Nashville,36.159825,-86.777827,3.5,AZ
2o4GOsWEmcdwjgqnEw0w9A,Mount Lemmon,"Hotels & Travel, Ski Resorts, Parks, Active Life, Hiking",Tucson,32.44752,-110.78166,4.5,CA
Gkq-fh0MQzi9BoccZmI0Iw,RCI,"Vacation Rentals, Hotels & Travel",Carmel,39.932614,-86.2348354924,1.5,NV
D5Oj2J03gwy6flkMZM79Aw,Santa Barbara Airbus,"Tours, Hotels & Travel, Airport Shuttles, Limos, Buses, Wine Tours, Bus Rental, Local Services, Bus Tours, Transportation",Goleta,34.4290553,-119.8274471,3.5,AZ
956T4nw0gCoORsLtes6rlg,Motel 6 Santa Barbara - State Street,"Hotels & Travel, Hotels, Event Planning & Services",Santa Barbara,34.4399624,-119.7389569,2.0,AZ
Fomz7ROgl8qHLElkticMog,Embassy Suites by Hilton Nashville South Cool Springs,"Restaurants, Hotels & Travel, Event Planning & Services, Hotels",Franklin,35.9446505,-86.8131212,3.5,NV
JMhyYTlfvZB_xYQVpsCyAg,Super 8 by Wyndham Boise,"Hotels & Travel, Event Planning & Services, Hotels",Boise,43.5728572,-116.2156323,1.5,NV
xV32Y7jne4duaM3H_r_ryQ,Holiday Inn Express Philadelphia - Penns Landing,"Event Planning & Services, Hotels, Venues & Event Spaces, Hotels & Travel",Philadelphia,39.9528054,-75.140446,3.5,AZ
-QqxJ3oIczVKt1inXYlR1g,Hotel Villa Convento,"Hotels & Travel, Hotels, Event Planning & Services",New Orleans,29.960763293,-90.0614050894,4.0,AZ
P-PBH28Ck3jaUY660VTuAw,Expresspark North Lot,"Parking, Automotive, Airport Shuttles, Hotels & Travel, Transportation",Philadelphia,39.86492399,-75.27243441,4.0,CA
rnWc8mgFnziFBbDmhdetzw,New Orleans Passport Center,"Public Services & Government, Hotels & Travel, Passport & Visa Services, Travel Services",New Orleans,29.951306,-90.0654788,2.5,AZ
ORL4JE6tz3rJxVqkdKfegA,Gaylord Opryland Resort & Convention Center,"Venues & Event Spaces, Performing Arts, Arts & Entertainment, Hotels & Travel, Food, Convenience Stores, American (New), Beauty & Spas, Restaurants, Museums, Event Planning & Services, Hotels, Cinema, Resorts, Day Spas",Nashville,36.2115923083,-86.6943191727,3.0,NV
jBLv9EVy9mAxbYfxIUq-0g,The Pontchartrain Hotel,"Event Planning & Services, Hotels & Travel, Hotels",New Orleans,29.934992,-90.0796649006,4.0,CA
KBDlQpRaxMDTGcZwp2HLEw,Courtyard by Marriott Reno,"Hotels & Travel, Event Planning & Services, Venues & Event Spaces, Hotels",Reno,39.4643314887,-119.7849038243,3.0,NV
nhIffYn3kMRlHeClz0az1g,Santa Barbara Amtrak Station,"Trains, Public Transportation, Transportation, Hotels & Travel",Santa Barbara,34.413643053,-119.6928286747,3.0,CA
sihT-_DtwOdnDDDJbXN22A,Cigar City Brewing,"Tours, Food, Wine Tours, Arts & Entertainment, Hotels & Travel, Breweries, Wineries, Wine Tasting Room",Tampa,27.958601,-82.509346,4.5,AZ
n1jYl9qU29FFZ64Sx9adgA,The Sazerac House,"Event Planning & Services, Party & Event Planning, Museums, Venues & Event Spaces, Hotels & Travel, Arts & Entertainment, Tours, Historical Tours",New Orleans,29.9518507,-90.0675586,5.0,AZ
gCmyE-atK7PLFsRDWa-iOA,Doctor Gumbo Tours,"Nightlife, Tours, Food Tours, Walking Tours, Historical Tours, Bar Crawl, Hotels & Travel",New Orleans,29.9581281,-90.0617492,5.0,CA
cFDP-1jlq2pa_BPjC-wd4g,Camping World of Meridian,"Insurance, RV Rental, Financial Services, Hotels & Travel, RV Repair, Outdoor Gear, Auto Parts & Supplies, Sporting Goods, Auto Repair, Automotive, Shopping, RV Dealers",Meridian,43.59125348,-116.41262334,2.5,AZ
aoBQW6IKzgE-Hst2r_oAEg,Sports West Athletic Club,"Specialty Food, Active Life, Hotels & Travel, Car Rental, Sporting Goods, Day Spas, Trainers, Pilates, Food, Beauty & Spas, Health Markets, Gyms, Fitness & Instruction, Massage, Shopping",Reno,39.5085132,-119.8067313,2.5,AZ
l7b33ubze8Jqw7C4I1CAuA,Embassy Suites by Hilton Tampa Airport Westshore,"Hotels & Travel, Event Planning & Services, Restaurants, Hotels",Tampa,27.9490484,-82.5234881,2.5,NV
bLC3frEZCtstsrfjmJMJiw,Dolan Toyota,"Body Shops, Automotive, Auto Repair, Auto Parts & Supplies, Car Dealers, Car Rental, Hotels & Travel",Reno,39.502923,-119.788172,3.5,NV
-Eyt2U9zfgp0Kqgj-CjPDg,Miraval Arizona Resort & Spa,"Hotels, Beauty & Spas, Event Planning & Services, Hotels & Travel, Venues & Event Spaces, Day Spas, Resorts",Tucson,32.5076501935,-110.8848345973,3.5,NV
skWRxQU2LwbYQK0Dl_FqYw,Aloft Tucson University,"Hotels, Event Planning & Services, Hotels & Travel",Tucson,32.235694,-110.943389,3.0,CA
klU8EyJ8Bp1g_HTIDkER2A,Brandon Nissan,"Auto Parts & Supplies, Auto Repair, Hotels & Travel, Used Car Dealers, Car Rental, Automotive, Car Dealers",Tampa,27.947161,-82.340593,3.0,AZ
8lhyqiOAFjIipheDtk8gXA,Bath Street Inn,"Bed & Breakfast, Event Planning & Services, Hotels & Travel, Hotels",Santa Barbara,34.4255544,-119.7148108,4.5,AZ
LnN94-sJc8U6shh_i0oclw,New Hope Railroad,"Hotels & Travel, Tours, Train Stations, Local Flavor, Arts & Entertainment",New Hope,40.3653211,-74.953528,2.0,CA
bKtYoWxtlHaqP6KN65HWcA,River City Casino & Hotel,"Event Planning & Services, Local Flavor, Nightlife, Hotels & Travel, Casinos, Hotels, Restaurants, Social Clubs, Arts & Entertainment",St. Louis,38.5324476303,-90.2636504173,3.0,CA
elnmOdMKGQvAF9FoVXg6Eg,Wheel Fun Rentals - 24 E Mason St,"Active Life, Shopping, Hotels & Travel, Bikes, Paddleboarding, Local Flavor, Beach Equipment Rentals, Tours, Bike Rentals, Sporting Goods",Santa Barbara,34.4136345,-119.6894577,4.5,NV
I_FKWKPVpGts4q_HzJ-0mQ,"The Ritz-Carlton, New Orleans","Hotels & Travel, Venues & Event Spaces, Restaurants, Event Planning & Services, Hotels",New Orleans,29.9550414497,-90.0710785389,4.0,NV
gIz12h3svx22dhzj9ZzVTQ,Sirata Beach Resort,"Hotels, Event Planning & Services, Hotels & Travel",St. Pete Beach,27.7269964,-82.74339342,2.5,AZ
dYYkzkiAQoOtRjdR0kcspw,Tennessee Brew Works,"Breweries, Venues & Event Spaces, Beer Bar, Food, Pubs, Tours, Nightlife, Restaurants, Event Planning & Services, Hotels & Travel, Bars, Beer Tours, Arts & Entertainment, American (Traditional), Gastropubs, Music Venues, American (New)",Nashville,36.1504112236,-86.7759260162,4.5,AZ
oOSMOJptLRbmEDjp0YnEPw,Witches Brew Tours,"Strip Clubs, Arts & Entertainment, Haunted Houses, Tours, Comedy Clubs, Adult Entertainment, Nightlife, Hotels & Travel, Historical Tours, Walking Tours",New Orleans,29.9653661,-90.0629989,4.5,NV
fGUNmpB-Z3Tx51DM93eaBQ,Whitney Peak Hotel,"Climbing, Nightlife, Arts & Entertainment, Hotels & Travel, Active Life, Hotels, Event Planning & Services, Music Venues",Reno,39.527929,-119.8141447,3.5,CA
DL5IVX_42Ra6DEq5d7NLrw,Lambertville Station Restaurant,"Party & Event Planning, Hotels & Travel, Hotels, Event Planning & Services, Restaurants, American (Traditional)",Lambertville,40.365433,-74.945758,3.5,AZ
PY9GRfzr4nTZeINf346QOw,Peppermill Reno,"Event Planning & Services, Casinos, Beauty & Spas, Venues & Event Spaces, Arts & Entertainment, Day Spas, Hotels, Hotels & Travel",Reno,39.4976865,-119.801139,4.0,AZ
DboqYyH-S8pV6WxaF9Plow,Cal Coast Adventures,"Paddleboarding, Active Life, Tours, Hotels & Travel, Surfing, Rafting/Kayaking, Bike Rentals, Fitness & Instruction, Trainers",Santa Barbara,34.4192625,-119.6786045,5.0,NV
GmXC3CBu172Bkb0c6RnO7w,Restaurant R'evolution,"Event Planning & Services, Hotels, Cajun/Creole, Restaurants, Seafood, Southern, Hotels & Travel",New Orleans,29.9554435,-90.0681471,4.5,AZ
A9NqmUP1L3eU40a64q5Kdw,Kimpton The Goodland,"Hotels, Event Planning & Services, Hotels & Travel, Venues & Event Spaces",Goleta,34.4415625291,-119.8209244457,3.5,AZ
ez4kMLP6OJEIaMbMrrGRdA,New Orleans Secrets Tours,"Souvenir Shops, Historical Tours, Arts & Entertainment, Tours, Shopping, Hotels & Travel, Travel Services, Supernatural Readings, Psychics, Food Tours, Walking Tours, Team Building Activities, Event Planning & Services",New Orleans,29.9567156,-90.0635644,5.0,NV
Yp6Qp7SMtXBpACkSaKhssQ,Hotel St. Pierre,"Hotels & Travel, Hotels, Event Planning & Services",New Orleans,29.961782,-90.065895,3.5,AZ
9rBBukqUuhHQfh4_1V3vhw,Dollar Rent A Car,"Truck Rental, Parking, Car Rental, Hotels & Travel, Automotive",Tampa,27.9640444,-82.5345423,1.5,AZ
Eb1XmmLWyt_way5NNZ7-Pw,Louis Armstrong New Orleans International Airport  MSY,"Hotels & Travel, Airports, Transportation",Kenner,29.9958744014,-90.2551640664,3.0,AZ
1aj1hnqPt3rqoB8tVRHLEA,Hotel Monteleone,"Hotels & Travel, Hotels, Event Planning & Services",New Orleans,29.954351,-90.067868,4.0,CA
